{"type":"FeatureCollection","properties":{"source":"OpenStreetMap, each canal's navigation line (selectors in tools/extract-osm-canals.mjs)","fetched":"2026-09-18","licence":"ODbL 1.0 — © OpenStreetMap contributors (https://www.openstreetmap.org/copyright)"},"features":[{"type":"Feature","geometry":{"type":"LineString","coordinates":[[32.32633,31.27571],[32.30673,31.25052],[32.30517,31.24586],[32.30408,31.22865],[32.30868,31.10148],[32.31767,30.81143],[32.3421,30.72002],[32.34401,30.70505],[32.32426,30.62001],[32.30484,30.58093],[32.30378,30.57094],[32.30516,30.56025],[32.30878,30.54964],[32.32801,30.52656],[32.33679,30.51212],[32.34999,30.45217]]},"properties":{"canal":"suez"}},{"type":"Feature","geometry":{"type":"LineString","coordinates":[[32.31767,30.81143],[32.31553,30.7878],[32.32283,30.7506],[32.32673,30.74152],[32.3421,30.72002]]},"properties":{"canal":"suez"}},{"type":"Feature","geometry":{"type":"LineString","coordinates":[[32.347,31.23423],[32.30868,31.10148]]},"properties":{"canal":"suez"}},{"type":"Feature","geometry":{"type":"LineString","coordinates":[[32.35868,30.41105],[32.36501,30.4019]]},"properties":{"canal":"suez"}},{"type":"Feature","geometry":{"type":"LineString","coordinates":[[32.34999,30.45217],[32.35868,30.41105]]},"properties":{"canal":"suez"}},{"type":"Feature","geometry":{"type":"LineString","coordinates":[[32.34999,30.45217],[32.3578,30.43522],[32.36501,30.4019],[32.37292,30.36063],[32.43992,30.28483],[32.44281,30.28266],[32.4683,30.27336],[32.52917,30.25323],[32.53866,30.2429],[32.5654,30.20099],[32.56851,30.18648],[32.5731,30.05369],[32.58684,29.97283],[32.58411,29.95764],[32.58046,29.95064],[32.57586,29.9436],[32.5607,29.93034]]},"properties":{"canal":"suez"}},{"type":"Feature","geometry":{"type":"LineString","coordinates":[[-79.92426,9.26382],[-79.92373,9.26919]]},"properties":{"canal":"panama"}},{"type":"Feature","geometry":{"type":"LineString","coordinates":[[-79.6064,9.01148],[-79.61146,9.01557]]},"properties":{"canal":"panama"}},{"type":"Feature","geometry":{"type":"LineString","coordinates":[[-79.58537,8.99033],[-79.58126,8.98288],[-79.57654,8.96701],[-79.56872,8.9482],[-79.5647,8.94285]]},"properties":{"canal":"panama"}},{"type":"Feature","geometry":{"type":"LineString","coordinates":[[-79.6064,9.01148],[-79.59812,9.00326]]},"properties":{"canal":"panama"}},{"type":"Feature","geometry":{"type":"LineString","coordinates":[[-79.92139,9.28422],[-79.922,9.27825]]},"properties":{"canal":"panama"}},{"type":"Feature","geometry":{"type":"LineString","coordinates":[[-79.59812,9.00326],[-79.59374,8.99912]]},"properties":{"canal":"panama"}},{"type":"Feature","geometry":{"type":"LineString","coordinates":[[-79.58537,8.99033],[-79.58922,8.99381]]},"properties":{"canal":"panama"}},{"type":"Feature","geometry":{"type":"LineString","coordinates":[[-79.61921,9.02263],[-79.6136,9.01809]]},"properties":{"canal":"panama"}},{"type":"Feature","geometry":{"type":"LineString","coordinates":[[-79.6977,9.11119],[-79.70782,9.11533],[-79.74904,9.12102],[-79.75352,9.12031],[-79.76831,9.11256],[-79.77226,9.11222],[-79.79663,9.11798],[-79.80353,9.12141]]},"properties":{"canal":"panama"}},{"type":"Feature","geometry":{"type":"LineString","coordinates":[[-79.58888,8.99417],[-79.58537,8.99033]]},"properties":{"canal":"panama"}},{"type":"Feature","geometry":{"type":"LineString","coordinates":[[-79.59409,8.99881],[-79.59812,9.00326]]},"properties":{"canal":"panama"}},{"type":"Feature","geometry":{"type":"LineString","coordinates":[[-79.61114,9.01591],[-79.6064,9.01148]]},"properties":{"canal":"panama"}},{"type":"Feature","geometry":{"type":"LineString","coordinates":[[-79.61372,9.01758],[-79.61921,9.02263]]},"properties":{"canal":"panama"}},{"type":"Feature","geometry":{"type":"LineString","coordinates":[[-79.92325,9.26914],[-79.92426,9.26382]]},"properties":{"canal":"panama"}},{"type":"Feature","geometry":{"type":"LineString","coordinates":[[-79.92247,9.27831],[-79.92139,9.28422]]},"properties":{"canal":"panama"}},{"type":"Feature","geometry":{"type":"LineString","coordinates":[[-79.57654,8.96701],[-79.61253,9.01183],[-79.63053,9.02851]]},"properties":{"canal":"panama"}},{"type":"Feature","geometry":{"type":"LineString","coordinates":[[-79.92555,9.23288],[-79.91136,9.25831],[-79.91713,9.30277],[-79.91917,9.30733]]},"properties":{"canal":"panama"}},{"type":"Feature","geometry":{"type":"LineString","coordinates":[[-79.6977,9.11119],[-79.69075,9.10676],[-79.66917,9.06623],[-79.65737,9.05676],[-79.64269,9.03788],[-79.63053,9.02851],[-79.61921,9.02263]]},"properties":{"canal":"panama"}},{"type":"Feature","geometry":{"type":"LineString","coordinates":[[-79.91885,9.20661],[-79.92229,9.20916],[-79.92555,9.21492],[-79.92555,9.23288],[-79.92366,9.24762],[-79.92449,9.25864]]},"properties":{"canal":"panama"}},{"type":"Feature","geometry":{"type":"LineString","coordinates":[[-79.80353,9.12141],[-79.80831,9.13086],[-79.81569,9.16018],[-79.82135,9.16713],[-79.84444,9.18315],[-79.8501,9.18306],[-79.86186,9.17933],[-79.87862,9.18479]]},"properties":{"canal":"panama"}},{"type":"Feature","geometry":{"type":"LineString","coordinates":[[-79.92449,9.25864],[-79.92426,9.26382]]},"properties":{"canal":"panama"}},{"type":"Feature","geometry":{"type":"LineString","coordinates":[[-79.87862,9.18479],[-79.91885,9.20661]]},"properties":{"canal":"panama"}},{"type":"Feature","geometry":{"type":"LineString","coordinates":[[-79.92139,9.28422],[-79.91917,9.30733],[-79.91982,9.31148]]},"properties":{"canal":"panama"}},{"type":"Feature","geometry":{"type":"LineString","coordinates":[[9.44368,54.17295],[9.36839,54.15162],[9.34961,54.14448],[9.33731,54.13649],[9.32884,54.12379],[9.32913,54.09896],[9.30725,54.05372],[9.29282,54.00028],[9.28512,53.98838],[9.19518,53.9211],[9.15204,53.89696]]},"properties":{"canal":"kiel"}},{"type":"Feature","geometry":{"type":"LineString","coordinates":[[9.9682,54.34259],[9.98855,54.34627],[10.01809,54.35918],[10.03265,54.36073],[10.05775,54.35961],[10.0771,54.36845],[10.08813,54.37118],[10.0991,54.37201],[10.12312,54.36847]]},"properties":{"canal":"kiel"}},{"type":"Feature","geometry":{"type":"LineString","coordinates":[[10.12312,54.36847],[10.13467,54.36718]]},"properties":{"canal":"kiel"}},{"type":"Feature","geometry":{"type":"LineString","coordinates":[[10.13467,54.36718],[10.13935,54.36591]]},"properties":{"canal":"kiel"}},{"type":"Feature","geometry":{"type":"LineString","coordinates":[[10.13467,54.36718],[10.13957,54.36646]]},"properties":{"canal":"kiel"}},{"type":"Feature","geometry":{"type":"LineString","coordinates":[[9.15204,53.89696],[9.14658,53.89501]]},"properties":{"canal":"kiel"}},{"type":"Feature","geometry":{"type":"LineString","coordinates":[[9.15031,53.89427],[9.14861,53.8926]]},"properties":{"canal":"kiel"}},{"type":"Feature","geometry":{"type":"LineString","coordinates":[[9.15204,53.89696],[9.15031,53.89427],[9.14816,53.89281]]},"properties":{"canal":"kiel"}},{"type":"Feature","geometry":{"type":"LineString","coordinates":[[10.13935,54.36591],[10.14441,54.36518]]},"properties":{"canal":"kiel"}},{"type":"Feature","geometry":{"type":"LineString","coordinates":[[10.13957,54.36646],[10.14463,54.36572]]},"properties":{"canal":"kiel"}},{"type":"Feature","geometry":{"type":"LineString","coordinates":[[9.14723,53.89463],[9.14336,53.89256]]},"properties":{"canal":"kiel"}},{"type":"Feature","geometry":{"type":"LineString","coordinates":[[9.14658,53.89501],[9.1427,53.89301]]},"properties":{"canal":"kiel"}},{"type":"Feature","geometry":{"type":"LineString","coordinates":[[9.1427,53.89301],[9.13653,53.88937]]},"properties":{"canal":"kiel"}},{"type":"Feature","geometry":{"type":"LineString","coordinates":[[9.14336,53.89256],[9.13653,53.88937]]},"properties":{"canal":"kiel"}},{"type":"Feature","geometry":{"type":"LineString","coordinates":[[9.14816,53.89281],[9.14662,53.89168]]},"properties":{"canal":"kiel"}},{"type":"Feature","geometry":{"type":"LineString","coordinates":[[9.14861,53.8926],[9.14703,53.89145]]},"properties":{"canal":"kiel"}},{"type":"Feature","geometry":{"type":"LineString","coordinates":[[9.14703,53.89145],[9.14353,53.88929]]},"properties":{"canal":"kiel"}},{"type":"Feature","geometry":{"type":"LineString","coordinates":[[9.14662,53.89168],[9.14353,53.88929],[9.13855,53.88687],[9.12965,53.88551]]},"properties":{"canal":"kiel"}},{"type":"Feature","geometry":{"type":"LineString","coordinates":[[9.9682,54.34259],[9.94224,54.34082],[9.92708,54.34242],[9.86324,54.36188],[9.845,54.36378],[9.81124,54.36355],[9.79309,54.36144],[9.78246,54.35821],[9.74999,54.34189]]},"properties":{"canal":"kiel"}},{"type":"Feature","geometry":{"type":"LineString","coordinates":[[10.14441,54.36518],[10.15842,54.3631],[10.1721,54.36581]]},"properties":{"canal":"kiel"}},{"type":"Feature","geometry":{"type":"LineString","coordinates":[[10.14463,54.36572],[10.15833,54.36395],[10.1721,54.36581]]},"properties":{"canal":"kiel"}},{"type":"Feature","geometry":{"type":"LineString","coordinates":[[9.13653,53.88937],[9.12965,53.88551]]},"properties":{"canal":"kiel"}},{"type":"Feature","geometry":{"type":"LineString","coordinates":[[9.12965,53.88551],[9.11792,53.87946]]},"properties":{"canal":"kiel"}},{"type":"Feature","geometry":{"type":"LineString","coordinates":[[9.15204,53.89696],[9.14723,53.89463]]},"properties":{"canal":"kiel"}},{"type":"Feature","geometry":{"type":"LineString","coordinates":[[9.74999,54.34189],[9.71693,54.32374],[9.7097,54.30463],[9.70398,54.2997],[9.69436,54.2958],[9.65166,54.28811],[9.63706,54.28045],[9.63168,54.27488],[9.60623,54.23294],[9.58928,54.21657],[9.54509,54.19596],[9.44368,54.17295]]},"properties":{"canal":"kiel"}},{"type":"Feature","geometry":{"type":"LineString","coordinates":[[22.95999,37.95178],[23.00945,37.91653]]},"properties":{"canal":"corinth"}},{"type":"Feature","geometry":{"type":"LineString","coordinates":[[-84.35471,46.50285],[-84.3496,46.50306]]},"properties":{"canal":"soo"}},{"type":"Feature","geometry":{"type":"LineString","coordinates":[[-84.35263,46.50229],[-84.34892,46.50237]]},"properties":{"canal":"soo"}},{"type":"Feature","geometry":{"type":"LineString","coordinates":[[-79.19291,43.12915],[-79.19215,43.13893]]},"properties":{"canal":"welland"}},{"type":"Feature","geometry":{"type":"LineString","coordinates":[[-79.19291,43.12915],[-79.19215,43.13893]]},"properties":{"canal":"welland"}},{"type":"Feature","geometry":{"type":"LineString","coordinates":[[-79.24877,42.8763],[-79.24857,42.88918],[-79.23943,42.92895],[-79.21832,42.98518],[-79.21297,43.0119],[-79.2118,43.06646],[-79.20799,43.09257],[-79.19635,43.114],[-79.19291,43.12915]]},"properties":{"canal":"welland"}},{"type":"Feature","geometry":{"type":"LineString","coordinates":[[-79.19215,43.13893],[-79.19741,43.1839],[-79.2066,43.20037],[-79.21693,43.2269],[-79.21611,43.24855]]},"properties":{"canal":"welland"}},{"type":"Feature","geometry":{"type":"LineString","coordinates":[[118.94085,33.57663],[118.96577,33.57095],[119.06553,33.56683],[119.07547,33.5638],[119.08315,33.55651],[119.11032,33.51878],[119.11632,33.50731],[119.12419,33.48594],[119.13276,33.47706]]},"properties":{"canal":"grandCanal"}},{"type":"Feature","geometry":{"type":"LineString","coordinates":[[116.41643,35.49917],[116.43001,35.48648],[116.43501,35.48411],[116.45332,35.47996],[116.48874,35.43279],[116.54445,35.39726],[116.56461,35.33261],[116.57042,35.32003],[116.57314,35.28525]]},"properties":{"canal":"grandCanal"}},{"type":"Feature","geometry":{"type":"LineString","coordinates":[[116.19422,35.7234],[116.18233,35.7317],[116.1495,35.74799],[116.14556,35.75151],[116.14575,35.77806],[116.10671,35.83171],[116.09507,35.86443]]},"properties":{"canal":"grandCanal"}},{"type":"Feature","geometry":{"type":"LineString","coordinates":[[117.83743,34.42144],[117.85495,34.41342],[117.90226,34.37772],[117.91174,34.36841],[117.91699,34.36052],[117.92867,34.30852],[117.97717,34.2816],[117.98916,34.26651],[118.00409,34.25865],[118.017,34.24906],[118.0193,34.24214],[118.03576,34.22412],[118.04079,34.2159],[118.04707,34.19059],[118.05316,34.17711]]},"properties":{"canal":"grandCanal"}},{"type":"Feature","geometry":{"type":"LineString","coordinates":[[117.79363,34.4972],[117.80221,34.48342],[117.8055,34.4687],[117.8157,34.4532],[117.82458,34.43041],[117.82925,34.42557],[117.83743,34.42144]]},"properties":{"canal":"grandCanal"}},{"type":"Feature","geometry":{"type":"LineString","coordinates":[[120.40984,30.5446],[120.42534,30.54754],[120.42849,30.54941],[120.44128,30.62301],[120.69237,30.75114],[120.69809,30.75483],[120.70015,30.77108],[120.70546,30.78804],[120.7112,30.79762],[120.73626,30.80689]]},"properties":{"canal":"grandCanal"}},{"type":"Feature","geometry":{"type":"LineString","coordinates":[[119.55789,32.16407],[119.55714,32.15845],[119.54929,32.14191],[119.54945,32.13881],[119.56511,32.11449],[119.56884,32.09904],[119.57198,32.09366],[119.57142,32.08116],[119.56421,32.0689],[119.56833,32.04577],[119.57419,32.03535],[119.57202,32.02537],[119.57245,32.01841],[119.59248,31.97839],[119.86487,31.82852]]},"properties":{"canal":"grandCanal"}},{"type":"Feature","geometry":{"type":"LineString","coordinates":[[120.65585,31.23447],[120.66172,31.19296],[120.65473,31.18511],[120.64971,31.17581],[120.65175,31.16493],[120.65591,31.1578],[120.65528,31.14763],[120.66171,31.14318],[120.66313,31.1383],[120.6686,31.13028],[120.67119,31.11537],[120.66924,31.09713],[120.66137,31.06025],[120.65016,31.03613],[120.64264,30.99568]]},"properties":{"canal":"grandCanal"}},{"type":"Feature","geometry":{"type":"LineString","coordinates":[[116.03427,36.14374],[116.03427,36.1486],[116.03717,36.1518],[116.03671,36.15383],[116.0423,36.15632],[116.04136,36.16016],[116.04806,36.16175],[116.047,36.1649]]},"properties":{"canal":"grandCanal"}},{"type":"Feature","geometry":{"type":"LineString","coordinates":[[120.39984,30.52278],[120.40955,30.52316],[120.42475,30.51998],[120.43147,30.52242]]},"properties":{"canal":"grandCanal"}},{"type":"Feature","geometry":{"type":"LineString","coordinates":[[119.91706,31.7479],[119.9242,31.74791],[119.94822,31.74208],[119.95978,31.74177],[119.97019,31.73833]]},"properties":{"canal":"grandCanal"}},{"type":"Feature","geometry":{"type":"LineString","coordinates":[[120.20923,31.64507],[120.22112,31.64548],[120.24549,31.63134],[120.26112,31.61827],[120.26757,31.60061],[120.27848,31.59041],[120.27884,31.58558],[120.27473,31.57536],[120.27616,31.57003],[120.3083,31.53698],[120.31281,31.53489],[120.34282,31.52914],[120.34911,31.52332]]},"properties":{"canal":"grandCanal"}},{"type":"Feature","geometry":{"type":"LineString","coordinates":[[118.10666,34.05947],[118.11198,34.05114],[118.11417,34.04012],[118.11782,34.03739],[118.18707,34.01271],[118.20671,33.99719],[118.21217,33.99592],[118.22144,33.99725],[118.23858,33.9901],[118.26012,33.99061],[118.27811,33.98509]]},"properties":{"canal":"grandCanal"}},{"type":"Feature","geometry":{"type":"LineString","coordinates":[[118.31001,33.9797],[118.31149,33.96906],[118.30985,33.96226]]},"properties":{"canal":"grandCanal"}},{"type":"Feature","geometry":{"type":"LineString","coordinates":[[116.56867,35.25953],[116.56882,35.25475],[116.57168,35.24918],[116.58717,35.2335],[116.58381,35.20352]]},"properties":{"canal":"grandCanal"}},{"type":"Feature","geometry":{"type":"LineString","coordinates":[[116.59399,35.16736],[116.60317,35.12885],[116.6278,35.10262],[116.63247,35.07002],[116.63636,35.06347],[116.64704,35.05721],[116.66463,35.05517],[116.67193,35.05268],[116.73946,35.00459]]},"properties":{"canal":"grandCanal"}},{"type":"Feature","geometry":{"type":"LineString","coordinates":[[116.57314,35.28525],[116.57365,35.27762],[116.56867,35.25953]]},"properties":{"canal":"grandCanal"}},{"type":"Feature","geometry":{"type":"LineString","coordinates":[[120.34911,31.52332],[120.55822,31.32444],[120.56173,31.31653],[120.56198,31.31154],[120.58168,31.27564],[120.58476,31.2638],[120.5879,31.26219],[120.5963,31.26169],[120.64703,31.26217],[120.64995,31.2595]]},"properties":{"canal":"grandCanal"}},{"type":"Feature","geometry":{"type":"LineString","coordinates":[[118.43907,33.82375],[118.45101,33.81893],[118.47791,33.80436],[118.48651,33.8001],[118.49103,33.79995],[118.49369,33.80177],[118.49567,33.80962],[118.51393,33.81893],[118.5219,33.82092],[118.53066,33.82121],[118.54474,33.81793],[118.55303,33.8095],[118.55965,33.80689],[118.57122,33.79521],[118.57366,33.7855],[118.58169,33.77292],[118.58772,33.7481],[118.59623,33.73774],[118.61357,33.72618],[118.63366,33.71761],[118.66353,33.70876],[118.67211,33.70276],[118.67657,33.70147]]},"properties":{"canal":"grandCanal"}},{"type":"Feature","geometry":{"type":"LineString","coordinates":[[118.30985,33.96226],[118.30383,33.94287],[118.30495,33.92157],[118.31365,33.90659],[118.3257,33.87139],[118.32791,33.86949],[118.33734,33.86773],[118.34476,33.85528],[118.37409,33.84581],[118.38951,33.84411],[118.40687,33.84674],[118.42137,33.83392],[118.43695,33.82498]]},"properties":{"canal":"grandCanal"}},{"type":"Feature","geometry":{"type":"LineString","coordinates":[[116.46738,37.77697],[116.46525,37.78268],[116.46786,37.78741],[116.4664,37.79158],[116.46861,37.79537],[116.46586,37.80136],[116.45981,37.803],[116.46283,37.80626],[116.46833,37.8084],[116.46489,37.81405],[116.4739,37.82682]]},"properties":{"canal":"grandCanal"}},{"type":"Feature","geometry":{"type":"LineString","coordinates":[[116.27403,37.48157],[116.28478,37.48351],[116.28349,37.48716],[116.27792,37.48811],[116.27935,37.49007],[116.28498,37.49173],[116.28723,37.49708],[116.28055,37.49698],[116.27859,37.50024],[116.28442,37.50546],[116.29257,37.50856],[116.29098,37.51016],[116.2837,37.50868],[116.27456,37.50988],[116.27779,37.51756],[116.27052,37.52077],[116.27327,37.52425],[116.28566,37.52237],[116.28034,37.53181],[116.28338,37.53345],[116.28538,37.54267],[116.28218,37.55037],[116.28962,37.55271],[116.28618,37.55786],[116.2876,37.55905],[116.29457,37.55897],[116.29262,37.56612],[116.29383,37.56884],[116.29984,37.56354],[116.30811,37.56634],[116.3146,37.57043],[116.32054,37.56874],[116.32377,37.56958],[116.32884,37.57348],[116.32808,37.57537],[116.31735,37.57677],[116.31346,37.57884],[116.32225,37.58125],[116.32973,37.58059]]},"properties":{"canal":"grandCanal"}},{"type":"Feature","geometry":{"type":"LineString","coordinates":[[116.32973,37.58059],[116.33068,37.58233],[116.32536,37.58457],[116.32396,37.58912],[116.32438,37.59219],[116.32968,37.59648],[116.32992,37.59838],[116.32191,37.6057],[116.32714,37.6089],[116.3355,37.60826],[116.33562,37.61446],[116.34794,37.61004],[116.35433,37.61945],[116.36098,37.61403],[116.3692,37.61636],[116.36984,37.6203],[116.36699,37.62483],[116.36967,37.62831],[116.3691,37.63813],[116.35913,37.64706],[116.36264,37.65007],[116.36383,37.65458],[116.37162,37.65392],[116.37274,37.65915],[116.36461,37.66443],[116.36659,37.66673],[116.3739,37.66847],[116.37338,37.67103],[116.36974,37.67331],[116.37293,37.67464],[116.37798,37.67],[116.37974,37.67143],[116.37927,37.67438]]},"properties":{"canal":"grandCanal"}},{"type":"Feature","geometry":{"type":"LineString","coordinates":[[119.94802,31.77074],[119.95259,31.76847],[119.96844,31.76914],[119.97706,31.76732]]},"properties":{"canal":"grandCanal"}},{"type":"Feature","geometry":{"type":"LineString","coordinates":[[119.86487,31.82852],[119.86678,31.82505],[119.86195,31.81463],[119.86066,31.80321],[119.86038,31.78804],[119.86307,31.77502],[119.87196,31.75995],[119.89557,31.74662]]},"properties":{"canal":"grandCanal"}},{"type":"Feature","geometry":{"type":"LineString","coordinates":[[120.16838,30.47513],[120.14584,30.46955],[120.14395,30.44211],[120.13439,30.43226]]},"properties":{"canal":"grandCanal"}},{"type":"Feature","geometry":{"type":"LineString","coordinates":[[120.35314,30.50878],[120.31733,30.50316],[120.30081,30.50452],[120.29115,30.50164],[120.24798,30.50049],[120.23395,30.50349],[120.19784,30.48774]]},"properties":{"canal":"grandCanal"}},{"type":"Feature","geometry":{"type":"LineString","coordinates":[[120.6418,30.99114],[120.63997,30.98108],[120.64195,30.9746],[120.64594,30.97271]]},"properties":{"canal":"grandCanal"}},{"type":"Feature","geometry":{"type":"LineString","coordinates":[[118.28756,33.98646],[118.30718,33.98351],[118.30876,33.98191]]},"properties":{"canal":"grandCanal"}},{"type":"Feature","geometry":{"type":"LineString","coordinates":[[118.27811,33.98509],[118.28756,33.98646],[118.30876,33.98191],[118.31001,33.9797]]},"properties":{"canal":"grandCanal"}},{"type":"Feature","geometry":{"type":"LineString","coordinates":[[116.962,34.87579],[116.962,34.84001],[116.96478,34.83671],[116.97814,34.80461],[116.98711,34.79196],[117.00526,34.77267],[117.00957,34.77227],[117.01218,34.76924],[117.01097,34.76694],[117.02336,34.74807],[117.03254,34.73833],[117.05313,34.72112],[117.07196,34.69728],[117.09083,34.65962],[117.10714,34.63211],[117.11689,34.60621],[117.12572,34.58846],[117.14268,34.56813],[117.14431,34.56286],[117.14315,34.55424],[117.13453,34.54084],[117.13273,34.52515],[117.13933,34.5046],[117.15006,34.48246],[117.15292,34.45526],[117.16747,34.41101],[117.17175,34.39071],[117.19512,34.38435],[117.20239,34.37848],[117.20911,34.33667],[117.21085,34.33424],[117.21711,34.33182],[117.25328,34.32792],[117.28177,34.31689],[117.29162,34.31472],[117.3005,34.31578],[117.32699,34.3269],[117.33371,34.32816],[117.34687,34.32782],[117.3611,34.32255]]},"properties":{"canal":"grandCanal"}},{"type":"Feature","geometry":{"type":"LineString","coordinates":[[116.50756,37.8623],[116.49987,37.87039],[116.508,37.87447],[116.50608,37.88176],[116.50937,37.89202],[116.51993,37.89855],[116.51852,37.90348],[116.51972,37.90486],[116.52748,37.90659],[116.52819,37.90879],[116.52568,37.91357],[116.53185,37.91758],[116.53133,37.92347],[116.53293,37.92735],[116.53917,37.93179],[116.53956,37.94013],[116.54506,37.94507],[116.55303,37.96888],[116.55944,37.97915],[116.55724,37.98271],[116.55887,37.9889],[116.55758,38.0196]]},"properties":{"canal":"grandCanal"}},{"type":"Feature","geometry":{"type":"LineString","coordinates":[[116.76044,38.19649],[116.76168,38.19775]]},"properties":{"canal":"grandCanal"}},{"type":"Feature","geometry":{"type":"LineString","coordinates":[[116.4739,37.82682],[116.47523,37.83125],[116.46986,37.83377],[116.47237,37.84066],[116.4691,37.84316],[116.4741,37.84927],[116.46659,37.8533],[116.46768,37.86507],[116.4712,37.86544],[116.4807,37.85872],[116.48216,37.8594],[116.48257,37.86375],[116.49073,37.86097],[116.49585,37.86359],[116.50326,37.86152],[116.50756,37.8623]]},"properties":{"canal":"grandCanal"}},{"type":"Feature","geometry":{"type":"LineString","coordinates":[[120.45136,30.7542],[120.43298,30.72231],[120.41956,30.72052],[120.41406,30.72251],[120.40995,30.72221],[120.40142,30.7118],[120.39982,30.70754],[120.37606,30.69593],[120.34103,30.67514],[120.33491,30.6644],[120.32964,30.64362],[120.32648,30.6396],[120.31807,30.61854],[120.30904,30.61747],[120.29503,30.61049],[120.28654,30.61132],[120.27924,30.61383],[120.27179,30.60913],[120.26134,30.60778],[120.23168,30.59888],[120.23066,30.59194],[120.21853,30.5765],[120.21199,30.55709],[120.20347,30.5449]]},"properties":{"canal":"grandCanal"}},{"type":"Feature","geometry":{"type":"LineString","coordinates":[[119.14921,33.46201],[119.15273,33.4594]]},"properties":{"canal":"grandCanal"}},{"type":"Feature","geometry":{"type":"LineString","coordinates":[[119.14308,33.46879],[119.1486,33.46469]]},"properties":{"canal":"grandCanal"}},{"type":"Feature","geometry":{"type":"LineString","coordinates":[[119.15049,33.46304],[119.15601,33.45696]]},"properties":{"canal":"grandCanal"}},{"type":"Feature","geometry":{"type":"LineString","coordinates":[[119.13733,33.47339],[119.14308,33.46879],[119.14778,33.46414]]},"properties":{"canal":"grandCanal"}},{"type":"Feature","geometry":{"type":"LineString","coordinates":[[119.4029,33.05321],[119.41214,33.01747],[119.40905,33.0061],[119.41145,32.99386],[119.41008,32.98969],[119.39962,32.97819],[119.4027,32.94288],[119.40596,32.93308],[119.413,32.89389],[119.41266,32.88625],[119.41712,32.86678],[119.41763,32.85582],[119.42793,32.80592],[119.42261,32.79062],[119.42381,32.77763],[119.42587,32.77691],[119.43206,32.7657]]},"properties":{"canal":"grandCanal"}},{"type":"Feature","geometry":{"type":"LineString","coordinates":[[118.27811,33.98509],[118.28563,33.98279],[118.31001,33.9797]]},"properties":{"canal":"grandCanal"}},{"type":"Feature","geometry":{"type":"LineString","coordinates":[[119.43206,32.7657],[119.4688,32.60123],[119.48221,32.57403],[119.48691,32.5544],[119.49737,32.53931]]},"properties":{"canal":"grandCanal"}},{"type":"Feature","geometry":{"type":"LineString","coordinates":[[119.14308,33.46879],[119.14724,33.46373]]},"properties":{"canal":"grandCanal"}},{"type":"Feature","geometry":{"type":"LineString","coordinates":[[119.14986,33.46231],[119.15273,33.4594],[119.15601,33.45696],[119.23738,33.33618],[119.24369,33.32007],[119.25404,33.31076],[119.296,33.24702],[119.29912,33.23423],[119.31113,33.22055],[119.3163,33.20059],[119.33099,33.16174],[119.36254,33.14504],[119.36883,33.13854],[119.39878,33.0699],[119.4029,33.05321]]},"properties":{"canal":"grandCanal"}},{"type":"Feature","geometry":{"type":"LineString","coordinates":[[116.04305,36.18824],[116.03974,36.1924]]},"properties":{"canal":"grandCanal"}},{"type":"Feature","geometry":{"type":"LineString","coordinates":[[116.03829,36.1928],[116.03339,36.19706],[116.03372,36.19893],[116.03695,36.20087]]},"properties":{"canal":"grandCanal"}},{"type":"Feature","geometry":{"type":"LineString","coordinates":[[116.03695,36.20087],[116.03531,36.20592],[116.03172,36.20934],[116.03626,36.21831],[116.02911,36.22306],[116.0305,36.23941],[116.02559,36.24497],[116.02357,36.25251],[116.01533,36.25607],[116.01578,36.26223],[116.01242,36.26688],[116.0138,36.27095],[116.00833,36.27634],[116.0072,36.28339],[115.99506,36.29337],[115.9944,36.29744]]},"properties":{"canal":"grandCanal"}},{"type":"Feature","geometry":{"type":"LineString","coordinates":[[116.39386,35.52127],[116.31751,35.59519],[116.22919,35.69914],[116.19796,35.7208]]},"properties":{"canal":"grandCanal"}},{"type":"Feature","geometry":{"type":"LineString","coordinates":[[116.73946,35.00459],[116.74407,35.0017],[116.75403,34.99045],[116.76806,34.98019],[116.80325,34.9696],[116.83973,34.94772],[116.84623,34.94817]]},"properties":{"canal":"grandCanal"}},{"type":"Feature","geometry":{"type":"LineString","coordinates":[[116.962,34.87579],[116.96194,34.90047]]},"properties":{"canal":"grandCanal"}},{"type":"Feature","geometry":{"type":"LineString","coordinates":[[119.98123,31.73781],[119.99127,31.73737],[120.00234,31.7322],[120.02625,31.72576],[120.03118,31.72613],[120.03879,31.7311],[120.04233,31.73109]]},"properties":{"canal":"grandCanal"}},{"type":"Feature","geometry":{"type":"LineString","coordinates":[[119.97019,31.73833],[119.98123,31.73781]]},"properties":{"canal":"grandCanal"}},{"type":"Feature","geometry":{"type":"LineString","coordinates":[[116.07695,37.37236],[116.10137,37.36831],[116.10871,37.37287],[116.12401,37.37306],[116.15477,37.38062],[116.16169,37.38405],[116.17855,37.36977],[116.18513,37.36602],[116.19709,37.36582],[116.20437,37.36296],[116.21902,37.36296],[116.22991,37.36105]]},"properties":{"canal":"grandCanal"}},{"type":"Feature","geometry":{"type":"LineString","coordinates":[[115.78367,36.95437],[115.77776,36.94626],[115.77014,36.94215],[115.75812,36.92092],[115.74974,36.91615],[115.74292,36.9099],[115.73529,36.90649],[115.73006,36.89713],[115.72073,36.89346],[115.7096,36.88588],[115.69414,36.86714],[115.69486,36.85998],[115.68958,36.84923],[115.68304,36.84188],[115.68653,36.82899],[115.68282,36.82374],[115.68204,36.81696]]},"properties":{"canal":"grandCanal"}},{"type":"Feature","geometry":{"type":"LineString","coordinates":[[120.43228,30.52439],[120.43222,30.53495]]},"properties":{"canal":"grandCanal"}},{"type":"Feature","geometry":{"type":"LineString","coordinates":[[120.13439,30.43226],[120.12751,30.42453],[120.12286,30.39888],[120.12609,30.36214],[120.13018,30.35412],[120.13277,30.33303]]},"properties":{"canal":"grandCanal"}},{"type":"Feature","geometry":{"type":"LineString","coordinates":[[116.23782,37.36745],[116.2455,37.37536],[116.24746,37.38037],[116.25175,37.38165],[116.25317,37.38446],[116.25555,37.3823],[116.25713,37.3828],[116.25592,37.38926],[116.26645,37.38885],[116.26738,37.39788],[116.27963,37.40208],[116.27887,37.40437],[116.27087,37.40633],[116.26806,37.41214]]},"properties":{"canal":"grandCanal"}},{"type":"Feature","geometry":{"type":"LineString","coordinates":[[116.82393,38.57526],[116.8224,38.57791],[116.82315,38.58357],[116.81711,38.59201],[116.82516,38.59596],[116.82735,38.60014],[116.82589,38.60199],[116.81638,38.60364],[116.81548,38.60545],[116.81734,38.60999],[116.82602,38.60899],[116.82847,38.61169],[116.82361,38.61643],[116.81419,38.62021],[116.81346,38.62184],[116.8205,38.62596],[116.82227,38.6307],[116.82592,38.63218],[116.82113,38.63535],[116.82274,38.6392],[116.84516,38.65152],[116.83957,38.66065],[116.84798,38.664],[116.84096,38.66989],[116.8444,38.67169],[116.85203,38.66821],[116.8547,38.67005],[116.85293,38.67759],[116.85466,38.68317],[116.85028,38.68637],[116.85652,38.69028],[116.85286,38.69497],[116.85345,38.69655],[116.85891,38.69836],[116.86713,38.6938],[116.86882,38.6959],[116.86747,38.70178],[116.8693,38.70267],[116.87394,38.70098],[116.87852,38.69607],[116.88207,38.69762]]},"properties":{"canal":"grandCanal"}},{"type":"Feature","geometry":{"type":"LineString","coordinates":[[120.13277,30.33303],[120.13503,30.32234],[120.13343,30.30855],[120.15541,30.28493],[120.1571,30.27771]]},"properties":{"canal":"grandCanal"}},{"type":"Feature","geometry":{"type":"LineString","coordinates":[[120.16939,30.2772],[120.18165,30.27963],[120.18943,30.28351],[120.20293,30.28484],[120.20933,30.28123],[120.21541,30.27313]]},"properties":{"canal":"grandCanal"}},{"type":"Feature","geometry":{"type":"LineString","coordinates":[[120.1571,30.27771],[120.16939,30.2772]]},"properties":{"canal":"grandCanal"}},{"type":"Feature","geometry":{"type":"LineString","coordinates":[[116.19796,35.7208],[116.19422,35.7234]]},"properties":{"canal":"grandCanal"}},{"type":"Feature","geometry":{"type":"LineString","coordinates":[[117.35078,34.60122],[117.24495,34.67987],[117.15309,34.71239],[117.15027,34.71574],[117.14148,34.74214],[117.12174,34.75931],[117.06475,34.81785],[117.03291,34.83843],[117.01945,34.85181],[117.00914,34.85702],[117.00468,34.87254]]},"properties":{"canal":"grandCanal"}},{"type":"Feature","geometry":{"type":"LineString","coordinates":[[116.57314,35.28525],[116.64597,35.21348],[116.65005,35.20534],[116.65267,35.19375],[116.66563,35.11732],[116.70509,35.07169],[116.71261,35.0664],[116.73232,35.06222],[116.79456,35.03931],[116.83851,35.03777],[116.84649,35.03636],[116.86021,35.02979],[116.87041,35.01924],[116.89745,34.97777],[116.9311,34.93087],[116.96194,34.90047]]},"properties":{"canal":"grandCanal"}},{"type":"Feature","geometry":{"type":"LineString","coordinates":[[119.47904,32.4693],[119.48144,32.43207],[119.46398,32.31477],[119.46671,32.26707]]},"properties":{"canal":"grandCanal"}},{"type":"Feature","geometry":{"type":"LineString","coordinates":[[120.19784,30.48774],[120.18425,30.48448]]},"properties":{"canal":"grandCanal"}},{"type":"Feature","geometry":{"type":"LineString","coordinates":[[120.18595,30.49315],[120.1831,30.48766],[120.18425,30.48448]]},"properties":{"canal":"grandCanal"}},{"type":"Feature","geometry":{"type":"LineString","coordinates":[[115.9944,36.29744],[115.99437,36.29834]]},"properties":{"canal":"grandCanal"}},{"type":"Feature","geometry":{"type":"LineString","coordinates":[[119.57241,32.18902],[119.56883,32.18418]]},"properties":{"canal":"grandCanal"}},{"type":"Feature","geometry":{"type":"LineString","coordinates":[[119.56883,32.18418],[119.55899,32.17018],[119.55789,32.16407]]},"properties":{"canal":"grandCanal"}},{"type":"Feature","geometry":{"type":"LineString","coordinates":[[119.92725,31.79556],[119.93755,31.7887],[119.94447,31.78039],[119.9445,31.7751],[119.94802,31.77074]]},"properties":{"canal":"grandCanal"}},{"type":"Feature","geometry":{"type":"LineString","coordinates":[[119.89557,31.74662],[119.91706,31.7479]]},"properties":{"canal":"grandCanal"}},{"type":"Feature","geometry":{"type":"LineString","coordinates":[[120.04233,31.73109],[120.19377,31.6474],[120.20923,31.64507]]},"properties":{"canal":"grandCanal"}},{"type":"Feature","geometry":{"type":"LineString","coordinates":[[120.18425,30.48448],[120.16838,30.47513]]},"properties":{"canal":"grandCanal"}},{"type":"Feature","geometry":{"type":"LineString","coordinates":[[120.49987,30.76031],[120.48131,30.76602],[120.47799,30.75812],[120.47519,30.75536],[120.46039,30.75305],[120.45486,30.75447]]},"properties":{"canal":"grandCanal"}},{"type":"Feature","geometry":{"type":"LineString","coordinates":[[118.67657,33.70147],[118.69267,33.69961],[118.70965,33.69491],[118.72549,33.68576]]},"properties":{"canal":"grandCanal"}},{"type":"Feature","geometry":{"type":"LineString","coordinates":[[118.72549,33.68576],[118.73236,33.68025],[118.73389,33.673],[118.74105,33.66058],[118.75056,33.65333],[118.75066,33.64019],[118.75863,33.6186],[118.77541,33.59409],[118.79462,33.5788],[118.80598,33.57315],[118.81537,33.57062],[118.84708,33.56597],[118.86421,33.56727],[118.88305,33.56143],[118.8999,33.56114],[118.9193,33.56398],[118.92663,33.57596],[118.92993,33.57793]]},"properties":{"canal":"grandCanal"}},{"type":"Feature","geometry":{"type":"LineString","coordinates":[[118.28756,33.98646],[118.29616,33.98623],[118.30718,33.98351]]},"properties":{"canal":"grandCanal"}},{"type":"Feature","geometry":{"type":"LineString","coordinates":[[120.73626,30.80689],[120.70873,30.88756],[120.70577,30.90585],[120.70788,30.92463],[120.70304,30.94035],[120.69244,30.95271],[120.68461,30.95504],[120.64594,30.97271]]},"properties":{"canal":"grandCanal"}},{"type":"Feature","geometry":{"type":"LineString","coordinates":[[118.05316,34.17711],[118.06367,34.16105],[118.08666,34.13776],[118.09521,34.12313],[118.10652,34.11236]]},"properties":{"canal":"grandCanal"}},{"type":"Feature","geometry":{"type":"LineString","coordinates":[[116.55758,38.0196],[116.55773,38.02108]]},"properties":{"canal":"grandCanal"}},{"type":"Feature","geometry":{"type":"LineString","coordinates":[[116.55773,38.02108],[116.55769,38.02435],[116.55223,38.02656],[116.54888,38.03646],[116.5419,38.0429],[116.54603,38.04602],[116.5452,38.05035],[116.55266,38.05128],[116.55318,38.0572],[116.5641,38.05668],[116.56488,38.06176],[116.56914,38.06382],[116.56974,38.06905],[116.57303,38.07312],[116.58216,38.07497],[116.5856,38.08899],[116.58286,38.09105],[116.58566,38.0981],[116.58336,38.10189],[116.58663,38.1041],[116.58084,38.10836],[116.58177,38.11459],[116.58717,38.11389],[116.5869,38.10946],[116.58913,38.10864],[116.59568,38.11413],[116.59681,38.11778],[116.60477,38.12071],[116.6062,38.11595],[116.6126,38.11158],[116.62044,38.11232],[116.62556,38.1163],[116.63605,38.11353],[116.63752,38.11567],[116.63671,38.1202],[116.64519,38.12529],[116.64348,38.12932],[116.64456,38.13078],[116.65477,38.13043],[116.65682,38.13622],[116.65866,38.13699],[116.6654,38.13265],[116.66763,38.13267],[116.67076,38.13634],[116.67964,38.13785],[116.67702,38.144],[116.68621,38.14376],[116.68808,38.14734],[116.6956,38.14734],[116.69759,38.14978],[116.7064,38.15155],[116.71921,38.15959],[116.72678,38.16173],[116.72789,38.16386],[116.72345,38.16652],[116.72539,38.16746],[116.73204,38.16558],[116.73233,38.16723],[116.72886,38.17084],[116.736,38.17416],[116.73528,38.17924],[116.73737,38.17946],[116.7394,38.17721],[116.74266,38.17816],[116.74405,38.18403],[116.75385,38.18124],[116.75458,38.19072],[116.76044,38.19649]]},"properties":{"canal":"grandCanal"}},{"type":"Feature","geometry":{"type":"LineString","coordinates":[[116.76168,38.19775],[116.76691,38.20299],[116.76526,38.20798],[116.77427,38.20872],[116.77676,38.21373],[116.78111,38.21719],[116.78799,38.21857],[116.78624,38.22317],[116.78752,38.22601],[116.79409,38.228],[116.79738,38.23273],[116.80382,38.23185]]},"properties":{"canal":"grandCanal"}},{"type":"Feature","geometry":{"type":"LineString","coordinates":[[116.58381,35.20352],[116.58795,35.18757]]},"properties":{"canal":"grandCanal"}},{"type":"Feature","geometry":{"type":"LineString","coordinates":[[116.86161,34.9351],[116.92289,34.90192],[116.94816,34.88982],[116.95903,34.88085],[116.962,34.87579]]},"properties":{"canal":"grandCanal"}},{"type":"Feature","geometry":{"type":"LineString","coordinates":[[119.97706,31.76732],[120.04233,31.73109]]},"properties":{"canal":"grandCanal"}},{"type":"Feature","geometry":{"type":"LineString","coordinates":[[119.86853,31.82609],[119.9199,31.79823],[119.92725,31.79556]]},"properties":{"canal":"grandCanal"}},{"type":"Feature","geometry":{"type":"LineString","coordinates":[[119.86487,31.82852],[119.86853,31.82609]]},"properties":{"canal":"grandCanal"}},{"type":"Feature","geometry":{"type":"LineString","coordinates":[[115.78367,36.95437],[115.79111,36.96852],[115.781,36.98244],[115.77146,36.98646],[115.77057,36.9913],[115.78456,37.00538],[115.79166,37.00505],[115.80361,37.01072],[115.80804,37.01977],[115.80702,37.02911],[115.81429,37.02893],[115.81889,37.03074],[115.82518,37.04409],[115.84954,37.05961],[115.86142,37.07318],[115.86325,37.08601],[115.87383,37.10415],[115.87992,37.12338],[115.8793,37.12957],[115.87379,37.13876],[115.87414,37.1513],[115.88237,37.15893],[115.89542,37.16505],[115.90636,37.17593],[115.90644,37.18078],[115.90073,37.18506],[115.89906,37.1887],[115.9039,37.20335],[115.90895,37.20971],[115.92304,37.22037],[115.93509,37.22711],[115.93991,37.22635],[115.94244,37.22325],[115.94718,37.22309],[115.95127,37.22971],[115.96509,37.24178],[115.96521,37.24509],[115.96217,37.25006],[115.96711,37.25698],[115.97048,37.27325],[115.96891,37.27846],[115.96266,37.28769],[115.96804,37.29365],[115.97095,37.30158],[115.97565,37.30695],[115.9793,37.32324],[115.9782,37.32782],[115.97047,37.33379],[115.96977,37.33634]]},"properties":{"canal":"grandCanal"}},{"type":"Feature","geometry":{"type":"LineString","coordinates":[[115.96977,37.33634],[115.97872,37.33853],[115.9824,37.34098],[116.00358,37.34263],[116.00736,37.34808],[116.01276,37.35103],[116.02271,37.35361],[116.02919,37.35733],[116.04574,37.35696],[116.04987,37.3628],[116.05473,37.36591],[116.06495,37.36684],[116.07695,37.37236]]},"properties":{"canal":"grandCanal"}},{"type":"Feature","geometry":{"type":"LineString","coordinates":[[116.37927,37.67438],[116.3753,37.68067],[116.38091,37.68727],[116.38064,37.69526],[116.38413,37.69582],[116.38603,37.69252],[116.38807,37.69266],[116.38875,37.69468],[116.3856,37.69862],[116.38603,37.70058],[116.39675,37.70816],[116.39117,37.71274],[116.40705,37.72132],[116.40938,37.72474],[116.4075,37.73301],[116.41088,37.73297],[116.41519,37.72876],[116.41708,37.73001],[116.41589,37.73362],[116.41726,37.73472],[116.42571,37.73331],[116.42878,37.73419],[116.42912,37.7381],[116.42482,37.74323],[116.42587,37.747],[116.41814,37.74856],[116.41799,37.74983],[116.43388,37.7518],[116.43168,37.75657],[116.43434,37.75926],[116.44239,37.7567],[116.44655,37.75849],[116.44638,37.76552],[116.45141,37.76648],[116.45332,37.76892],[116.45034,37.77439],[116.45189,37.77686],[116.45527,37.77813],[116.46565,37.77557],[116.46738,37.77697]]},"properties":{"canal":"grandCanal"}},{"type":"Feature","geometry":{"type":"LineString","coordinates":[[117.3611,34.32255],[117.4378,34.31006],[117.45072,34.31065],[117.55133,34.33902],[117.5606,34.34588],[117.58938,34.38206],[117.63958,34.39452],[117.66925,34.41222],[117.67751,34.41432],[117.76841,34.4243],[117.79592,34.42026],[117.83743,34.42144]]},"properties":{"canal":"grandCanal"}},{"type":"Feature","geometry":{"type":"LineString","coordinates":[[115.68248,36.81688],[115.68415,36.81657]]},"properties":{"canal":"grandCanal"}},{"type":"Feature","geometry":{"type":"LineString","coordinates":[[115.68204,36.81696],[115.6822,36.81693]]},"properties":{"canal":"grandCanal"}},{"type":"Feature","geometry":{"type":"LineString","coordinates":[[115.68514,36.8164],[115.6874,36.81607]]},"properties":{"canal":"grandCanal"}},{"type":"Feature","geometry":{"type":"LineString","coordinates":[[115.68415,36.81657],[115.68514,36.8164]]},"properties":{"canal":"grandCanal"}},{"type":"Feature","geometry":{"type":"LineString","coordinates":[[115.6822,36.81693],[115.68248,36.81688]]},"properties":{"canal":"grandCanal"}},{"type":"Feature","geometry":{"type":"LineString","coordinates":[[119.49737,32.53931],[119.49487,32.51531],[119.48871,32.50756]]},"properties":{"canal":"grandCanal"}},{"type":"Feature","geometry":{"type":"LineString","coordinates":[[117.73549,34.54783],[117.74596,34.545],[117.75671,34.53665],[117.77614,34.52607],[117.78982,34.5165],[117.79206,34.51273],[117.79363,34.4972]]},"properties":{"canal":"grandCanal"}},{"type":"Feature","geometry":{"type":"LineString","coordinates":[[117.73267,34.54847],[117.73549,34.54783]]},"properties":{"canal":"grandCanal"}},{"type":"Feature","geometry":{"type":"LineString","coordinates":[[117.35078,34.60122],[117.35649,34.59697],[117.39242,34.57887]]},"properties":{"canal":"grandCanal"}},{"type":"Feature","geometry":{"type":"LineString","coordinates":[[117.39242,34.57887],[117.3974,34.57786],[117.41457,34.57883],[117.42942,34.57706],[117.44156,34.57838],[117.46306,34.57324],[117.46995,34.5732],[117.51644,34.57961],[117.53184,34.57891],[117.55936,34.5825]]},"properties":{"canal":"grandCanal"}},{"type":"Feature","geometry":{"type":"LineString","coordinates":[[117.56222,34.58288],[117.57506,34.5844],[117.5904,34.5812],[117.61212,34.58294],[117.62965,34.57468],[117.63961,34.56654],[117.65353,34.56342],[117.66762,34.55696],[117.6948,34.55233],[117.71332,34.55278],[117.73267,34.54847]]},"properties":{"canal":"grandCanal"}},{"type":"Feature","geometry":{"type":"LineString","coordinates":[[117.55936,34.5825],[117.56222,34.58288]]},"properties":{"canal":"grandCanal"}},{"type":"Feature","geometry":{"type":"LineString","coordinates":[[116.27491,37.46983],[116.26557,37.47813],[116.27403,37.48157]]},"properties":{"canal":"grandCanal"}},{"type":"Feature","geometry":{"type":"LineString","coordinates":[[116.26806,37.41214],[116.26441,37.41224],[116.26921,37.41851],[116.26467,37.41935],[116.25989,37.41798],[116.25652,37.42035],[116.26477,37.42522],[116.2644,37.4283],[116.26145,37.42949],[116.25557,37.42567],[116.25344,37.42972],[116.25563,37.43174],[116.26565,37.43058],[116.26834,37.43155],[116.26827,37.43424],[116.26416,37.44008],[116.2766,37.46027],[116.27685,37.46652],[116.27491,37.46983]]},"properties":{"canal":"grandCanal"}},{"type":"Feature","geometry":{"type":"LineString","coordinates":[[119.13448,33.47571],[119.13733,33.47339]]},"properties":{"canal":"grandCanal"}},{"type":"Feature","geometry":{"type":"LineString","coordinates":[[119.13276,33.47706],[119.13448,33.47571]]},"properties":{"canal":"grandCanal"}},{"type":"Feature","geometry":{"type":"LineString","coordinates":[[118.47791,33.80436],[118.48647,33.80448],[118.49567,33.80962]]},"properties":{"canal":"grandCanal"}},{"type":"Feature","geometry":{"type":"LineString","coordinates":[[117.00406,34.87481],[117.00154,34.88535],[116.99821,34.8898],[116.96194,34.90047]]},"properties":{"canal":"grandCanal"}},{"type":"Feature","geometry":{"type":"LineString","coordinates":[[117.00468,34.87254],[117.00406,34.87481]]},"properties":{"canal":"grandCanal"}},{"type":"Feature","geometry":{"type":"LineString","coordinates":[[120.69632,30.73154],[120.69931,30.73383],[120.70257,30.73545],[120.70569,30.72867],[120.707,30.72646],[120.70928,30.72491],[120.71186,30.72411],[120.71116,30.72687],[120.71103,30.72723],[120.70881,30.72846],[120.70827,30.72951],[120.70723,30.7332],[120.70453,30.74427]]},"properties":{"canal":"grandCanal"}},{"type":"Feature","geometry":{"type":"LineString","coordinates":[[120.69237,30.75114],[120.69557,30.74438],[120.69931,30.73383]]},"properties":{"canal":"grandCanal"}},{"type":"Feature","geometry":{"type":"LineString","coordinates":[[120.72213,30.72618],[120.7283,30.72823]]},"properties":{"canal":"grandCanal"}},{"type":"Feature","geometry":{"type":"LineString","coordinates":[[120.71103,30.72723],[120.72213,30.72618],[120.72328,30.72253]]},"properties":{"canal":"grandCanal"}},{"type":"Feature","geometry":{"type":"LineString","coordinates":[[120.70928,30.72491],[120.71116,30.72687]]},"properties":{"canal":"grandCanal"}},{"type":"Feature","geometry":{"type":"LineString","coordinates":[[120.70523,30.72538],[120.707,30.72646],[120.70881,30.72846]]},"properties":{"canal":"grandCanal"}},{"type":"Feature","geometry":{"type":"LineString","coordinates":[[120.70569,30.72867],[120.70827,30.72951]]},"properties":{"canal":"grandCanal"}},{"type":"Feature","geometry":{"type":"LineString","coordinates":[[116.03427,36.14374],[116.03201,36.13915],[116.02359,36.13527],[116.02336,36.13364],[116.01829,36.13064],[116.0136,36.12283],[116.00791,36.11906],[116.0086,36.11353],[116.00101,36.08319],[116.00476,36.07495],[116.00242,36.06395],[116.0063,36.06053]]},"properties":{"canal":"grandCanal"}},{"type":"Feature","geometry":{"type":"LineString","coordinates":[[120.43147,30.52242],[120.43228,30.52439]]},"properties":{"canal":"grandCanal"}},{"type":"Feature","geometry":{"type":"LineString","coordinates":[[120.35314,30.50878],[120.37647,30.52282],[120.38157,30.52436],[120.39626,30.52214],[120.39984,30.52278],[120.40744,30.54285],[120.40984,30.5446]]},"properties":{"canal":"grandCanal"}},{"type":"Feature","geometry":{"type":"LineString","coordinates":[[116.04677,36.16497],[116.04465,36.16788],[116.03877,36.17045],[116.04104,36.17928],[116.04001,36.18436],[116.04305,36.18824]]},"properties":{"canal":"grandCanal"}},{"type":"Feature","geometry":{"type":"LineString","coordinates":[[116.047,36.1649],[116.04677,36.16497]]},"properties":{"canal":"grandCanal"}},{"type":"Feature","geometry":{"type":"LineString","coordinates":[[116.84623,34.94817],[116.85316,34.94691],[116.85845,34.94208],[116.86161,34.9351]]},"properties":{"canal":"grandCanal"}},{"type":"Feature","geometry":{"type":"LineString","coordinates":[[120.70723,30.7332],[120.72059,30.73762]]},"properties":{"canal":"grandCanal"}},{"type":"Feature","geometry":{"type":"LineString","coordinates":[[120.68845,30.74227],[120.69557,30.74438]]},"properties":{"canal":"grandCanal"}},{"type":"Feature","geometry":{"type":"LineString","coordinates":[[120.64264,30.99568],[120.6419,30.9916]]},"properties":{"canal":"grandCanal"}},{"type":"Feature","geometry":{"type":"LineString","coordinates":[[120.6419,30.9916],[120.6418,30.99114]]},"properties":{"canal":"grandCanal"}},{"type":"Feature","geometry":{"type":"LineString","coordinates":[[116.09507,35.86443],[116.08735,35.88509],[116.08421,35.88951],[116.03943,35.92723],[116.02625,35.94258]]},"properties":{"canal":"grandCanal"}},{"type":"Feature","geometry":{"type":"LineString","coordinates":[[120.72146,30.73792],[120.72183,30.73831]]},"properties":{"canal":"grandCanal"}},{"type":"Feature","geometry":{"type":"LineString","coordinates":[[120.72134,30.73782],[120.72146,30.73792]]},"properties":{"canal":"grandCanal"}},{"type":"Feature","geometry":{"type":"LineString","coordinates":[[120.72183,30.73831],[120.72576,30.74082]]},"properties":{"canal":"grandCanal"}},{"type":"Feature","geometry":{"type":"LineString","coordinates":[[120.72059,30.73762],[120.72134,30.73782]]},"properties":{"canal":"grandCanal"}},{"type":"Feature","geometry":{"type":"LineString","coordinates":[[116.58795,35.18757],[116.59399,35.16736]]},"properties":{"canal":"grandCanal"}},{"type":"Feature","geometry":{"type":"LineString","coordinates":[[116.88207,38.69762],[116.88241,38.69982]]},"properties":{"canal":"grandCanal"}},{"type":"Feature","geometry":{"type":"LineString","coordinates":[[116.22991,37.36105],[116.23782,37.36745]]},"properties":{"canal":"grandCanal"}},{"type":"Feature","geometry":{"type":"LineString","coordinates":[[116.41446,35.50109],[116.40477,35.51087]]},"properties":{"canal":"grandCanal"}},{"type":"Feature","geometry":{"type":"LineString","coordinates":[[116.41643,35.49917],[116.41446,35.50109]]},"properties":{"canal":"grandCanal"}},{"type":"Feature","geometry":{"type":"LineString","coordinates":[[116.87089,38.50419],[116.86788,38.50886],[116.86006,38.51131],[116.84839,38.52106],[116.84507,38.53521],[116.84102,38.53846],[116.84137,38.54315],[116.83879,38.54781],[116.84032,38.55009],[116.83061,38.55721],[116.8323,38.5624],[116.82645,38.56388],[116.82414,38.57504]]},"properties":{"canal":"grandCanal"}},{"type":"Feature","geometry":{"type":"LineString","coordinates":[[116.82414,38.57504],[116.82393,38.57526]]},"properties":{"canal":"grandCanal"}},{"type":"Feature","geometry":{"type":"LineString","coordinates":[[116.40477,35.51087],[116.39386,35.52127]]},"properties":{"canal":"grandCanal"}},{"type":"Feature","geometry":{"type":"LineString","coordinates":[[120.64995,31.2595],[120.65585,31.23447]]},"properties":{"canal":"grandCanal"}}]}
