{"type":"FeatureCollection","features":[{"type":"Feature","properties":{"id":"sahara","ne_id":1159104337},"geometry":{"type":"MultiPolygon","coordinates":[[[[17.903331,29.555182],[18.458873,29.555182],[18.621082,29.560595],[19.252696,29.581671],[19.92788,29.831398],[20.218394,29.938849],[22.066613,30.334879],[22.070445,30.3357],[23.490715,30.312362],[25.98522,30.271372],[26.899181,30.256354],[27.220121,30.24195],[30.960938,30.07406],[31.026622,30.071112],[31.177019,30.115366],[31.251475,30.137274],[31.30035,30.176375],[31.714488,30.507697],[32.272968,30.621934],[32.296641,30.626776],[32.416345,30.375327],[32.555438,30.083148],[32.561168,30.071112],[32.488247,29.9334],[32.473047,29.925439],[32.476291,29.910821],[32.323009,29.621344],[32.537519,29.294489],[32.589712,29.214961],[32.600841,29.198004],[32.635512,29.103949],[32.631836,28.992236],[32.658887,28.927734],[32.729871,28.847974],[32.786143,28.695319],[32.894982,28.570346],[32.898242,28.565234],[32.906711,28.556878],[33.142542,28.286088],[33.202148,28.208301],[33.244404,28.169126],[33.500499,27.875067],[33.554591,27.771769],[33.558789,27.701221],[33.549805,27.607373],[33.657422,27.430566],[33.697266,27.341113],[33.80166,27.268164],[33.849316,27.184912],[33.893066,27.049463],[33.959082,26.649023],[34.049512,26.550732],[34.329297,26.024365],[34.565137,25.691162],[34.679297,25.442529],[34.853223,25.139795],[35.194141,24.475146],[35.378428,24.288819],[35.405528,24.237067],[35.437127,24.212841],[35.477832,24.154785],[35.624707,24.066016],[35.783887,23.937793],[35.764481,23.939397],[35.659193,23.957705],[35.498057,23.985724],[35.484874,23.615302],[35.517587,23.537303],[35.522754,23.442529],[35.564355,23.271094],[35.697852,22.946191],[35.797363,22.84873],[35.845801,22.785693],[35.913379,22.739648],[35.945346,22.728446],[35.96107,22.70246],[36.230876,22.504096],[36.856195,22.044355],[36.867269,22.022087],[36.870577,22.012511],[36.871387,21.996729],[36.882617,21.768799],[36.926953,21.586523],[37.081152,21.326025],[37.115866,21.288754],[37.148485,21.076713],[37.141113,20.981787],[37.156836,20.894922],[37.172656,20.731982],[37.227539,20.556738],[37.187891,20.394922],[37.193164,20.120703],[37.262598,19.791895],[37.248438,19.581885],[37.361523,19.091992],[37.471289,18.820117],[37.500642,18.787535],[37.508922,18.73371],[37.74472,18.407291],[37.852916,18.257514],[37.847301,18.240171],[37.821374,18.160086],[37.71793,17.840562],[37.707286,17.807685],[38.329112,16.206977],[38.461436,15.161872],[38.401651,15.151329],[38.236461,15.122199],[37.879283,14.579779],[38.005207,13.887374],[38.011607,13.852179],[38.010119,13.850195],[37.733775,13.481757],[37.617262,13.574445],[37.151744,13.94477],[37.143515,13.971504],[36.992931,14.4607],[36.983099,14.756702],[36.979747,14.857611],[36.622569,15.254462],[36.558871,15.225649],[36.538812,15.216576],[36.066905,15.003119],[36.022516,14.880374],[35.842052,14.381354],[35.793372,14.274978],[35.181962,12.938903],[35.127696,12.820319],[35.118816,12.815708],[34.313261,12.397421],[33.782395,12.121767],[33.751842,12.105902],[33.44752,11.404792],[33.452519,11.336685],[33.518095,10.443241],[33.550519,10.001487],[33.553355,9.962836],[33.164678,9.824791],[32.370134,9.542597],[32.137828,9.460089],[31.588605,9.465181],[31.475051,9.466234],[30.709117,9.473334],[30.494029,9.497568],[29.826562,9.572772],[29.769786,9.579169],[29.582619,9.444373],[29.569785,9.43513],[29.439098,9.34101],[29.401464,9.349022],[29.285221,9.373772],[29.076406,9.418231],[28.998345,9.434851],[27.687582,9.713929],[27.38856,9.777594],[26.988168,9.769734],[26.713878,9.76435],[26.237682,10.267096],[25.843649,10.07008],[25.734874,10.015692],[25.673228,9.98487],[25.565397,9.996851],[25.395833,10.015692],[24.298361,10.137638],[24.288474,10.138737],[23.927013,10.1789],[23.690961,10.269689],[23.494273,10.345339],[23.468394,10.355292],[22.669482,10.171758],[22.66478,10.170678],[22.499332,10.13267],[22.163097,10.055426],[22.04123,10.137505],[21.955587,10.195187],[21.681089,10.380067],[21.298839,10.637519],[21.27985,10.633925],[21.190576,10.617028],[20.769126,10.537263],[20.646129,10.513983],[21.02764,10.265267],[21.05189,10.249457],[21.032221,10.243884],[20.079812,9.974035],[19.993541,9.949591],[19.979323,9.968887],[19.775748,10.245168],[19.746593,10.284735],[19.887706,10.778571],[20.032426,10.887111],[20.099376,10.937323],[19.870006,11.113715],[19.774624,11.135727],[18.948037,11.326488],[18.723521,11.378302],[18.000377,11.537055],[17.135997,11.537055],[17.167966,11.498817],[17.800565,10.74217],[18.035533,10.461127],[17.655887,10.223793],[17.612193,10.196479],[17.591039,10.216315],[17.44197,10.356098],[17.047862,10.725653],[16.86769,11.05819],[16.818492,11.148993],[16.201182,11.554755],[16.16442,11.528328],[15.6549,11.162055],[15.636729,11.148993],[15.661784,10.954834],[15.732071,10.410137],[15.773566,10.088566],[15.777843,10.055426],[15.688469,10.046018],[15.31838,10.007059],[14.772472,9.949591],[14.349132,10.231818],[14.32693,10.27525],[14.285871,10.355571],[13.94337,11.02558],[13.555308,11.842475],[13.505148,11.971888],[13.330211,12.423224],[12.567515,12.859992],[11.695462,12.88004],[11.03297,12.89527],[9.957042,13.230414],[8.552996,14.021167],[8.422374,14.094733],[7.667324,14.099098],[5.788803,14.109956],[5.37086,14.112372],[5.318602,14.092141],[4.824107,13.900702],[3.342522,14.116767],[3.130748,14.14765],[2.726522,14.108724],[0.749522,13.918341],[-0.432362,13.865424],[-1.737599,14.130011],[-1.892115,14.241252],[-2.572127,14.730813],[-2.619557,14.76496],[-2.884145,15.135382],[-3.80132,14.923774],[-3.79284,14.941678],[-3.512803,15.532926],[-3.483876,15.594001],[-3.230388,15.627064],[-2.672475,15.699836],[-2.072743,16.176093],[-2.098274,16.177135],[-2.578307,16.196728],[-2.870533,16.208656],[-2.937062,16.211371],[-2.936326,16.217248],[-2.905719,16.461685],[-2.901723,16.493598],[-2.327755,16.645342],[-1.383799,16.894904],[-1.367177,16.899298],[-1.341609,16.894904],[-0.238271,16.705268],[-0.227786,16.831486],[-0.223896,16.878313],[-0.220693,16.916877],[-0.672724,17.027936],[-0.938886,17.093329],[-1.226064,17.163886],[-1.498143,17.093329],[-2.178578,16.916877],[-3.018224,16.672669],[-3.148732,16.634711],[-3.590438,16.406734],[-4.24236,16.070258],[-4.814003,15.724232],[-4.912587,15.664557],[-4.592095,15.57715],[-4.524526,15.558722],[-4.528479,15.549152],[-4.695691,15.14432],[-4.85967,14.747321],[-7.625684,15.161483],[-8.158193,15.241217],[-8.754706,15.186563],[-10.72576,15.005971],[-11.960379,14.892853],[-12.5855,14.835578],[-13.070779,14.866292],[-13.947467,14.921778],[-13.978993,14.923774],[-14.055029,14.949474],[-16.35017,15.72524],[-16.483754,15.770392],[-16.483754,15.804886],[-16.483754,16.025692],[-16.483754,16.446697],[-16.481299,16.454248],[-16.476397,16.49509],[-16.444438,16.654816],[-16.34668,16.926416],[-16.207471,17.192578],[-16.094237,17.503723],[-16.070459,17.536261],[-16.026914,17.595849],[-16.007436,17.622504],[-16.016286,18.072272],[-16.042775,18.73371],[-16.19578,18.924975],[-16.213086,19.00332],[-16.305908,19.153809],[-16.476172,19.285059],[-16.514453,19.361963],[-16.474805,19.390625],[-16.371289,19.410254],[-16.305273,19.512646],[-16.444873,19.473145],[-16.283398,19.787158],[-16.233203,20.000977],[-16.234835,20.029736],[-16.122121,20.241889],[-16.33037,20.410732],[-16.33374,20.415869],[-16.429785,20.652344],[-16.479199,20.689795],[-16.53042,20.709521],[-16.534912,20.654004],[-16.562695,20.60415],[-16.57907,20.612371],[-16.63899,20.660953],[-16.728369,20.806152],[-16.876074,21.086133],[-16.92793,21.114795],[-16.971143,21.076465],[-16.998242,21.039697],[-17.014146,20.96512],[-17.019221,20.969234],[-17.058441,21.001033],[-17.072166,21.012161],[-17.049488,21.144478],[-17.036017,21.172919],[-16.426849,22.459022],[-16.386708,22.543769],[-16.344422,22.607199],[-15.063832,24.528144],[-15.062015,24.533266],[-15.059998,24.538948],[-15.038867,24.548828],[-14.904297,24.719775],[-14.856055,24.871582],[-14.845847,25.142442],[-14.670652,25.636156],[-14.66409,25.654648],[-14.602295,25.808545],[-14.522754,25.925244],[-14.470557,26.163037],[-14.459199,26.181204],[-13.63506,26.644782],[-12.621518,27.987696],[-12.615697,27.995408],[-12.468896,28.009424],[-12.263142,28.060509],[-10.72466,28.126471],[-8.575809,28.743668],[-8.237538,28.840827],[-7.64872,29.111796],[-7.566826,29.149482],[-5.428847,30.133362],[-5.398114,30.147505],[-5.247792,30.216681],[-2.862983,31.071561],[-2.443166,31.222052],[2.372203,33.179999],[5.626598,34.60871],[8.114066,34.287079],[8.695811,34.211859],[8.833398,34.114041],[9.954579,33.316934],[10.732605,32.763793],[11.603806,32.144409],[12.082408,31.804145],[12.182245,31.773354],[14.913463,30.931037],[17.903331,29.555182]]],[[[-16.355453,19.802705],[-16.37334,19.706445],[-16.437549,19.609277],[-16.449752,19.625213],[-16.355453,19.802705]]]]}}]}
