{"type":"FeatureCollection","properties":{"licence":"ODbL 1.0 — © OpenStreetMap contributors","system":"meghna","batch":"b3","fetched":"2026-09-29","snapshot":"2026-09-29T11:53:20Z"},"features":[{"type":"Feature","properties":{"osm_id":168289364,"group":"barak","version":15,"timestamp":"2024-10-26T18:37:07Z","tags":{"name":"Barāk River","name:en":"Barak River","waterway":"river"},"nodes":[306477733,2387182426,306477735,306477736,306477737,4928102979,306477738,306477739,306477740,306477742,4928102980,4928102981,306477743,4928102982,12223034553,306477745,4928102985,12223034554,306477746,6263362272,306477747,306477358,2387182425,306477359,306477360,306477361,2387182424,2387182423,3158906392,306477362,3158906408,306477364,3158906413,306477365,12222938657,3158906429,306477366,3158906437,306477367,3158906447,306477368,3158906565,306477369,306477370,3158906593,12223034556,3158906573,306477371,3158906566,306477373,306477374,3158906610,306477375,4686402483,306477376,3158906656,306477377,4686402485,3158906680,306477378,306477379,4686402489,306477380,306477381,3158906631,4686402490,306477382,3158906619,306477383,306477384,3158906647,306477385,3158906681,6263362273,3158906693,306477386,4686402497,4686402498,306477387,306477388,306477389,306477390,306477391,306477392,306477393,306477394,4686402504,306477395,306477396,4686402506,3158896725,306477397,4686402508,4686402509,306477398,3158896727,4686402511,306477399,306477400,3158896649,4686402514,306477401,306477402,3158896618,4686402516,306477403,4686402517,3158896620,306477404,306477405,3158896641,4686402520,3158896653,4686402521,306477406,306477407,4686402523,306477408,3158879276,4686402525,306477409,3158896809,3158879301,306477410,12290580063,306477411,306477412,4686402529,3158879295,306477413,4686402530,3158879271,3158879230,306477414,3158879227,12290565690,306477415,306477416,4686402534,306477417,3158879226,306477418,3158896733,306477419,306477420,4686402537,306477421,306477422,3158896833,4686402539,306477423,306477424,306477425,4686402542,306477426,306477427,3158896881,306477428,306477429,306477430,3158896936,306477431,306477432,3158896890,306477433,306477434,3158896887,306477435,306477436,4686402551,306477437,4686402552,3158896948,306477438,306477439,306477440,9851343289,4686402556,3158885483,306477442,306477443,306477444,306477445,4686402561,3158896958,306477446]},"geometry":{"type":"LineString","coordinates":[[92.9091292,24.7511379],[92.9086303,24.7509625],[92.9071498,24.7508261],[92.9042101,24.7507092],[92.9015279,24.7514302],[92.8992533,24.7529891],[92.8969574,24.7551326],[92.8949189,24.7574319],[92.8929877,24.7595363],[92.8903055,24.7617478],[92.8867757,24.7638521],[92.8823769,24.765138],[92.8806174,24.7654499],[92.8777742,24.7666384],[92.8756821,24.7684991],[92.8743732,24.7708079],[92.872957,24.7725809],[92.8718948,24.7728439],[92.8709507,24.7726978],[92.8668952,24.769824],[92.861974,24.7671734],[92.8582015,24.7654453],[92.8537428,24.7622762],[92.8509963,24.7590222],[92.8465545,24.7528063],[92.8456962,24.7511499],[92.8443229,24.7503705],[92.8425097,24.7497031],[92.8408196,24.7504596],[92.8392965,24.7519294],[92.8382536,24.7542836],[92.8379606,24.7571032],[92.8376846,24.7604203],[92.8367731,24.7633119],[92.8355314,24.7654517],[92.8338922,24.7672611],[92.8311265,24.7699919],[92.8306126,24.7736417],[92.8307402,24.7771032],[92.8317223,24.7804452],[92.8334429,24.7831507],[92.8335675,24.7849845],[92.8331757,24.7869414],[92.8316637,24.7879701],[92.8297902,24.7883938],[92.8282714,24.788332],[92.82501,24.7866617],[92.819314,24.7846719],[92.8152284,24.7848863],[92.814217,24.7858448],[92.8135562,24.7879049],[92.8128705,24.7919912],[92.8132445,24.7956132],[92.8135464,24.7967657],[92.8140924,24.7988503],[92.8153766,24.8025287],[92.8177954,24.8056524],[92.8187749,24.8063045],[92.8198526,24.8070219],[92.8219971,24.8073614],[92.8239725,24.8063689],[92.8258783,24.8032798],[92.8263758,24.8024733],[92.828264,24.7985775],[92.8292622,24.7960712],[92.8299759,24.7954172],[92.8305838,24.7948601],[92.832242,24.7943847],[92.833626,24.7947243],[92.8358079,24.7960712],[92.8384636,24.7991385],[92.8417178,24.8032017],[92.8439122,24.8070498],[92.8445768,24.8095169],[92.8454458,24.8127424],[92.8468297,24.8190006],[92.8470694,24.8201802],[92.8478288,24.823918],[92.8480391,24.824953],[92.8508694,24.8269785],[92.8538416,24.8277147],[92.8568915,24.8274425],[92.8607566,24.8259035],[92.8621406,24.8260846],[92.862951,24.8275556],[92.8624247,24.8294284],[92.8616415,24.829972],[92.8595064,24.8314537],[92.8533266,24.833479],[92.8524319,24.8336726],[92.8489842,24.8344186],[92.8431986,24.8350369],[92.8424928,24.8350466],[92.8385894,24.8351003],[92.8359238,24.8351369],[92.83223,24.8346431],[92.8308691,24.834143],[92.8288494,24.8334009],[92.8258977,24.8316799],[92.8244275,24.8296273],[92.8231467,24.8254591],[92.8230118,24.8250199],[92.8204231,24.8231124],[92.8186584,24.8228048],[92.8160701,24.8225632],[92.8157725,24.8225354],[92.8114802,24.823178],[92.8109738,24.8232538],[92.8068064,24.824443],[92.8049548,24.8261424],[92.8047734,24.8274744],[92.8048067,24.827807],[92.8050373,24.8301084],[92.8053759,24.8310017],[92.8059278,24.8324581],[92.8085168,24.835526],[92.8144174,24.8400941],[92.8157328,24.8411124],[92.8165582,24.8428482],[92.8167121,24.8444867],[92.8167333,24.844712],[92.8163299,24.8456231],[92.8154554,24.8459088],[92.8135897,24.8459617],[92.8134493,24.845988],[92.8098554,24.8466624],[92.8064483,24.8462073],[92.8041907,24.845484],[92.8028182,24.8450443],[92.801249,24.8437529],[92.800664,24.8430131],[92.7998503,24.8419839],[92.7972219,24.8385426],[92.7957412,24.8362106],[92.7945539,24.8335019],[92.7938962,24.8330806],[92.7930904,24.8327848],[92.7905749,24.8326187],[92.7876493,24.8327442],[92.78743,24.8327536],[92.7855831,24.8333522],[92.7843463,24.8340257],[92.7830766,24.8352678],[92.7827467,24.8365249],[92.783225,24.8396077],[92.7832149,24.8449319],[92.7832141,24.8453519],[92.7828843,24.8482101],[92.7820103,24.8496017],[92.7816474,24.8498783],[92.7808855,24.8504588],[92.7760738,24.851381],[92.7687276,24.8526719],[92.7680401,24.8531046],[92.7672817,24.8535818],[92.7669086,24.8555074],[92.7672584,24.8588296],[92.7687166,24.8641197],[92.7697225,24.867127],[92.7691454,24.8682342],[92.7678096,24.8684586],[92.7662266,24.8675459],[92.7636376,24.8638504],[92.7606198,24.860065],[92.7589048,24.8589278],[92.7575526,24.8590176],[92.7566291,24.8599453],[92.7556727,24.8626235],[92.7533641,24.865825],[92.7509226,24.8672787],[92.7466477,24.869824],[92.7441381,24.871593],[92.743616,24.871961],[92.741727,24.8742672],[92.7364915,24.885434],[92.7350519,24.8879929],[92.7328062,24.8909718],[92.7306008,24.8963667],[92.7303901,24.8968923],[92.7299778,24.9013946],[92.7302911,24.90645],[92.731298,24.9127595],[92.7302454,24.9147737],[92.7284937,24.9154183],[92.7281224,24.9155549],[92.7250956,24.9160192]]}},{"type":"Feature","properties":{"osm_id":540997693,"group":"barak","version":3,"timestamp":"2024-10-25T20:49:38Z","tags":{"name":"Barāk River","name:en":"Barak River","waterway":"river"},"nodes":[306477446,306477447,4686402563,3158885538,4686402564,306477448,306477449,306477450,3158885480,306477451,4686402569,306477452,4928273276,306477453,4928273277,306477454,6241314009,306477455,4686402574,306477456,306477457,4928273278,306477458,306477459,306477460,4686402579,306477461,306477462,306477463,306477464,4928273279,306477465,306477466,4928273280,306477467,4928273281,306477468,306477469,4928273282,306477470,306477471,4928273283,306477472,306477473,4928273284,306477474,306477475,4928273288,4686402592,306477476,4928273287,306477477,4686402594,4686402595,306477478,306477479,4928273286,306477480]},"geometry":{"type":"LineString","coordinates":[[92.7250956,24.9160192],[92.7213071,24.9153146],[92.7194798,24.914118],[92.7178434,24.9132313],[92.7158687,24.9113515],[92.714002,24.9078261],[92.7103019,24.9008665],[92.7063092,24.8962506],[92.7039723,24.8926615],[92.7028836,24.8899154],[92.7025595,24.8883944],[92.701578,24.8837884],[92.7013278,24.8815507],[92.7018213,24.8782609],[92.7027011,24.8760027],[92.7041387,24.8742556],[92.7055442,24.8734623],[92.7075325,24.8733787],[92.7097025,24.8740448],[92.7117991,24.8751657],[92.7154898,24.8760027],[92.7204251,24.8756718],[92.7247381,24.8746984],[92.7276563,24.8733163],[92.7297807,24.8715447],[92.7303815,24.8700068],[92.7297592,24.8681573],[92.7286649,24.8670477],[92.726562,24.8652176],[92.7237081,24.8636212],[92.7216482,24.8620832],[92.7175712,24.8604672],[92.7145457,24.8603309],[92.7118635,24.861869],[92.7087092,24.8642247],[92.7069926,24.866561],[92.7046323,24.8684299],[92.701714,24.8690529],[92.697401,24.8682352],[92.6933382,24.8666574],[92.6889252,24.8643999],[92.6860928,24.8616743],[92.6828956,24.85743],[92.6817369,24.8535165],[92.6810503,24.8503622],[92.6818442,24.8480257],[92.6850414,24.8434888],[92.6897836,24.8411814],[92.6947803,24.8396932],[92.6957415,24.839243],[92.6971972,24.8381826],[92.6978014,24.8365947],[92.6977485,24.8359793],[92.6974967,24.8346856],[92.6967124,24.8342774],[92.6945077,24.8338149],[92.6913178,24.8347846],[92.6877549,24.8363553]]}},{"type":"Feature","properties":{"osm_id":44882516,"group":"barak","version":12,"timestamp":"2024-11-10T16:22:59Z","tags":{"name":"Barāk River","name:en":"Barak River","waterway":"river"},"nodes":[306477480,306477481,306477482,306477483,306477484,4928273285,306477485,306477486,306477487,306477488,306477489,306477490,306477491,3158957572,3158957595,306477492,3158957642,306477493,3158957715,306477494,3158957760,306477495,12209801561,2081914819,306477496,12209801560,306477497,306477498,12209801559,306477499,4686402616,2081914898,306477500,306477501,306477502,4686402619,3158957796,306477503,12209801558,306477504,6246434356,306477505,3158957797,306477506,306477507,306477508,306477509,306477510,306477511,306477512,306477513,4686402628,306477514,306477515,306477516,4686402631,306477517,306477518,306476741,4686402634,306476742,306476743,4686402635,306476745,4686402636,12328876977,306476746,306476747,306476749,306476750,306476751,12288807082,306476752,306476754,306476755]},"geometry":{"type":"LineString","coordinates":[[92.6877549,24.8363553],[92.6779015,24.8436442],[92.6725672,24.8456299],[92.6696489,24.8464088],[92.6662552,24.8460104],[92.6634121,24.8443359],[92.6602042,24.8409964],[92.6572893,24.8361274],[92.6523111,24.8308306],[92.6449297,24.8260009],[92.6424905,24.8254945],[92.6387499,24.8270915],[92.6379004,24.8282377],[92.6379563,24.8327573],[92.6395098,24.8388875],[92.6406444,24.841707],[92.6407316,24.8446849],[92.6398414,24.8478844],[92.6386545,24.8499117],[92.6355476,24.8536179],[92.6347201,24.8562042],[92.6322316,24.8574152],[92.6289135,24.8585251],[92.6235637,24.8585749],[92.6230703,24.8585561],[92.6223069,24.8585632],[92.6192074,24.8585919],[92.6168142,24.8599852],[92.6143725,24.862025],[92.61292,24.8631844],[92.6120835,24.8638904],[92.6106699,24.8653851],[92.608071,24.8669972],[92.606126,24.8678786],[92.6029903,24.8686708],[92.6014857,24.8688627],[92.6000257,24.8695264],[92.598956,24.870461],[92.5987387,24.8726933],[92.599538,24.8750656],[92.5996132,24.8770783],[92.6000274,24.8783991],[92.6000492,24.8798953],[92.5987528,24.881141],[92.5975512,24.881141],[92.595319,24.8803545],[92.5931721,24.8784701],[92.5901,24.8772192],[92.5861509,24.8762503],[92.5766085,24.874756],[92.5690554,24.8746003],[92.5678133,24.8748323],[92.5632189,24.8756904],[92.5566957,24.8784936],[92.554319,24.8779028],[92.5507733,24.8759011],[92.549486,24.8749117],[92.5460527,24.8728872],[92.5415895,24.8683706],[92.535054,24.8651261],[92.5324164,24.8640195],[92.5275133,24.8629195],[92.5256057,24.8630843],[92.5243697,24.8632407],[92.5233129,24.8639651],[92.5225747,24.8649061],[92.5220202,24.8661902],[92.5220202,24.8713298],[92.5217198,24.8744153],[92.5196116,24.8795691],[92.5181256,24.8811459],[92.5171727,24.8814776],[92.5161515,24.8813211],[92.5100039,24.8792723],[92.489126,24.8759119]]}},{"type":"Feature","properties":{"osm_id":424888079,"group":"titas","version":3,"timestamp":"2017-04-02T12:24:48Z","tags":{"name":"Titas River","waterway":"river"},"nodes":[4770917200,4770917204,4770917203,4242524779,4242524778,4242524777,4242524776,4242524775,4242524774,4242524773,4242524772,4242524771,4242524770,4242524769,4242524768,4242524767,4242524766,4242524765,4242524764,4242524763,4242524762,4242524761,4242524760,4242524759,4242524758,4242524757,4242524756,4242524755,4242524754,4242524753,4242524752,4242524751,4242524750,4242524749,4242524748,4242524747,4242524746,4242524745,4242524744,4242524743,4242524742,4242524741,4242524740,4242524739,4242524738,4242524737,4242524736,4242524735,4242524734,4242524733,4242524732,4242524731,4242524730,4242524729,4242524728,4242524727,4242524726,4242524725,4242524724,4242524723,4242524722,4242524721,4242524720,4242524719,4242524718,4242524717,4242524716,4242524715,4242524714,4242524713,4242524712,4242524711,4242524710,4242524709,4242524708,4242524707,4242524706,4242524705,4242524704,4242524703,4242524702,4242524701,4242524700,4242524699,4242524698,4242524697,4242524696,4242524695,4242524694,4242524693,4242524692,4242524691,4242524690,4242524689,4242523088,4242523087,4242523086,4242523085,4242523084,4242523083,4242523082,4242523081,4242523080,4242523079,4242523078,4242523077,4242523076,4242523075,4242523074,4242523073,4242523072,4242523071,4242523070,4242523069,4242523068,4242523067,4242523066,4242523065,4242523064,4242523063,4242523062,4242523061,4242523060,4242523059,4242523058,4242523057,4242523056,4242523055,4242523054]},"geometry":{"type":"LineString","coordinates":[[91.1650223,24.0939178],[91.1638636,24.0968364],[91.162898,24.0989911],[91.1615481,24.1012107],[91.1568704,24.1053435],[91.1517205,24.1075764],[91.1495533,24.1093391],[91.147665,24.1127862],[91.1482015,24.1162136],[91.1493387,24.1208747],[91.1462059,24.122696],[91.1425152,24.124576],[91.1416354,24.1274548],[91.1418714,24.1337995],[91.1425796,24.1354444],[91.1424937,24.1375592],[91.141614,24.1396544],[91.1392322,24.1413188],[91.1366787,24.141358],[91.134867,24.1414097],[91.1338152,24.1411499],[91.1318776,24.1406808],[91.1291728,24.13949],[91.1271957,24.1398292],[91.1260885,24.1402333],[91.1248706,24.141287],[91.1239769,24.1420881],[91.1230199,24.1419943],[91.1223161,24.1425427],[91.1218732,24.1433294],[91.1214145,24.1437624],[91.1207265,24.1434954],[91.1197616,24.1427665],[91.1185358,24.1421242],[91.1180692,24.1419077],[91.1169145,24.1421675],[91.1157678,24.1426654],[91.1142098,24.1436758],[91.1131579,24.1435892],[91.1124382,24.1437407],[91.1124382,24.1441232],[91.1134268,24.1443902],[91.1138064,24.1447511],[91.1133082,24.1450109],[91.1125094,24.1450686],[91.1117423,24.145516],[91.1105402,24.1459923],[91.1095516,24.1459923],[91.1089822,24.1462882],[91.1086579,24.1466346],[91.1082309,24.146714],[91.107266,24.1464109],[91.1057397,24.1464181],[91.1049172,24.1464831],[91.1046878,24.1468728],[91.1051149,24.1480058],[91.1048697,24.1482367],[91.1036518,24.1482872],[91.101469,24.1480996],[91.100781,24.1484027],[91.0995868,24.1488573],[91.0982344,24.1489511],[91.0958302,24.1486769],[91.09394,24.1485903],[91.0925007,24.1493769],[91.0918364,24.149579],[91.0912511,24.1493119],[91.0906501,24.1492326],[91.0896931,24.150113],[91.0888627,24.1504016],[91.087716,24.1501779],[91.0868302,24.1503728],[91.0866562,24.150647],[91.0868856,24.1509862],[91.0882696,24.1527036],[91.0889339,24.1536273],[91.0886017,24.1541397],[91.0880719,24.1544572],[91.0867432,24.1546015],[91.0852643,24.1550778],[91.0837459,24.1550128],[91.0820241,24.1545099],[91.0807796,24.1539812],[91.0798784,24.154549],[91.0795136,24.156272],[91.0782047,24.1577404],[91.0774537,24.1581515],[91.0759516,24.1568789],[91.0761233,24.1559979],[91.0766168,24.153296],[91.0764881,24.1526107],[91.0748787,24.1516122],[91.0738488,24.151201],[91.0731407,24.1517492],[91.0726257,24.1545294],[91.0737415,24.1549014],[91.0745354,24.1558412],[91.0749646,24.1577208],[91.0734625,24.1582886],[91.0718317,24.1593066],[91.072218,24.1598352],[91.0733123,24.1621454],[91.0708018,24.1627523],[91.069686,24.1638291],[91.0683771,24.1651604],[91.0670038,24.165689],[91.066403,24.1650821],[91.065609,24.1639662],[91.0647936,24.1641423],[91.0640212,24.1650821],[91.0625191,24.1673139],[91.0602017,24.1674901],[91.0564895,24.165826],[91.053979,24.1641228],[91.049902,24.1652583],[91.0449238,24.164436],[91.0440655,24.1622629],[91.0443016,24.1598548],[91.042542,24.1566048],[91.0434432,24.1530806],[91.0461684,24.150222],[91.0503097,24.1495171],[91.0526271,24.1472459],[91.0546012,24.1422333],[91.0558672,24.1378667],[91.0555239,24.1278797],[91.0542035,24.1191059],[91.0513168,24.1143852],[91.0490442,24.1097124]]}},{"type":"Feature","properties":{"osm_id":484348101,"group":"titas","version":2,"timestamp":"2026-06-14T10:37:59Z","tags":{"name":"Titas River","waterway":"river"},"nodes":[4770917202,4770917201,4770917200,4770917199,4770917198,4770917197,4770917196,4770917195,4770917194,4770917193,4770917192,4770917191,4770917190,4770917189,4770917188,4770917187,4770917186,4770917185,4770917184,4770917183,4770917182,4770917181,4770917180,4770917179,4770917178,4770917177,4770917176,4770917175,4770917174,4770917173,4770917172,4770917171,4770917170,4770917169,4770917168,4770917167,4770917166,4770917165,13938124194,4770917164,13938124196,13938124195,4770917163,13938124197,13938124198,4770917162,13938124199,4770917161,13938124200,4770917160,13938137001,13938137002,4770917159,13938137004,13938137003,13938137005,4770917158,13938137006,4770917157,13938137008,4770917156,13938137009,2628175476,13938137010,13938137011,13938137012,13938137013,13938137014,13938137015,13938137016,13938137017,13938137018,13938137019,13938137020,13938137021,13938137022,13938137023,13938137024,13938137025,13938137026,13938137027,5764257946]},"geometry":{"type":"LineString","coordinates":[[91.1559028,24.0975416],[91.1627693,24.0956416],[91.1650223,24.0939178],[91.167447,24.0920765],[91.1701507,24.0917239],[91.1726612,24.0925662],[91.1759872,24.0910971],[91.1801714,24.0879629],[91.184935,24.0857101],[91.1890335,24.0842801],[91.1924881,24.0846719],[91.19384,24.0855926],[91.1950631,24.0881392],[91.1970372,24.091528],[91.1986465,24.0918023],[91.2030024,24.0935261],[91.2040538,24.0961117],[91.2031526,24.0964447],[91.1976809,24.0992261],[91.1971659,24.1019292],[91.1972517,24.1065124],[91.1982388,24.108334],[91.2011356,24.1078443],[91.2038392,24.1080989],[91.2066287,24.1097246],[91.2113494,24.1118398],[91.2131733,24.1117027],[91.213581,24.1099792],[91.2158985,24.1085298],[91.216851,24.1085299],[91.2218422,24.109137],[91.2268204,24.1096266],[91.2317128,24.1115852],[91.236927,24.1148559],[91.245553,24.116129],[91.2512607,24.1151693],[91.2555093,24.1124665],[91.2570328,24.1084711],[91.2564749,24.1060326],[91.2558956,24.10426],[91.255327,24.1037312],[91.2547154,24.1033394],[91.25287,24.1024874],[91.2521619,24.1020908],[91.2516469,24.1015105],[91.2514538,24.1009498],[91.2514967,24.0991576],[91.2512714,24.0977669],[91.2503916,24.0957395],[91.2492651,24.093624],[91.2486321,24.0920374],[91.248498,24.0909992],[91.2484712,24.089961],[91.2482405,24.0885701],[91.2478597,24.0870422],[91.2476987,24.0853428],[91.2477095,24.0838393],[91.247747,24.0826737],[91.2476987,24.0816256],[91.2472914,24.0802212],[91.2474419,24.0788559],[91.2478809,24.0768256],[91.2479551,24.0756182],[91.2478592,24.0751114],[91.247076,24.0741906],[91.2461748,24.0731718],[91.2445655,24.071389],[91.2430098,24.0693906],[91.2419798,24.0680388],[91.2412288,24.0676371],[91.239362,24.0667359],[91.236986,24.0651195],[91.2355591,24.0645121],[91.2310219,24.061534],[91.228409,24.0604074],[91.2248656,24.058644],[91.2229666,24.058066],[91.2187931,24.0567826],[91.2161323,24.056028],[91.2146947,24.0557145],[91.2115404,24.0545976],[91.2086436,24.054049]]}},{"type":"Feature","properties":{"osm_id":608406115,"group":"titas","version":6,"timestamp":"2026-06-14T10:37:59Z","tags":{"name":"Titas River","waterway":"river"},"nodes":[5764257946,5764257947,13938137028,13938137029,5764257948,5764257949,5764257950,5764257951,13938137030,5764257952,9924713778,5764259353,5764259354,5764259355,13938137031,5764259356,5764259357,5764259358,5764259359,5764259360,5764259361,5764259362,5764259363,5764259364,5764259365,5764259366,5764259367,5764259368,5764259369,5764259370,5764259371,5764259372,5764259373,5764259374,5764259375,5764259376,5764259377,5764259378,5764259379,5764259380,5764259381,5764259382,5764259383,5764259384,5764259385,5764259386,5764259387,5764259388,5764259389,5764259390,5764259391,5764259392,5764259393,5764259394,5764259395,5764140050,5764140049,5764140048,5764140047,5764140046,5764140045,5764140044,5764140043,5764140042,5764140041,5764140040,5764140039,5764140038,5764140037,5764140036,5764140035,5764140034,5764140033,5764140032,5764140031,5764140030,5764140029,5764140028,5764140027,5764140026,5764140025,5764140024,7031814387,5764140023,5764140022,5764140021,5764140020,5764140019,5764140018,5764140017,5764140016,5764140510,5764140509,5764140508,5764204137,5764140507,5764140506,5764140505,5764140504,5764140503,5764140502,5764140501,5764140500,5764140499,5764140498,5764140497,5764140496,5764140495,5764140494,5764140493,5764140492,5764140491,5764140490,5764140489,5764140488,5764140487,5764140486,5764140485,5764140484,5764140483,5764140482,5764140481,5764140480,5764140479,5764140478,5764140477,5764140476,5764140475,5764140474,5764140473,5764140472,5764140471,5764140470,5764140469,5764140468]},"geometry":{"type":"LineString","coordinates":[[91.2086436,24.054049],[91.2044728,24.0537436],[91.2007874,24.0523474],[91.1984673,24.0515122],[91.1967694,24.0504026],[91.1930036,24.0480709],[91.1866951,24.0461995],[91.1844528,24.0456704],[91.1834014,24.0454402],[91.1822641,24.0453667],[91.1804629,24.045352],[91.1798608,24.0453471],[91.1779404,24.0452687],[91.1765134,24.0451315],[91.1746949,24.0449649],[91.1727047,24.0446024],[91.1713099,24.0442301],[91.1693466,24.0433875],[91.1680591,24.0427702],[91.1663854,24.041663],[91.1652481,24.0407224],[91.1642396,24.0397034],[91.1630809,24.0379299],[91.1618578,24.0363817],[91.1614555,24.0360192],[91.1607206,24.035544],[91.1602378,24.0353137],[91.1583495,24.0349022],[91.1566973,24.034471],[91.1541009,24.0339027],[91.1501956,24.0325701],[91.1463547,24.0309631],[91.1396813,24.027896],[91.1376858,24.026965],[91.1346817,24.0254657],[91.13289,24.024427],[91.1316132,24.0236431],[91.1304009,24.0227415],[91.1296821,24.0221437],[91.1286414,24.0207522],[91.1279225,24.019733],[91.1273432,24.0181846],[91.1266243,24.0161168],[91.1260342,24.0143234],[91.1254978,24.0131082],[91.1249399,24.0123144],[91.1229336,24.0103445],[91.1216032,24.008992],[91.1201119,24.0074631],[91.1191249,24.0063556],[91.1183846,24.0052579],[91.1176336,24.0042876],[91.1168611,24.0026313],[91.11655,24.0014747],[91.1164212,24.0002202],[91.1164534,23.9994214],[91.1165821,23.9983873],[91.1168772,23.9968093],[91.1170328,23.9960301],[91.1170757,23.995143],[91.1170703,23.9943736],[91.1169362,23.9937414],[91.116448,23.9923201],[91.1158097,23.9905901],[91.1155146,23.9897667],[91.1151606,23.9887179],[91.1148709,23.9876543],[91.114549,23.9865369],[91.1144417,23.9858654],[91.1142915,23.9850567],[91.1141789,23.9842235],[91.1141467,23.9835177],[91.1141467,23.9826747],[91.1141092,23.9815131],[91.1141735,23.9807044],[91.1143613,23.9795329],[91.1146992,23.9785526],[91.1148763,23.9781654],[91.1151338,23.9774498],[91.1157346,23.976048],[91.1160403,23.975298],[91.1167699,23.9739158],[91.116888,23.9736718],[91.1173654,23.9726855],[91.1176872,23.9718032],[91.1181915,23.9708375],[91.1186957,23.9695827],[91.1191946,23.9681268],[91.1201441,23.9659063],[91.1211312,23.9641318],[91.1218446,23.9630141],[91.1223221,23.9623572],[91.123116,23.9616023],[91.1238992,23.960916],[91.1244555,23.9605551],[91.1251384,23.960112],[91.1259377,23.9595336],[91.1268121,23.9588228],[91.1271608,23.95846],[91.1275041,23.9580825],[91.1277616,23.9577149],[91.1278957,23.95746],[91.1280835,23.9570972],[91.1284965,23.956455],[91.1288989,23.9557196],[91.1291617,23.9551902],[91.1294728,23.9544303],[91.1297625,23.9536018],[91.1304706,23.9519791],[91.1307871,23.9510673],[91.1310714,23.9503172],[91.1314201,23.9494053],[91.1320907,23.9480522],[91.1325413,23.9473119],[91.133523,23.9460911],[91.134215,23.9454243],[91.135717,23.9443408],[91.1363715,23.9438653],[91.137557,23.943272],[91.1391181,23.942718],[91.140191,23.9423895],[91.141296,23.9423552],[91.1423153,23.942468],[91.1433077,23.942821],[91.1445737,23.9433799],[91.1455178,23.9438555],[91.1469984,23.9443212],[91.1477494,23.9444193],[91.1483931,23.9443703],[91.1494338,23.9441447],[91.1510646,23.9435466],[91.1530495,23.9424974],[91.1540687,23.9417129],[91.1552274,23.9409873],[91.1565792,23.9399969]]}}]}