{"type":"FeatureCollection","properties":{"licence":"ODbL 1.0 — © OpenStreetMap contributors","system":"jamuna","batch":"b4","fetched":"2026-09-29","snapshot":"2026-09-29T12:01:27Z"},"features":[{"type":"Feature","properties":{"osm_id":722862311,"group":"buriganga","version":9,"timestamp":"2026-09-27T16:05:20Z","tags":{"name":"বুড়িগঙ্গা নদী","name:bn":"বুড়িগঙ্গা নদী","name:en":"Buriganga River","wikidata":"Q2991464","waterway":"river"},"nodes":[2619894539,11944857147,4655165450,11944857148,4655165449,9542734607,4655165448,4655165447,4655165446,12102734587,4655165445,9542734606,4655165444,4655165443,4655165442,4655165441,4655165440,9869514809,4929864869,4655165439,4929864868,4655165438,4929864867,4655165437,4655165436,4655165435,4655165434,4655165433,4655165432,4655165431,4655165430,4655165429,4655165428,4655165427,4655165426,4655165425,4655165424,4655165423,4655165422,5662654264,9893152858,5662654263,5783986607,5783986606,5783986605,5783986604,5783986603,5783986602,5783986601,5783986600,5783986599,5783986598,5783986597,5783986596,5783986595,5783986594,5783986593,5783986592,5783986591,9869558084,5783986590,5783986589,5783986588,5783986587,5783986586,5783986585,5783986584,5783986583,5783986582,9908846520,5783986581,5783986580,8424639133,5783986579,5783986578,5783986577,5783986568,5783986567,6052308788,5783986566,5783986565,5783986564,5783986563,5783986562,5783986561,5783986560,5783986559,5783986558,5783986557,6053958459,6053958458,6053958457,6053958456,6053958455,6053958454,6053958453,8424214019,6053958452,6053958451,9138518887,6053958450,6053958449,6053958448,6053958447,6053958446,8424675897,6053958445,6053958444,6053958443,6053958436,6053958442,6053958441,6053958440,6053958439,6053958438,6053958437,6053963590,6053963589,6053963588,6053963587,6053963586,6052485130,6053963585,6052485131,6052485132,6052485133,6052485134,6052485135,8418003077,8418003082,1556433623]},"geometry":{"type":"LineString","coordinates":[[90.335598,23.7849162],[90.3353715,23.7844653],[90.335145,23.783926],[90.3350956,23.7835501],[90.335116,23.7832528],[90.3351262,23.7827662],[90.3352384,23.7822992],[90.3357023,23.7812812],[90.336527,23.7803534],[90.3369372,23.7800216],[90.3371971,23.7796897],[90.337262,23.7792614],[90.3372036,23.7789166],[90.3368685,23.7782465],[90.3358569,23.7773638],[90.3348389,23.7765326],[90.3340996,23.7757504],[90.3339216,23.7753324],[90.3338964,23.7752732],[90.3338065,23.774788],[90.3338699,23.7743727],[90.3340051,23.7741465],[90.3345997,23.7739038],[90.335902,23.7737105],[90.3379961,23.7732852],[90.3399419,23.7726603],[90.3417073,23.7717904],[90.3430282,23.7708433],[90.3433821,23.7702732],[90.3434914,23.7697097],[90.3432581,23.769032],[90.3429274,23.7684591],[90.3411169,23.7672865],[90.3400927,23.7666032],[90.3392851,23.7656092],[90.3386821,23.7644118],[90.3379885,23.7628731],[90.3374251,23.7612802],[90.3366991,23.7599799],[90.332905,23.7554175],[90.3322164,23.7547933],[90.3318107,23.7544256],[90.3309417,23.7536106],[90.330373,23.753041],[90.3294396,23.7517055],[90.32915,23.750861],[90.3291821,23.7504682],[90.329386,23.7501834],[90.3296113,23.7500066],[90.3299332,23.7498102],[90.3302228,23.7496433],[90.3308129,23.7493879],[90.3312099,23.7492308],[90.332669,23.7487594],[90.3333127,23.7487202],[90.3348899,23.7486416],[90.3355765,23.7486907],[90.3361559,23.74873],[90.3365636,23.7487693],[90.337611,23.7489768],[90.3383767,23.7489264],[90.339117,23.7488184],[90.3394818,23.7487103],[90.34181,23.747689],[90.3431725,23.7462258],[90.3434408,23.7458526],[90.3454149,23.744026],[90.3475714,23.7421109],[90.3494704,23.7403923],[90.3505111,23.7392432],[90.3518093,23.7389682],[90.3531182,23.7356585],[90.3539153,23.7337954],[90.3543091,23.7331147],[90.3575277,23.7259154],[90.3583431,23.7236367],[90.3589117,23.7206114],[90.3592765,23.7180182],[90.359474,23.7166104],[90.3595769,23.7158769],[90.360167,23.7137355],[90.3612506,23.71182],[90.3634179,23.7093544],[90.3656709,23.7079202],[90.3686857,23.7070459],[90.3747904,23.7069968],[90.3812814,23.7073111],[90.3880405,23.7083524],[90.3917527,23.7096294],[90.393126,23.7100027],[90.3957868,23.7102385],[90.3981578,23.7103465],[90.3990376,23.7101599],[90.4000997,23.7097669],[90.4011404,23.7091923],[90.4056144,23.7064565],[90.4083569,23.7046242],[90.4092542,23.7041995],[90.412395,23.7021439],[90.4154435,23.6994708],[90.4160643,23.6989265],[90.4187894,23.6960235],[90.4214287,23.6927618],[90.4260421,23.6881147],[90.4302478,23.6842043],[90.4329969,23.6821085],[90.4385733,23.6778571],[90.4436803,23.6735239],[90.4465985,23.6703009],[90.448356,23.6683399],[90.4508257,23.6655843],[90.4542696,23.6610148],[90.4578853,23.6563666],[90.4622733,23.6512465],[90.4670584,23.6464603],[90.468657,23.6448584],[90.4697084,23.6433055],[90.4704165,23.6419099],[90.4712748,23.6400032],[90.4714894,23.6388188],[90.4715002,23.6375608],[90.4713392,23.6362486],[90.470953,23.6355999],[90.4703414,23.6351183],[90.462327,23.6330248],[90.4561043,23.6311179],[90.453465,23.6304299],[90.4516625,23.628523],[90.4512386,23.6280746],[90.4502515,23.6270305],[90.4497347,23.6265818]]}}]}