{"type":"FeatureCollection","properties":{"licence":"ODbL 1.0 — © OpenStreetMap contributors","system":"karnaphuli","batch":"s4","fetched":"2026-10-05","snapshot":"2026-10-05T13:29:06Z"},"features":[{"type":"Feature","properties":{"osm_id":530306794,"group":"khawthlangtuipui","version":17,"timestamp":"2026-07-26T21:23:55Z","tags":{"name":"Khawthlangtuipui","alt_name":"Khawthlang Tuipui","waterway":"river"},"nodes":[6190661589,6190661590,6190661591,6190661592,6190661593,6190661594,6190661595,6190661596,6190661597,6190661598,6190661599,6190661600,6190661601,6190661602,6190661603,6190661604,6190661605,6190661606,6190661607,6190661608,6190661609,6190661610,6190661611,6190661612,6190661613,6190661614,6190661615,6190661616,6190661617,6190661618,6190661619,6190661620,6190661621,6190661622,6190661623,6190661624,6190661625,6190661626,6190661627,6190661628,6190661629,6190661630,6190661631,6190661632,6190661633,6190661634,6190661635,6190661636,6190661637,6190661638,6190661639,6190661640,6190661641,6190661642,6190661643,6190661644,6190661645,6190661646,6190661647,6190661648,6190661649,6190661650,6190661651,6190661652,6190661653,6190661654,6190661655,6190661656,6190661657,6190661658,6190661659,6190661660,6190661661,6190661662,6190661663,6190661664,6190661665,6190661666,6190661667,6190661668,6190661669,6190661670,6190661671,6190661672,6190661673,6190661674,6190661675,6190661676,6190661677,6190661678,6190661679,6190661680,6190661681,6190661682,6190661683,6190661684,6190669485,6190669486,6190669487,6190669488,6190669489,6190669490,6190669491,6190669492,6190669493,6190669494,6190669495,6190669496,6190669497,6190669498,6190669499,6190669500,6190669501,6190669502,6190669503,6190669504,6190669505,6190669506,6190669507,6190669508,6190669509,6190669510,6190669511,6190669512,6190669513,6190669514,6190669515,6190669516,6190669517,6190669518,6190669519,6190669520,6190669521,6190669522,6190669523,6190669524,6190669525,6190669526,6190669527,6190669528,6190669529,6190669530,6190669531,6190669532,6190669533,6190669534,6190669535,6190669536,6190669537,6190669538,6190669539,6190669540,6190669541,6190669542,6190669543,6190669544,6190669545,6190669546,6190669547,6190669548,6190669549,6190669550,6190669551,6190669552,6190669553,6190669554,6190669555,6190669556,6190669557,6190669558,6190669559,6190669560,6190669561,6190669562,6190669563,6190669564,6190669565,13363359678,6190669566,6190669567,13363359677,6190669568,6190669569,6190669570,6190669571,6190669572,6190669573,6190669574,6190669575,6190669576,6190669577,6190669578,6190669579,6190669580,6190669581,6190669582,6190669583,6190669584,6190669685,6190669686,6190669687,6190669688,6190669689,6190669690,6190669691,6190669692,6190669693,6190669694,6190669695,6190669696,6190669697,6190669698,6190669699,6190669700,6190669701,6190669702,6190669703,6190669704,6190669705,6190669706,6190669707,6190669708,6190669709,6190669710,6190669711,6190669712,6190669713,6190669714,6190669715,6190669716,6190669717,6190669718,6190669719,6190669720,6190669721,6190669722,6190669723,6190669724,6190669725,6190669726,6190669727,6190669728,6190669729,6190669730,6190669731,6190669732,6190669733,6190669734,6190669735,6190669736,6190669737,6190669738,6190669739,6190669740,6190669741,6190669742,6190669743,6190669744,6190669745,6190669746,6190669747,6190669748,6190669749,6190669750,6190669751,6190669752,6190669753,6190669754,6190669755,6190669756,6190669757,6190669758,6190669759,6190669760,6190669761,6190669762,6190669763,6190669764,6190669765,6190669766,6190669767,6190669768,6190669769,6190669770,6190669771,6190669772,6190669773,6190669774,6190669775,6190669776,6190669777,6190669778,6190669779,6190669780,6190669781,6190669782,6190669783,6190669784,6190669885,6190669886,6190669887,6190669888,6190669889,6190669890,6190669891,6190669892,6190669893,6190669894,6190669895,6190669896,6190669897,6190669898,6190669899,6190669900,6190669901,6190669902,6190669903,6190669904,6190669905,6190669906,6190669907,6190669908,6190669909,6190669910,6190669911,6190669912,6190669913,6190669914,6190669915,6190669916,6190669917,6190669918,6190669919,6190669920,6190669921,6190669922,6190669923,6190669924,6190669925,6190669926,6190669927,6190669928,6190669929,6190669930,6190669931,6190669932,6190669933,6190669934,6190669935,6190669936,6190669937,6190669938,6190669939,6190669940,6190669941,6190669942,6190669943,6190669944,6190669945,6190669946,6190669947,6190669948,6190669949,6190669950,6190669951,6190669952,6190669953,6190669954,6190669955,6190669956,6190669957,6190669958,6190669959,6190669960,6190669961,6190669962,6190669963,6190669964,6190669965,6190669966,6190669967,6190669968,6190669969,6190669970,6190669971,6190669972,6190669973,6190669974,6190669975,6190669976,6190669977,6190669978,6190669979,6190669980,6190669981,6190669982,6190669983,6190669984,6190670085,6190670086,6190670087,6190670088,6190670089,6190670090,6190670091,6190670092,6190670093,6190670094,6190670095,6190670096,6190670097,6190670098,6190670099,6190670100,6190670101,6190670102,6190670103,6190670104,6190670105,6190670106,6190670107,6190670108,6190670109,6190670110,6190670111,6190670112,6190670113,6190670114,6190670115,6190670116,6190670117,6190670118,6190670119,6190670120,13363190846,13363190847,6190670124,13363190845,13363190848,13363190849,13363190850,13363190851,13363190852,13363190854,13363190853,6190670130,6190670131,6190670132,6190670133,6190670134,6190670135,6190670136,6190670137,6190670138,6190670139,6190670140,6190670141,6190670142,6190670143,6190670144,6190670145,6190670146,6190670147,6190670148,6190670149,6190670150,6190670151,6190670152,6190670153,6190670154,6190670155,6190670156,6190670157,6190670158,6190670159,6190670160,6190670161,6190670162,6190670163,6190670164,6190670165,6190670166,6190670167,6190670168,6190670169,6190670170,6190670171,6190670172,6190670173,6190670174,6190670175,6190670176,6190670177,6190670178,6190670179,6190670180,6190670181,6190670182,6190670183,6190670184,6190670385,6190670386,6190670387,6190670388,6190670389,6190670390,6190670391,6190670392,6190670393,6190670394,6190670395,6190670396,6190670397,6190670398,6190670399,6190670400,6190670401,6190670402,6190670403,6190670404,6190670405,6190670406,6190670407,6190670408,6190670409,6190670410,6190670411,6190670412,6190670413,6190670414,6190670415,6190670416,6190670417,6190670418,6190670419,6190670420,6190670421,6190670422,6190670423,6190670424,6190670425,6190670426,6190670427,6190670428,6193033625,6190670429,6190670430,6190670431,6190670432,6190670433,6190670434,6190670435,6190670436,6190670437,6190670438,6190670439,6190670440,6190670441,6190670442,6190670443,6190670444,6199818085,6190670445,6190670446,6190670447,6190670448,6190670449,6190670450,6190670451,6190670452,6190670453,6190670454,6190670455,6190670456,6190670457,6190670458,6190670459,6190670460,6190670461,6190670462,6190670463,6190670464,6190670465,6190670466,6190670467,6190670468,6190670469,6190670470,6190670471,6190670472,6190670473,6190670474,6190670475,6190670476,6190670477,6190670478,6190670479,6190670480,6190670481,6190670482,6190670483,6190670484,6190670585,6190670586,6190670587,6190670588,6190670589,6190670590,6190670591,6190670592,6190670593,6190670594,6190670595,6190670596,6190670597,6190670598,6190670599,6190670600,6190670601,6190670602,6190670603,6190670604,6190670605,6190670606,6190670607,6190670608,6190670609,6190670610,6190670611,6190670612,6190670613,6190670614,6190670615,6190670616,6190670617,6190670618,6190670619,6190670620,6190670621,6190670622,6190670623,6190670624,6190670625,6190670626,6190670627,6190670628,6190670629,6190670630,6190670631,6190670632,6190670633,6190670634,6204021558,6190670635,6190670636,6190670637,6190670638,6190670639,6190670640,6190670641,6190670642,12173714110,6190670643,6190670644,6190670645,6190670646,6190670647,6190670648,6190670649,6190670650,6190670651,6190670652,6190670653,6190670654,6190670655,6190670656,6190670657,6190670658,6190670659,6190670660,13361909002,13361908200,13361909001,6190670662,6190670663,6190670664,6190670665,6190670666,6190670667,6190670668,6190670669,6190670670,6190670671,6190670672,6190670673,6190670674,6190670675,5149768393,5149768407,6204021726,5149768414,5149770125,5149770127,6190639610,6190639609,5149770144,5149770148,6204021448,5149770291,6204021761,5149770297,6204021762,5149770303,5149770305,5822422657,5149770174,12248850301,5149770176,5149770131,5149770225,5149770220,5149770221,5149770186,5149770190,5149770162,5149770149,5149770265,5149770267,13361134083,5149770288,5149770235,5149770183,5149770187,14052354848,5149770188,5149770294,5149770217,5149770172,5149770232,5149768388,5149770196,5149768410,5149770255,5149770256,5149770195,5149770251,5149770243,5149770241,5149770238,5149770237,5149770236,5149770233,5149770228,5149770249,5149770247,5149770222,5149768375,5149768400,5149770130,5149768404,5149768412,5149768418,5149770133,5149770202,5149770268,5149770252,5149770203,5149770201,5149770199,5149770259,5149770258,5149768415]},"geometry":{"type":"LineString","coordinates":[[92.6560735,23.0647086],[92.655741,23.0644717],[92.6553011,23.0643138],[92.6548397,23.064452],[92.6545822,23.0642841],[92.654711,23.0636326],[92.6550543,23.0635537],[92.6554513,23.0635241],[92.6557195,23.0634648],[92.6558375,23.0633069],[92.6558375,23.0630601],[92.6557839,23.0628133],[92.6559126,23.0626554],[92.6561486,23.0625863],[92.6565349,23.0623889],[92.6566636,23.0620927],[92.6562881,23.0619446],[92.6557302,23.0619052],[92.6550865,23.0619545],[92.6547217,23.0608489],[92.6550221,23.0605824],[92.6554405,23.0604047],[92.6561486,23.06],[92.6564169,23.0599901],[92.6563525,23.0595557],[92.6561808,23.0592399],[92.6559663,23.0590523],[92.6555371,23.0589141],[92.6552474,23.0586278],[92.6553976,23.0582626],[92.655698,23.0579763],[92.6560092,23.0575518],[92.655698,23.0571865],[92.6551723,23.0567522],[92.654593,23.0568608],[92.6541424,23.0573149],[92.6537561,23.0577986],[92.6533377,23.0584008],[92.6529729,23.0582329],[92.651385,23.0578183],[92.6508808,23.0576012],[92.650398,23.057769],[92.6499688,23.0576406],[92.6497006,23.0573247],[92.6495611,23.0568015],[92.6495719,23.0564955],[92.6496148,23.0560809],[92.6498615,23.0558341],[92.6500439,23.0556169],[92.6503551,23.0553208],[92.6504516,23.054995],[92.6503765,23.0545804],[92.6502692,23.0540966],[92.6501512,23.0536919],[92.6500761,23.0532674],[92.6501298,23.0529416],[92.6504516,23.0526948],[92.6508808,23.0528232],[92.6512134,23.0529318],[92.6516318,23.0532773],[92.6519537,23.0536623],[92.6522755,23.0540769],[92.652651,23.0541263],[92.6532304,23.0536129],[92.6538634,23.0529811],[92.6540029,23.0521124],[92.6539278,23.0518261],[92.6536488,23.0516484],[92.6533699,23.0517076],[92.6527583,23.0521519],[92.6523185,23.0522111],[92.6521253,23.0519149],[92.6519429,23.0514608],[92.6523828,23.05075],[92.6525652,23.0505624],[92.6528227,23.0503847],[92.6534772,23.0500392],[92.6539707,23.0497628],[92.6540994,23.0494469],[92.6540351,23.0490915],[92.6536917,23.0488743],[92.6533591,23.0485386],[92.6531875,23.0480944],[92.6530587,23.0477587],[92.6527476,23.047581],[92.6522004,23.0479265],[92.6518571,23.0477587],[92.6513743,23.0469985],[92.651428,23.0464456],[92.6516211,23.0461692],[92.6520395,23.0459718],[92.6523399,23.0461297],[92.6527261,23.0463272],[92.6532197,23.0463568],[92.6534772,23.0461495],[92.6536488,23.0459027],[92.6536703,23.0456164],[92.6536274,23.0454189],[92.6534557,23.0451227],[92.6534772,23.0447179],[92.6535415,23.044402],[92.6536703,23.0443132],[92.6541853,23.0441355],[92.654432,23.0439281],[92.6547539,23.0435135],[92.6550221,23.0432173],[92.6552474,23.0429507],[92.6553333,23.0426151],[92.6550543,23.0423485],[92.654829,23.0421708],[92.6550543,23.0415488],[92.6557195,23.0410848],[92.6558912,23.0407984],[92.6559555,23.0405417],[92.6561379,23.0400283],[92.6566529,23.039436],[92.6565349,23.0389719],[92.6560628,23.0392484],[92.6556551,23.0393471],[92.6550436,23.0394162],[92.6542496,23.0391891],[92.6540136,23.0390213],[92.653681,23.0386757],[92.6532519,23.0382808],[92.6527905,23.037876],[92.6525008,23.037491],[92.6525867,23.0368986],[92.6539063,23.0361679],[92.6542818,23.0360001],[92.6547861,23.0358619],[92.6550758,23.0354176],[92.6551294,23.0350918],[92.6549792,23.0346573],[92.6548719,23.0344204],[92.6546788,23.0339563],[92.6548397,23.03367],[92.6551401,23.0333935],[92.6554298,23.0331664],[92.6557731,23.0330085],[92.6559341,23.0326135],[92.6561808,23.0312608],[92.6561594,23.0307869],[92.6560414,23.0304709],[92.6560092,23.0300562],[92.6561808,23.0297304],[92.6564169,23.0294046],[92.6567495,23.0289504],[92.6571035,23.0288911],[92.65764,23.02898],[92.6580262,23.0289997],[92.6586592,23.0288813],[92.6588309,23.0286542],[92.6587772,23.0283184],[92.658627,23.0279729],[92.6585197,23.0276273],[92.658273,23.0272323],[92.6580369,23.0269953],[92.6577794,23.0264128],[92.6573932,23.0252476],[92.6573503,23.0248527],[92.6574146,23.0245861],[92.6574576,23.024438],[92.657597,23.0243293],[92.6579511,23.0243096],[92.6581871,23.024438],[92.6584768,23.0246749],[92.6587772,23.0248428],[92.6590776,23.0248724],[92.6592815,23.0246651],[92.6593244,23.024438],[92.6593244,23.0238949],[92.659378,23.0235493],[92.6595497,23.0229963],[92.6598179,23.0221373],[92.6599574,23.0217225],[92.6602149,23.0212486],[92.6603549,23.0209419],[92.6605414,23.0208128],[92.660791,23.0206989],[92.6612674,23.0205531],[92.6615748,23.0203784],[92.6617384,23.0201031],[92.6618671,23.0198662],[92.6618242,23.0195403],[92.6618135,23.0193922],[92.6615238,23.0187207],[92.6612234,23.0183455],[92.6609337,23.0178912],[92.6606548,23.0174864],[92.6605582,23.0170914],[92.6603114,23.0163607],[92.6604938,23.0159657],[92.660805,23.0157089],[92.6610732,23.0153732],[92.6612663,23.0150473],[92.6612663,23.0147906],[92.6612341,23.0142277],[92.6613307,23.0137636],[92.6615667,23.0133093],[92.6619744,23.0126675],[92.6626825,23.0117195],[92.6629078,23.0114035],[92.6632082,23.0110282],[92.6632297,23.0105838],[92.6631546,23.0100209],[92.6631438,23.0097741],[92.6630151,23.0090828],[92.6630795,23.0085693],[92.6632404,23.0081841],[92.6635515,23.0077891],[92.6644742,23.0069695],[92.6644742,23.0063276],[92.6645064,23.0057745],[92.6645171,23.0053894],[92.6644528,23.004866],[92.6643884,23.0045006],[92.6641845,23.0037698],[92.6641953,23.003355],[92.6642704,23.0028415],[92.6645171,23.0023279],[92.6647532,23.0019625],[92.6653003,23.0011725],[92.6659119,23.0008564],[92.6659012,23.0001947],[92.6654184,22.998822],[92.6649892,22.9973504],[92.6647639,22.9969159],[92.6643991,22.996748],[92.6640451,22.9968171],[92.6635086,22.9968764],[92.6632404,22.9963233],[92.6632189,22.9959382],[92.6631438,22.9955925],[92.6630473,22.9951974],[92.6632082,22.9948221],[92.6634872,22.9943876],[92.6635408,22.994032],[92.6636696,22.9935185],[92.6637983,22.9929851],[92.6639378,22.9924419],[92.6642275,22.9912172],[92.6643777,22.9908814],[92.6646566,22.990516],[92.6645279,22.9901308],[92.6641953,22.9896962],[92.6639056,22.9891826],[92.6641845,22.9884123],[92.6644098,22.9877308],[92.6648497,22.9868813],[92.6651287,22.9858146],[92.6656222,22.9851627],[92.6656437,22.9848269],[92.6654184,22.9843825],[92.6650858,22.984175],[92.6643455,22.9838985],[92.6633584,22.9837503],[92.6624894,22.9834639],[92.6617598,22.9832466],[92.6612019,22.9828318],[92.6608693,22.9823774],[92.6607942,22.9816465],[92.6611054,22.98136],[92.6614165,22.9809452],[92.661556,22.9807674],[92.6618349,22.9806291],[92.6622426,22.9805106],[92.6626825,22.9803526],[92.6630795,22.9802044],[92.6633584,22.9797797],[92.6634979,22.9793846],[92.6637125,22.9782882],[92.6636159,22.9774881],[92.6635515,22.976846],[92.6634013,22.9763126],[92.6626181,22.9748507],[92.6630044,22.9745347],[92.6635515,22.9741],[92.6640773,22.973537],[92.6647854,22.9726085],[92.6649785,22.9722529],[92.6645171,22.9697043],[92.664324,22.9691215],[92.6643669,22.9684794],[92.6646137,22.9680744],[92.6651394,22.9672644],[92.6657188,22.9668001],[92.6661587,22.9661975],[92.6664483,22.9656345],[92.6663196,22.9649825],[92.6661479,22.9642317],[92.6662445,22.9634414],[92.6664161,22.9628586],[92.6665556,22.9621473],[92.6666522,22.9616336],[92.6668453,22.9608038],[92.6670813,22.9602605],[92.6674461,22.9591738],[92.6678216,22.9583835],[92.6679611,22.9574351],[92.6674247,22.9570202],[92.6668024,22.9565657],[92.6664483,22.9558643],[92.6664161,22.9553111],[92.6665449,22.9545109],[92.6668346,22.954175],[92.6672959,22.9542935],[92.6675963,22.9547677],[92.6678431,22.9552913],[92.6681864,22.9557556],[92.6692164,22.9552123],[92.6692378,22.9546788],[92.6691735,22.9539971],[92.6685941,22.9533155],[92.6681649,22.9528116],[92.6680684,22.9522781],[92.6682508,22.951883],[92.668519,22.9513989],[92.6688516,22.950816],[92.6690662,22.950243],[92.6691091,22.9496798],[92.6690232,22.9492649],[92.6688623,22.9486029],[92.668122,22.9477335],[92.6678323,22.947368],[92.6677787,22.9468443],[92.6681757,22.9463602],[92.6684439,22.9461231],[92.6688516,22.945886],[92.6692807,22.9456489],[92.6693666,22.9451252],[92.6693237,22.9446411],[92.6691627,22.9441471],[92.6687979,22.9437618],[92.6682079,22.9433864],[92.6677787,22.9430406],[92.6674998,22.942675],[92.6674139,22.9421118],[92.6676392,22.9415585],[92.6678753,22.9406495],[92.6679289,22.9400765],[92.6680469,22.9395924],[92.6679718,22.9391477],[92.6677143,22.9388019],[92.666384,22.9381992],[92.6659226,22.9379818],[92.6653111,22.9375372],[92.6642918,22.9365195],[92.6637232,22.9359465],[92.6615131,22.9353141],[92.6608908,22.9350671],[92.6598823,22.934988],[92.6593137,22.9352943],[92.6591742,22.9357093],[92.6589703,22.9362231],[92.6573395,22.9367863],[92.6554835,22.9371321],[92.6548075,22.937063],[92.6540351,22.9368357],[92.6532411,22.9366875],[92.6526725,22.9367073],[92.6522755,22.9367665],[92.651428,22.9369147],[92.6506555,22.9370531],[92.6496792,22.9370432],[92.6483702,22.9370432],[92.6480484,22.9370333],[92.6471793,22.936648],[92.646321,22.9365492],[92.6456237,22.9364701],[92.644937,22.9364701],[92.6445722,22.9367567],[92.6437568,22.9372408],[92.6428771,22.9378139],[92.6421261,22.9386241],[92.6417613,22.9390489],[92.6412034,22.939454],[92.6410854,22.9397504],[92.6410854,22.9401358],[92.6410103,22.9406594],[92.6410103,22.9412028],[92.641139,22.9418154],[92.6409352,22.9422106],[92.6390362,22.9422205],[92.6385212,22.94226],[92.6377916,22.9423786],[92.6371371,22.9425169],[92.6366329,22.9427343],[92.6359248,22.942922],[92.635324,22.9429121],[92.634809,22.9428825],[92.6343155,22.9429121],[92.6337468,22.9430307],[92.6329958,22.9433567],[92.6320517,22.9431591],[92.6317191,22.9428133],[92.6316976,22.9424082],[92.6317191,22.942013],[92.6320517,22.9411238],[92.6321912,22.940778],[92.6320731,22.9401358],[92.6318478,22.9399283],[92.6315045,22.9396516],[92.6311183,22.9393651],[92.6305711,22.9389896],[92.6302063,22.9387624],[92.6297235,22.938466],[92.6293266,22.9382387],[92.628951,22.9382881],[92.6286399,22.9389402],[92.6285434,22.9392762],[92.6285755,22.939543],[92.6287687,22.9399678],[92.6288438,22.9403136],[92.6287687,22.9407088],[92.6285326,22.9410151],[92.6282322,22.9412127],[92.6279211,22.9412325],[92.627567,22.9411534],[92.6273203,22.9409558],[92.6269662,22.9408274],[92.6266443,22.9409163],[92.6262581,22.9409855],[92.6258719,22.9408966],[92.6255071,22.9409064],[92.6247453,22.9412127],[92.6243162,22.9414992],[92.6239729,22.9418549],[92.6231575,22.941687],[92.6226103,22.9414103],[92.6224065,22.9413609],[92.6221168,22.941351],[92.6215696,22.9412325],[92.6212263,22.9410942],[92.6207864,22.9412127],[92.6206048,22.9414931],[92.6204853,22.942461],[92.6205511,22.9427825],[92.6207334,22.9427819],[92.6211134,22.9427508],[92.621657,22.9427954],[92.6221374,22.9429574],[92.6224735,22.943216],[92.6227035,22.9436075],[92.6228152,22.944024],[92.6228276,22.944375],[92.6226854,22.9446312],[92.6225888,22.9451351],[92.6222563,22.9458761],[92.6218056,22.9467159],[92.6211726,22.9470222],[92.6209259,22.9469827],[92.6206469,22.9468048],[92.6204431,22.9465479],[92.6201427,22.9461725],[92.6197564,22.9459156],[92.6194131,22.945807],[92.6190269,22.9459255],[92.618705,22.9461824],[92.6188123,22.9464985],[92.619102,22.9469827],[92.6193809,22.9471704],[92.6198315,22.9473581],[92.6199388,22.948188],[92.6201427,22.9486622],[92.6203036,22.9489388],[92.6205826,22.9489882],[92.6211941,22.9489784],[92.6215589,22.9491266],[92.6216876,22.9493834],[92.6217198,22.9497984],[92.6213121,22.9501046],[92.6209151,22.9509148],[92.6206255,22.9512507],[92.620089,22.9514878],[92.6197135,22.9515174],[92.6193809,22.9516656],[92.6193809,22.9520707],[92.6193166,22.9525449],[92.6190912,22.9530586],[92.6186943,22.9531475],[92.6182008,22.9528808],[92.6177287,22.9527326],[92.6175356,22.9524856],[92.6175463,22.9521299],[92.6178467,22.9517743],[92.6179111,22.9513989],[92.617675,22.9509938],[92.6174175,22.9508061],[92.6170635,22.9506283],[92.6163769,22.9507468],[92.6158726,22.9508752],[92.6153576,22.9507765],[92.6150357,22.9506283],[92.6142794,22.9503368],[92.6139951,22.9502479],[92.6136571,22.9501343],[92.6132118,22.9500997],[92.6128042,22.9501096],[92.6123428,22.9501244],[92.612139,22.9499713],[92.6120746,22.9495514],[92.6112163,22.9492056],[92.6107979,22.9491562],[92.6102614,22.9491068],[92.609961,22.9489784],[92.6099074,22.9485733],[92.6102721,22.9475754],[92.6101756,22.9471803],[92.6098108,22.9469925],[92.609328,22.9468641],[92.608974,22.9469234],[92.6085877,22.9472297],[92.6083946,22.9477829],[92.6082229,22.9484646],[92.6078367,22.9489092],[92.607547,22.949008],[92.6072252,22.9487906],[92.6069677,22.9485535],[92.6068282,22.9482176],[92.6063561,22.9466961],[92.6061952,22.9461626],[92.6058089,22.945392],[92.6055085,22.9447202],[92.605294,22.9446312],[92.6051545,22.9447498],[92.6048648,22.9451055],[92.6045215,22.9456291],[92.6043498,22.9462318],[92.6038778,22.9468443],[92.6022041,22.9468937],[92.6016462,22.9467851],[92.6013028,22.9466369],[92.6007557,22.9462812],[92.6002621,22.9459058],[92.5995326,22.9451746],[92.5991571,22.9447696],[92.5989532,22.944572],[92.5985241,22.9443645],[92.5981378,22.9443842],[92.5975156,22.9448684],[92.5973761,22.9453031],[92.597301,22.9457378],[92.5971186,22.9463108],[92.5967538,22.9474569],[92.5963568,22.9475691],[92.5956702,22.9477632],[92.5953054,22.9477335],[92.5948977,22.9477928],[92.5944149,22.9480497],[92.5938463,22.9483362],[92.5932991,22.9487017],[92.5926554,22.9488302],[92.5921511,22.9487808],[92.5915611,22.9485338],[92.5907886,22.9479805],[92.5903272,22.9475656],[92.5898766,22.9471605],[92.5896835,22.9466072],[92.5896942,22.9462318],[92.5897372,22.9459058],[92.5897908,22.9452142],[92.5899122,22.9442518],[92.5899839,22.9436828],[92.5897479,22.9427046],[92.5894904,22.9421612],[92.5891363,22.9418055],[92.5887394,22.9415882],[92.5882995,22.94144],[92.5879776,22.9415091],[92.587291,22.9419439],[92.5866902,22.9421711],[92.5860035,22.9422897],[92.5851774,22.9422501],[92.5846946,22.942181],[92.5839329,22.9421711],[92.583357,22.9421252],[92.5825845,22.942056],[92.5816189,22.9419177],[92.5801705,22.9417102],[92.57928,22.941562],[92.5789367,22.941562],[92.5784611,22.9414992],[92.5781178,22.9412522],[92.5775921,22.9412127],[92.5770771,22.941193],[92.5764119,22.9411534],[92.5758862,22.9411337],[92.575382,22.941104],[92.5751459,22.9409855],[92.5748026,22.9406397],[92.5742876,22.9404915],[92.5736224,22.9403334],[92.5726568,22.9400073],[92.5712728,22.9392762],[92.571069,22.9386537],[92.5707686,22.9384265],[92.5702858,22.9381893],[92.5699854,22.9380312],[92.5695777,22.9376163],[92.5693309,22.9372112],[92.5689661,22.9367171],[92.5686335,22.9361737],[92.5682902,22.9357884],[92.5669062,22.9350374],[92.5649428,22.9344248],[92.5645673,22.9340988],[92.5642132,22.9338221],[92.5637519,22.9337628],[92.5632906,22.9338616],[92.5629902,22.9338715],[92.5624966,22.9335059],[92.5620675,22.9331996],[92.5614774,22.9331304],[92.560941,22.9330909],[92.5603509,22.9331403],[92.5597995,22.9329383],[92.5592625,22.9326678],[92.5582266,22.9322115],[92.5576794,22.9316681],[92.5574755,22.9312037],[92.5572288,22.9305812],[92.5570142,22.9300377],[92.5570035,22.9294646],[92.5571644,22.92902],[92.557261,22.9286544],[92.5572717,22.9283283],[92.5571215,22.9280318],[92.5568425,22.9277749],[92.5564456,22.9274587],[92.5559842,22.9274093],[92.5555765,22.9274686],[92.5549006,22.9275575],[92.554332,22.9277848],[92.5538921,22.9279429],[92.5533128,22.9278836],[92.5528621,22.9277058],[92.5521755,22.9277156],[92.5514781,22.9277453],[92.5510597,22.927854],[92.5506198,22.9281405],[92.5503087,22.9285753],[92.5495898,22.9288322],[92.548989,22.9288026],[92.5481736,22.9285654],[92.5470257,22.9279528],[92.5467252,22.9276564],[92.5463605,22.9272709],[92.5460171,22.9268954],[92.5456094,22.9263915],[92.5449443,22.9259863],[92.544322,22.9256602],[92.5431901,22.9253292],[92.5427019,22.9253539],[92.542423,22.9256207],[92.5422728,22.9258579],[92.5421869,22.9264507],[92.542026,22.9270733],[92.5417256,22.9277947],[92.5412965,22.9286741],[92.5409209,22.9307096],[92.5410427,22.9313809],[92.5410565,22.9317532],[92.5411677,22.9322708],[92.5413823,22.9328044],[92.5415432,22.9333281],[92.541672,22.9343161],[92.5410282,22.936559],[92.5395262,22.9408274],[92.5391721,22.9419636],[92.5385606,22.9427639],[92.5381422,22.942922],[92.5378525,22.9426651],[92.5377774,22.9420575],[92.5376647,22.9417216],[92.5371337,22.941193],[92.5368118,22.9408867],[92.5361573,22.9406001],[92.5356531,22.9403828],[92.5351381,22.9402543],[92.5341403,22.9403531],[92.533797,22.9404593],[92.5334926,22.9405124],[92.5331895,22.9406668],[92.532928,22.9411534],[92.5325954,22.941766],[92.5324988,22.9422205],[92.5323701,22.9432085],[92.5320804,22.9441471],[92.5320053,22.9447399],[92.5319195,22.945392],[92.5317907,22.9457971],[92.5314581,22.9460737],[92.5307607,22.9460539],[92.5302458,22.9457674],[92.5296557,22.9453821],[92.528851,22.9447103],[92.5272095,22.9434259],[92.5261331,22.9421146],[92.5264754,22.9408213],[92.5270378,22.9393453],[92.5270987,22.9388245],[92.52647,22.9378028],[92.5254991,22.9368987],[92.5230199,22.9370074],[92.5207346,22.9373001],[92.5184019,22.9370914],[92.5175436,22.9376447],[92.5169956,22.9384265],[92.5161274,22.9429406],[92.5149572,22.9444435],[92.5137563,22.9457367],[92.5129401,22.9468937],[92.5117501,22.9506073],[92.5104626,22.9518324],[92.5088671,22.9521603],[92.5084351,22.9521535],[92.5071222,22.9521022],[92.5057785,22.9527421],[92.5033816,22.955626],[92.5009204,22.9562524],[92.4911507,22.9551518],[92.4892045,22.9538814],[92.488947,22.9502062],[92.489477,22.9433753],[92.4905499,22.9397394],[92.4950989,22.9323487],[92.4954851,22.9312815],[92.4954851,22.9303725],[92.4953234,22.930018],[92.4946697,22.9300563],[92.4928094,22.9311175],[92.4907217,22.9304638],[92.4891616,22.9299713],[92.4879455,22.9302173],[92.4856146,22.9306887],[92.4782181,22.9292994],[92.4723387,22.9288251],[92.4695922,22.9281927],[92.4682339,22.9270918],[92.4679335,22.9247599],[92.4693776,22.9204455],[92.4703367,22.9165382],[92.4699076,22.9142456],[92.4682339,22.9125854],[92.4659594,22.9098578],[92.4652685,22.9091282],[92.4649294,22.9084347],[92.4634274,22.9075255],[92.4632557,22.9067349],[92.4636849,22.9059838],[92.4645003,22.9055094],[92.4660881,22.9051932],[92.4678047,22.9046793],[92.4711951,22.9031375],[92.4719246,22.9023074],[92.4723109,22.9011609],[92.4733258,22.8963715],[92.4730855,22.8945173],[92.4711114,22.8934103],[92.4663907,22.8921452],[92.4636441,22.8904847],[92.4635583,22.8896149],[92.4654294,22.8886226],[92.4673176,22.8865667],[92.467661,22.8853015],[92.467249,22.8845542],[92.4645024,22.882182],[92.4619275,22.8794143],[92.460125,22.8787026],[92.451027,22.8776745],[92.4491387,22.8777536],[92.4484333,22.8784407]]}},{"type":"Feature","properties":{"osm_id":661437160,"group":"khawthlangtuipui","version":2,"timestamp":"2019-01-12T12:07:59Z","tags":{"name":"Khawthlangtuipui","waterway":"river"},"nodes":[5149768415,5149770253,5149770254,5149770264,5149770200,5149768420,5149768413,5149768411,5149768408,5149768403,5149768394,5149768391,5149768397,5149768382,5149768374,5149770206,5149770242,5149768390,5149770219,5149770285,5149770231,5149770272,5149770270,5149770194,5149770275,5149770279,5149768392,5149770260,5149770214,5149770216,5149768398,5149770240,5149768376,5149768378,5149770157,5149770155,5149770152,5149770274,5149770306,5149770289,5149770212,5149770299,5149770213,5149768405,5149770290,5149770296,5149768373,5149770248,5149768416]},"geometry":{"type":"LineString","coordinates":[[92.4484333,22.8784407],[92.4482375,22.8810749],[92.4489241,22.8836844],[92.4505549,22.8891405],[92.4506408,22.8921452],[92.4489241,22.8949918],[92.4470359,22.8968103],[92.4460059,22.8971266],[92.4452334,22.8963359],[92.4443751,22.8949918],[92.4397403,22.8893777],[92.4362212,22.8852659],[92.4348479,22.8852659],[92.4331313,22.8861357],[92.432788,22.8876381],[92.4334746,22.8900103],[92.4334746,22.8912755],[92.4325305,22.8926197],[92.426694,22.8967313],[92.4245482,22.9002893],[92.4197417,22.9106465],[92.4198275,22.9123858],[92.4206859,22.9149156],[92.4207717,22.9169711],[92.4202567,22.9183941],[92.4193984,22.9189475],[92.4180251,22.9183151],[92.4169093,22.9165758],[92.4139911,22.9135717],[92.4125319,22.9134136],[92.4106437,22.9142041],[92.4071246,22.9179198],[92.405408,22.9183941],[92.4039489,22.9178407],[92.4032558,22.9166015],[92.4034339,22.9142041],[92.4028331,22.912702],[92.4016314,22.9115161],[92.4000007,22.9122277],[92.3978549,22.9149156],[92.3972541,22.9183941],[92.4013739,22.924086],[92.3991423,22.9269318],[92.3962241,22.9308052],[92.3933059,22.9309633],[92.3887568,22.9302519],[92.3829203,22.9286709],[92.3781997,22.9291452],[92.3761397,22.92875]]}}]}