{"type":"FeatureCollection","properties":{"licence":"ODbL 1.0 — © OpenStreetMap contributors","system":"padma","fetched":"2026-09-29","snapshot":"2026-09-29T09:49:40Z"},"features":[{"type":"Feature","properties":{"osm_id":26002882,"group":"gorai","version":15,"timestamp":"2022-06-09T00:57:41Z","tags":{"name":"গড়াই-মধুমতি নদী","name:en":"Gorai-Madhumati River","wikidata":"Q5584370","waterway":"river"},"nodes":[964039681,8530858480,8530858479,8530858478,8530858514,283687191,8530858477,8530858476,283687192,283687193,283687194,283687195,6157260451,283687196,283687197,283687198,283687199,283687200,6401864677,6401864678,6401864679,283687201,6401864681,283687202,283687203,283687204,283687206,283687208,6157259868,283687209,283687210,283687211,283687213,283687215,283687216,283687217,283687218,6401865162,283687219,283687220,283687222,283687223,3976301629,283687224,283687225,5314388055,283687226,283687227,283687228,283687229,283687230,283687231,283687232,283687233,283687234,6401865236,283687235,283687236,283687237,283687238,283687239,283687240,5314388108,5314388107,5314388106,5314388105,5314388104,5314388103,5314388102,5314388101,5314388100,5314388099,5314388098,5314388097,5314388096,5314388095,5314388094,5314388093,5314388092,5314388091,5314388090,5314388089,5314387988,5314388088,5314388087,5314388086,5314388085,6433628928,5314388084,5314388083,5314388082,5314388081,5314388080,5314388079,5314388078,5314388077,5314388076,5314388075,5314388074,5314388073,5314388072,5314388071,5314388070,5314388069,6038801140,5314388068,5314388067,5314388066,5314388065,5314388064,5314388063,5314388062,5314388061,5314388060,5314388059,5314388058,5314388057,5314388056]},"geometry":{"type":"LineString","coordinates":[[89.1106236,23.9587015],[89.1117382,23.9556265],[89.112811,23.9527243],[89.1134548,23.9501358],[89.1136801,23.947204],[89.1139698,23.9438604],[89.1137552,23.9405657],[89.1133689,23.9371532],[89.1123306,23.931508],[89.1154205,23.9227211],[89.1188538,23.9189551],[89.1291534,23.9145613],[89.1535085,23.9046359],[89.1576492,23.9029483],[89.174472,23.8969845],[89.1792786,23.8938456],[89.1809952,23.8903926],[89.1816818,23.8772079],[89.1800485,23.8721252],[89.1794482,23.869837],[89.1792437,23.8683846],[89.1791713,23.866455],[89.1791577,23.8618827],[89.1799652,23.8580561],[89.1816818,23.8527183],[89.1864883,23.8495782],[89.1919171,23.8489306],[89.2028391,23.8511679],[89.209349,23.8532515],[89.2239105,23.8568002],[89.229747,23.8568002],[89.2338669,23.8552302],[89.2383301,23.8492642],[89.2426713,23.8454539],[89.2448273,23.8409134],[89.2479431,23.82791],[89.2524063,23.8206864],[89.2561359,23.8155083],[89.2565905,23.8138355],[89.2612692,23.8115789],[89.2690443,23.8093462],[89.2746835,23.8052065],[89.2767284,23.8022089],[89.2781555,23.7993275],[89.2793517,23.7912449],[89.277881,23.7836117],[89.2774689,23.7820493],[89.2726897,23.7754105],[89.2675298,23.7721745],[89.259245,23.7708111],[89.2544662,23.7704245],[89.2482864,23.7675967],[89.2462265,23.7641404],[89.2462265,23.7591129],[89.2494605,23.7558374],[89.2518512,23.7548396],[89.2578995,23.7537709],[89.2640793,23.7503142],[89.2706024,23.7418293],[89.2761724,23.738333],[89.2822754,23.7361724],[89.3017607,23.7354235],[89.3061018,23.7349514],[89.3102645,23.7344799],[89.3124103,23.7322799],[89.3143201,23.728803],[89.3135047,23.7232634],[89.3129253,23.717036],[89.3160581,23.7133426],[89.3211221,23.7085292],[89.3271732,23.7024386],[89.3327951,23.6954046],[89.3374514,23.6901583],[89.344275,23.6858353],[89.3506264,23.6828681],[89.3544245,23.6747325],[89.3556905,23.671431],[89.3581152,23.6695836],[89.3671274,23.6678345],[89.3732857,23.6655941],[89.379766,23.6661837],[89.3908596,23.6713131],[89.3912936,23.671757],[89.396739,23.6773265],[89.4000864,23.6823965],[89.4028115,23.6848135],[89.4070387,23.6857174],[89.4101908,23.6850844],[89.411931,23.6847349],[89.4172954,23.67882],[89.4209862,23.672728],[89.4275307,23.6655155],[89.4377231,23.6619582],[89.4434738,23.6593049],[89.4465208,23.6536837],[89.4432592,23.6499296],[89.438045,23.6478068],[89.4362855,23.6458608],[89.4376802,23.6414971],[89.4417786,23.6383323],[89.447205,23.6364599],[89.4525718,23.6380768],[89.46388,23.6392366],[89.4705534,23.6380571],[89.4716487,23.6376922],[89.4807029,23.634676],[89.4882345,23.6305675],[89.4910455,23.6272648],[89.4941139,23.6222517],[89.494307,23.6209935],[89.4931483,23.6166289],[89.4889855,23.6109862],[89.4808316,23.606582],[89.4728708,23.6033967],[89.4695878,23.5998574],[89.4704461,23.59445],[89.4769907,23.5936831],[89.4884276,23.5939977]]}},{"type":"Feature","properties":{"osm_id":716026823,"group":"arialKhan","version":5,"timestamp":"2026-01-29T08:46:32Z","tags":{"name":"আড়িয়াল খাঁ নদ","name:bn":"আড়িয়াল খাঁ নদ","name:en":"Arial Khan River","waterway":"river"},"nodes":[8426427885,6728781624,6728738112,6728781625,11495578029,13503139866,11495578030,13503139865,13503139864,11495578031,13503139862,11495578032,13503139863,13503139861,11495578033,13503139860,11495578034,13503139859,13503139858,13506114275,11495578035,13503139857,11495578036,13503139856,11495578037,6728806887,6728806888,9433200962,9433197260,6728806889,6728806890,9435750251,6728806891,8413758950,9435750252,9435750250,9435750253,6728806892,9435750254,6728806893,6728806894,9435750255,6728806895,9435750249,6728806896,9435750256,6728756767,6728756768,6728756769,6728756770,6728756771,12345576903,6728756772,9435750257,6728756773,6728756774,9435750258,6728756775,6728756776,6728756777,6728756778,6728756779,6728756780,6728756781,9435750259,6728756782,11639614344,6728756783,9435750260,6728756784,6728775085,11639614345,6728775086,11639614343,11638372017,11638372018,11638372019,11638372020,11638372021,11638372022,11638372023,12357193026,11638372024,11638200254,11638200256,6728775087,6728775088,6728775089,6728775090,11638216575,6728775091,11638216570,11638216576,11638216577,6728775092,11638200268,11649645650,6728775093,11649645651,6728775094,11649645652,6728775095,11649645653,11378285574,11649645654,11378285575,6728775096,6728775097,6728775098,6728775099,6728775100,6728775101,6728775102,6728775103,6728775104,6728775105,12357192985,6728775106,6728775107,6728775108,6728775109,6728775110,13506114277,13506114276,6728775111,13506114278,9432617248,9436508758,9432617249,9432617250,9436508759,9432617251,9432617252,9432617253,9432617254,9432617255,9432617256,9432617257,9432617258,9432617259,9432617260,9432617261,9436508760,9432617262,9432617263,9435750262,9432617264,9432617265,9432617266,9432617267,9432617268,9436508761,9432617269,2475826240,9432617270,9435750269,9432617271,9435750268,9432617272,9432617273,9432617274,9432617275,9436473193,9436473194,9432617276,9435750267,9435750266,9432617277,9447050317,9432617278,9432617279,9432617280,9432617281,9435750265,9435750264,9432617282,9436508762,9432617283,9436473196,9432617284,9432617285,9436473195,9432617286,9435750263,9432617287,9432617288,9432617289,9432617290,9432617291,9432617292,9432617293,9432617294,9432617295,9432617296,9432617297,9432617298,9432617299,9436508763,9432617300,9436550180,9432617301,9432617302,9436550179,9436550178,9436550177,9432617303,9436550176,9432617304,9432617305,9432617306,9432617307,9432617308,9432617309,9432617310,9432617311,9436550175,9432617312,9436550174,9432617313,9432617314,9436550173,9432617315,9432617316,9436550172,9432629617,9432629618,9432629619,9432629620,9436550171,9432629621,9432629622,9432629623,9432629624,9436550170,9432629625,9436550169,9436550168,9432629626,9432629627,9432629628,9436550167,9432629629,9436550166,9436550165,9432629630,9436550164,9432629631,9432629632,9436550163,9432629633,9436550162,9436550161,9436550160,9432629634,9436306903,9436550159,9432629635,9432629636,9432629637,9436550158,9432629638,9436550156,9436550157,9432629639,9436406052,9432629640,9432629641,9432629642,9432629643,9432629644,9432629645,9432629646,9432629647,9432629648,9436550155,9436550154,9432629649,9432629650,9436550153,9432629651,9432629652,9432629653,9436550152,9436550151,9432629654,9436550150,9436550149,9432629655,9436550148,9436550147,9432629656,9436550146,9432629657,9436550145,9432629658,9432629659,9432629660,9432629661,9432629662,9432629663,9432629664,9432629665,9432629666,9432629667,9432629668,9432629669,9432629670,9432629671,9432629672,9436550144,9436550143,9432629673,9436550142,9432629674,9436550141,9436550140,9436550139,9432629675,9432629676,9432629677,9432629678,9436550137,9432629679,9432629680,9436550138,9432629681,9432629682,9436550132,9436550133,9432629683,9436550134,9432629684,9436550135,9432629685,9436550136,9432629686,9435800116,9432629687,9432629688,9432629689,9432629690,9436550131,9436550130,9432629691,9436550129,9432629692,9436550128,9432629693,9436550127,9436550126,9432629694,9436550125,9435805048,9436550124,9436550123,9432629696,9436550122,9436550121,9436550120,9436550119,9432629697,9432629698,9432629699,9432629700,9432629701,9436550118,9432629702,9436550117,9436473216,9436473215,9432629703,9432629704,9432629705,9436473214,9436473213,9436473212,9432629706,9432629707,9432629708,9432629709,9432629710,9432629711,9432629712,9436473211,9435800115,9432629713,9432629714,9436473210,9436473209,9432629715,9436473208,9432629716,9436473207,9432629717,9436473204,9436473206,9432629718,9436473205,9432629719,9432629720,9432629721,9436473203,9436473202,9436473201,9432629722,9436473200,9432629723,9432629724,9436473199,9436473198,9436473197,260530801,13508564535,6752057964]},"geometry":{"type":"LineString","coordinates":[[90.1235103,23.4828497],[90.1089447,23.474356],[90.1085651,23.4733042],[90.1080394,23.4726153],[90.1066178,23.468905],[90.1060545,23.4677339],[90.1053196,23.4667989],[90.1044666,23.4661765],[90.1034099,23.4658787],[90.1015323,23.4658345],[90.0998801,23.4661297],[90.0982279,23.4665627],[90.0969887,23.4671877],[90.096007,23.4678126],[90.0934749,23.4701155],[90.087501,23.4745924],[90.0856429,23.4756264],[90.0846076,23.4759511],[90.0834864,23.4760988],[90.0820149,23.4760992],[90.0812656,23.475961],[90.0801122,23.4757199],[90.0790018,23.4752623],[90.0782296,23.4745808],[90.0778544,23.4739287],[90.0777626,23.4732649],[90.0777197,23.4720249],[90.0778806,23.4711933],[90.0779731,23.4710223],[90.0790485,23.4693171],[90.0819254,23.4651556],[90.0837493,23.462026],[90.0846177,23.4607106],[90.0857401,23.4597703],[90.0864315,23.4589061],[90.0882125,23.457164],[90.0890493,23.4560912],[90.0900935,23.4544446],[90.0910234,23.4521838],[90.0914947,23.4502335],[90.0917963,23.4471843],[90.0919783,23.4442603],[90.0920625,23.4425606],[90.091871,23.4396339],[90.0915022,23.4378235],[90.0905514,23.4353913],[90.0895191,23.4337376],[90.0867319,23.431562],[90.0833416,23.4293274],[90.0793505,23.4267285],[90.0754452,23.4237752],[90.0734319,23.4221372],[90.0727951,23.4216191],[90.0721836,23.4207035],[90.0719154,23.4198864],[90.0718831,23.4191185],[90.0720978,23.4170609],[90.0721407,23.4148851],[90.0716578,23.4089974],[90.0717652,23.4060141],[90.0720548,23.403848],[90.0730634,23.398915],[90.0738144,23.3962564],[90.074941,23.3931743],[90.0757777,23.3919926],[90.0764322,23.3908899],[90.0771189,23.3896688],[90.077945,23.3887727],[90.0786531,23.3878668],[90.0796401,23.3868721],[90.0810456,23.3859761],[90.0830626,23.38443],[90.0845003,23.3836126],[90.0855517,23.3833861],[90.0865602,23.3837012],[90.0872683,23.3838391],[90.0886202,23.3843709],[90.0898433,23.3850405],[90.0912165,23.386045],[90.0923753,23.3876599],[90.0932765,23.3891173],[90.0933909,23.3898415],[90.0934911,23.3904763],[90.0934589,23.3914905],[90.0934052,23.3917564],[90.0932765,23.3923767],[90.0929868,23.3942378],[90.0928259,23.3948778],[90.0924397,23.3962662],[90.0918174,23.3976842],[90.090841,23.3988657],[90.0899935,23.3997519],[90.0891351,23.4004806],[90.0885772,23.4015637],[90.0879698,23.4024595],[90.0879013,23.4037791],[90.0880194,23.4047243],[90.0882265,23.4055199],[90.0885451,23.4062406],[90.0888126,23.4069472],[90.0891888,23.4074319],[90.0897682,23.4078956],[90.0906265,23.408131],[90.091323,23.4081169],[90.0919461,23.4079341],[90.0929051,23.4073415],[90.0938971,23.4059752],[90.0965353,23.4040684],[90.0987373,23.4028601],[90.1022921,23.4011874],[90.1042436,23.4002788],[90.1066713,23.3976609],[90.1087779,23.3951653],[90.1103704,23.3919658],[90.1112823,23.3902944],[90.1119315,23.3879604],[90.1120477,23.3873011],[90.1124856,23.3848053],[90.1131296,23.3832836],[90.1140076,23.3819581],[90.1160885,23.3797394],[90.117167,23.3776142],[90.1174606,23.3762883],[90.1176254,23.3749625],[90.1185023,23.371326],[90.1186835,23.3679509],[90.1192939,23.3641917],[90.1188326,23.3587056],[90.1193046,23.354155],[90.120635,23.3424726],[90.1220512,23.3362665],[90.1238751,23.3297448],[90.1255703,23.3256268],[90.1264286,23.3238534],[90.1284026,23.3205825],[90.132072,23.3150651],[90.1329303,23.3133901],[90.1332736,23.3119516],[90.1333165,23.3106904],[90.1329517,23.3095277],[90.1319647,23.3082074],[90.1302695,23.3069856],[90.1271581,23.3060397],[90.1219654,23.3053302],[90.1173734,23.3042069],[90.1157105,23.3032708],[90.1148629,23.3026402],[90.1137685,23.3014577],[90.112803,23.2989253],[90.1125026,23.294353],[90.112524,23.2897017],[90.1130819,23.2838873],[90.1135647,23.2784374],[90.1139509,23.2754413],[90.1152921,23.2715876],[90.1164937,23.2699121],[90.1180172,23.2685717],[90.1216221,23.266423],[90.1237464,23.2647277],[90.1268577,23.2614554],[90.1302909,23.2566452],[90.1332414,23.2520763],[90.1349258,23.2497056],[90.1375222,23.2466103],[90.1390457,23.2453485],[90.140183,23.2446387],[90.1411056,23.2442247],[90.1422214,23.2440374],[90.1430154,23.2440078],[90.1438523,23.2441063],[90.1452684,23.2445106],[90.1460838,23.2448654],[90.1485514,23.2462554],[90.1507186,23.2473004],[90.1533365,23.2478918],[90.1556539,23.2481284],[90.1651811,23.2481284],[90.1755666,23.2475764],[90.1822185,23.2471623],[90.1865959,23.2464131],[90.1902222,23.2453682],[90.1923895,23.2443627],[90.1942563,23.24316],[90.1962518,23.241425],[90.2013588,23.2364958],[90.2130532,23.2273862],[90.2215504,23.220031],[90.2233529,23.2174871],[90.2242112,23.2153179],[90.2242756,23.2139375],[90.2241468,23.2128923],[90.2234172,23.2116105],[90.218482,23.2076268],[90.2151561,23.2045305],[90.2147054,23.2036825],[90.2143621,23.2025978],[90.2139115,23.1983377],[90.2131605,23.1952412],[90.2116155,23.1910599],[90.2096414,23.1851228],[90.2087885,23.1825389],[90.2087134,23.1821961],[90.2086544,23.1813356],[90.2087724,23.1803346],[90.2089709,23.1795603],[90.2092552,23.1789587],[90.2099955,23.1781302],[90.2114332,23.1769467],[90.2135038,23.1758223],[90.2154994,23.1751319],[90.2179885,23.1746782],[90.2199197,23.1747078],[90.2233958,23.1751023],[90.2267861,23.1763253],[90.2299189,23.1780809],[90.2321505,23.1799746],[90.2341246,23.1828545],[90.236721,23.1876673],[90.2395749,23.1947876],[90.2408409,23.1972727],[90.2420425,23.1989097],[90.2436089,23.2000142],[90.2453255,23.2002903],[90.2465915,23.2001325],[90.2477717,23.1995408],[90.2491879,23.1981405],[90.2500248,23.196543],[90.2503037,23.1948073],[90.2503037,23.1933478],[90.2501321,23.1921841],[90.2497243,23.1912571],[90.2486085,23.1901526],[90.2442741,23.1867994],[90.2427721,23.1852017],[90.2414632,23.1832687],[90.2407551,23.1817696],[90.2399826,23.179876],[90.2393174,23.1776667],[90.2383947,23.1746092],[90.2376866,23.1718869],[90.237472,23.1695789],[90.2373862,23.1665409],[90.2376008,23.1639566],[90.237987,23.162181],[90.2388024,23.1596361],[90.2406049,23.1556509],[90.2444887,23.1499293],[90.2487588,23.144543],[90.2496171,23.1433986],[90.250175,23.1423923],[90.2505827,23.141465],[90.251162,23.1394721],[90.251677,23.1358217],[90.2519399,23.1315645],[90.2519399,23.1313869],[90.2524495,23.1268631],[90.2526533,23.1260146],[90.2530074,23.1253535],[90.2536833,23.1247418],[90.2544987,23.124357],[90.2557754,23.124209],[90.2570951,23.1241892],[90.2588868,23.1242583],[90.2616441,23.1246135],[90.2633929,23.1248306],[90.2666223,23.1255607],[90.2712679,23.1267842],[90.2782416,23.1290338],[90.2801728,23.1295074],[90.2816534,23.1295666],[90.2826619,23.1293298],[90.2832198,23.1288562],[90.2837133,23.1280274],[90.2842927,23.1265671],[90.2860951,23.121614],[90.2874255,23.1188906],[90.2891206,23.1161278],[90.2928543,23.1112729],[90.2956223,23.1086678],[90.2983475,23.1069508],[90.3006434,23.1060429],[90.3024244,23.1058061],[90.3041625,23.1059442],[90.3067589,23.1065758],[90.3096771,23.1071284],[90.3124666,23.1076218],[90.3186464,23.1083915],[90.325073,23.1090723],[90.3275835,23.1090724],[90.3309202,23.108806],[90.3325295,23.1083718],[90.3336453,23.10776],[90.3344822,23.1066547],[90.3348255,23.1055298],[90.3348899,23.1045035],[90.3345465,23.1030824],[90.3337097,23.1015429],[90.3329801,23.1004377],[90.331006,23.0981876],[90.3268647,23.0941611],[90.3206849,23.0891081],[90.3119302,23.0815084],[90.3104925,23.0798897],[90.3098917,23.0788435],[90.3095698,23.0779354],[90.3094411,23.0771063],[90.3096127,23.0760601],[90.3101921,23.0749546],[90.3112221,23.0743426],[90.3125739,23.0740465],[90.3157925,23.0738491],[90.3180671,23.073553],[90.321157,23.0726251],[90.3263926,23.0706905],[90.3287744,23.0696442],[90.3303838,23.0685386],[90.3314996,23.0671764],[90.3321862,23.0658537],[90.3325295,23.0637413],[90.3323364,23.0614709],[90.3317785,23.0594373],[90.3307056,23.0579763],[90.3291821,23.0569102],[90.327208,23.0562191],[90.3251052,23.0560809],[90.3230238,23.0563179],[90.3214144,23.0568312],[90.3181314,23.0583909],[90.31605,23.0591807],[90.3139043,23.0599901],[90.310235,23.061076],[90.3083467,23.0614116],[90.3063297,23.0615103],[90.3043985,23.0612339],[90.3024673,23.0607404],[90.29603,23.0585291],[90.2908802,23.0565745],[90.2882409,23.0553307],[90.2860951,23.0538696],[90.283606,23.0516978],[90.2825761,23.0503157],[90.282104,23.0492889],[90.2819109,23.0479266],[90.2820182,23.046268],[90.2829408,23.0436418],[90.2842712,23.0413514],[90.2856231,23.0399099],[90.2876615,23.0382512],[90.2892709,23.0377576],[90.2904296,23.0376588],[90.2917814,23.0377773],[90.2933478,23.0382315],[90.2956036,23.0390312],[90.3005147,23.040443],[90.30236,23.0412921],[90.3038621,23.0423781],[90.3049135,23.0439183],[90.305922,23.0464062],[90.3066945,23.0490323],[90.3071451,23.0499208],[90.3081751,23.0510265],[90.3093982,23.051599],[90.3107929,23.0517373],[90.3119516,23.0516188],[90.3129601,23.0511647],[90.3140545,23.0503551],[90.3172087,23.0456954],[90.3184318,23.0441355],[90.3201484,23.0427138],[90.3223157,23.0413908],[90.3251481,23.0399099],[90.3287101,23.0381327],[90.3321862,23.0359606],[90.334804,23.033749],[90.3359413,23.032268],[90.3366494,23.0309054],[90.3371429,23.0295033],[90.3372717,23.0286542],[90.3370356,23.0279038],[90.336349,23.0271731],[90.3353405,23.0265807],[90.3326368,23.025455],[90.3276157,23.0239048],[90.3251159,23.0229865],[90.3235388,23.0222953],[90.3202987,23.0204981],[90.3191399,23.0196292],[90.3169727,23.0176938],[90.3157067,23.0162521],[90.3146553,23.0144351],[90.311737,23.007483],[90.3086686,23.000728],[90.3076172,22.9973307],[90.3068876,22.9932024],[90.3068018,22.9916024],[90.3069091,22.9898839],[90.3072309,22.9888765],[90.3075957,22.9882641],[90.3083467,22.987869],[90.3095913,22.9877307],[90.3111362,22.9880073],[90.318346,22.9909901],[90.321629,22.992274],[90.3243971,22.9929851],[90.3270364,22.9934394],[90.3289783,22.9935382],[90.3306627,22.9934592],[90.3316927,22.9932419],[90.3326905,22.9927382],[90.3336346,22.9919481],[90.3350401,22.990516],[90.3369391,22.9882246],[90.3381322,22.9867366],[90.3394111,22.9850313]]}},{"type":"Feature","properties":{"osm_id":1472200998,"group":"arialKhan","version":1,"timestamp":"2026-01-29T08:46:32Z","tags":{"name":"আড়িয়াল খাঁ নদ","name:bn":"আড়িয়াল খাঁ নদ","name:en":"Arial Khan River","waterway":"river"},"nodes":[6752057964,13508564533,6752057963,6752057962,6752054297,6752057961,6752057960,6752057959,6752057958,6752057957,6752057956,6752057955,6752057954,6752057953,6752057952,6752057951,6752057950,6752057949,6752057948,6752057947,6752057946,6752057945,6752057944,6752057943,6752057942,6752057941,6752057940,6752057939,6752057938,6752057937,6752057936,6752057935,6752057934,6752057933,6752057932,6752057931,6752057930,6752057929,6752057928,6752057927,6752057926,6752057925,6752057924,6752057923,6752057922,6752057921,6752057920,6752057919,6752057918,6752057917,6752057916,6752057915,6752057914,6752057913,6752057912,6752054296,6752057911,6752057910,6752057909,6752057908,6752057907,6752057906,6752057905,6752057904,6752057903,6752057902,6752057901,6752057900,6752057899,6752057898,6752057897,6752057896,6752057895,6752057894,6752057893,6752054354]},"geometry":{"type":"LineString","coordinates":[[90.3394111,22.9850313],[90.3396862,22.9826232],[90.3399185,22.979899],[90.3401192,22.9724976],[90.3407993,22.9703686],[90.3421606,22.9661071],[90.3478255,22.9595283],[90.3526484,22.9558394],[90.3555064,22.954547],[90.3577009,22.9541711],[90.3598699,22.9541006],[90.3627023,22.9543591],[90.3673465,22.9568027],[90.3714804,22.9589644],[90.3748232,22.9618779],[90.3825231,22.9640514],[90.3862401,22.9648821],[90.3892714,22.9648821],[90.3922306,22.9637523],[90.3945763,22.9630213],[90.3969941,22.961958],[90.3996277,22.960784],[90.3998852,22.9599838],[90.4000461,22.9592034],[90.3993273,22.9550344],[90.3988981,22.9520311],[90.3993058,22.9498379],[90.399412,22.9437147],[90.3993759,22.9381315],[90.3982179,22.9327243],[90.397702,22.9314527],[90.3963516,22.9278334],[90.3959875,22.9269251],[90.3954109,22.924829],[90.3951985,22.9234315],[90.3944861,22.9202007],[90.3939989,22.918788],[90.39362,22.9166774],[90.3929704,22.9148326],[90.3929524,22.9139019],[90.3928802,22.9126554],[90.3918337,22.9102621],[90.3912563,22.9093147],[90.3904262,22.9065391],[90.3875934,22.9053756],[90.3844177,22.9049435],[90.3813864,22.9047773],[90.3797263,22.9055917],[90.3777776,22.9086333],[90.3761537,22.9112759],[90.3748365,22.913021],[90.3735013,22.9145999],[90.3727976,22.9150985],[90.3710112,22.9161954],[90.3695678,22.917043],[90.3676736,22.9178351],[90.3662297,22.918439],[90.3646057,22.9188711],[90.3608527,22.9188711],[90.3583807,22.9179571],[90.3554576,22.9170596],[90.3530037,22.9152148],[90.3526247,22.9134864],[90.3520113,22.9111429],[90.351903,22.9089491],[90.3520615,22.9055469],[90.3523294,22.9021386],[90.3528525,22.900975],[90.3531332,22.8988124],[90.353516,22.8965675],[90.3540136,22.8942521],[90.3540774,22.8932647],[90.3552103,22.8887088],[90.3549528,22.8819084],[90.3543949,22.8777173],[90.3538019,22.8741663]]}},{"type":"Feature","properties":{"osm_id":631200493,"group":"arialKhan","version":8,"timestamp":"2022-10-21T19:17:21Z","tags":{"name":"আড়িয়াল খাঁ","waterway":"river"},"nodes":[5960758919,5960758920,5960758921,5960758922,5960758923,5960758924,5960758925,5960758926,5960758918,5960758927,6024245793,5960628348,5960758928,6024245794,6024245795,5968273922,5960696914,5968273920,5960696428,5968274005,5960696429,5960696915,5960758938,5960758937,5960758939,5960758940,5963379328,5968187814,5960758941,5968178959,5960758942,5968178590,5968178591,5960758943,5960758944,5960758945,5960758946]},"geometry":{"type":"LineString","coordinates":[[90.3484296,22.8147558],[90.3469276,22.8119077],[90.3474426,22.8074375],[90.3504681,22.8033034],[90.354073,22.8002373],[90.3591156,22.7972108],[90.3674412,22.7951338],[90.3792643,22.7929182],[90.3810616,22.7924417],[90.3858304,22.7911773],[90.3878011,22.7902467],[90.3887244,22.7897472],[90.3895922,22.7892778],[90.3908283,22.788182],[90.3919651,22.7870475],[90.3938752,22.7847353],[90.3940916,22.7844908],[90.3946984,22.7831869],[90.3969236,22.7784057],[90.3970401,22.7781553],[90.3973272,22.7775385],[90.3990268,22.7738865],[90.3993702,22.7717497],[90.4000568,22.7701471],[90.400368,22.7696525],[90.4020095,22.7662098],[90.4033367,22.7638466],[90.4045458,22.7618449],[90.4054322,22.7604579],[90.4090518,22.7553775],[90.4094016,22.7549313],[90.4118154,22.7517913],[90.4123542,22.7508303],[90.4138178,22.7487155],[90.4150424,22.7479483],[90.4171908,22.7474217],[90.4200339,22.746363]]}},{"type":"Feature","properties":{"osm_id":69233359,"group":"mahananda","version":14,"timestamp":"2025-06-30T19:31:59Z","tags":{"name":"Mahananda River","waterway":"river"},"nodes":[4092714205,4092714198,4092714196,4092714192,5284378371,4092713985,4092713977,5284378831,4092713975,4092713974,4092713972,4092713970,5284378830,4092713964,5284378829,4092713955,4092713950,830039288,4092713948,4092713947,5284378828,4092713946,830039340,5284378827,830039227,5284378826,4092713945,5284378825,4092713944,830039357,5284378824,4092713943,5284378823,830039338,5284378822,830039314,4092713942,830039323,4092713941,830039308,5284378370,830039287,4092713940,830039253,5284378369,5284378368,5284378367,830039279,5284378366,5284378365,5284378364,830039243,5578751555,830039366,830039342,830039355,830039334,830039312,830039298,830039302,4953438122,12116742663,12116742662,12116742661,12116742660,12116742659,12116742658,12116742657,12116742656,12116742655,12116742654,12116742653,12116742652,12116742651,12116742650,12116742649,12116742648,12116742647,12116742646,12116742645,12116742644,12116742643,12116742642,12116742641,12116742640,12116742639,12116742638,12116742637,12116742636,12116742635,12116742634,12116742633,12116742632,12116742631,12116742630,12116742629,12116742628,12116742627,12116742626,12116742625,12116742624,12116742623,12116742622,12116742621,12116742620,12116742619,12116742618,12116742617,12116742616,12116742615,12116742614,12116742613,12116742612,12116742611,12116742610,12116742609,12116742608,12116742607,12116742606,12116742605,12116742604,12116742603,12116742602,12116742601,12116742600,12116742599,12116742598,12116742597,12116742596,12116742595,12116742579,12116742594,12116742587,12116742593,12116742592,12116742591,12116742590,12116742589,12116742580,12116742588,12116742664,12116742665,12113119919,12113119918,12113119917,12113119916,692840173,4199372757,12965023188,12965023187,12965023186,12965023185,12965023184,12965023183,12965023182,12965023181,12965023180,12965023179,12965023178,12965023177,12965023176,12965023175,12965023174,12965023173,12965023172,12965023171,12965023170,12965023169,12965023168,12965023167,12965023166,12965023165,12965023164,12965023163,12965023162,12965023161,12965023160,12965023159,12965023158,12965023157,12965023156,12965023155,12965023154,12965023153,12965023152,12965023151,12965023150,12965023149,12965023148,12965023147,12965023146,12965023145,12965023144,12965023143,12965023142,12965023141,12965023140,12965023139,12965023138,12965023137,12965023136,12965023135,12965023134,12965023133,12965023132,12965023131,12965023130,12965023129,12965023128,12965023127,12965023126,12965023125,12965023124,12965023123,12965023122,12965023121,12965023120,12965023119,12965023118,12965023117,12965023116,12965023115,12965023114,12965023113,12965023112,12965023111,12965023110,12965023109,12965023108,12965023107,12965023106,12965023105,12965009336,12965023104,12965023103,12965023102,12965023101,12965023100,12965023099,12965023098,12965023097,12965023096,12965023095,12965023094,12965023093,12965023092,12965023091,12965023090,12965023089,12965023088,12965023087,12965023086,12965023085,12965023084,12965023083,12965023082,12965021069,12965023081,12965023080,12965023079,12965023078,12965023077,12965023076,12965023075,12965023074,12965023073,12965023072,12965023071,12965023070,12965023069,12965023068,12965023067,12965023066,12965023065,12965023064,12965023063,12965021068,12965023062,12965023061,12965023060,12965023059,12965023058,12965023057,12965023056,12965023055,12965023054,12965023053,12965023052,12965023051,12965023050,12965023049,12965023048,12965023047,12965023046,12965023045,12965023044,12965023043,12965023042,12965023041,12965023040,12965023039,12965023038,12965023037,12965023036,12965023035,12965023034,12965023033,12965023032,12965023031,12965023030,12965023029,12965023028,12965023027,12965023026,12965023025,12965023024,12965023023,12965023022,12965023021,12965023020,12965023019,12965023018,12965023017,12965023016,12965023015,12965023014,12965023013,12965023012,12965023011,12965023010,12965023009,12965023008,12965023007,12965023006,12965023005,12965021053,12965023004,12965023003,12965023002,12965023001,12965023000,12965022995,12965022999,12965022996,12965022998,12965022997,12965022994,12965022993,12965022992,12965022991,12965022990,12965022989,12965022988,12965022987,12965022986,12965022985,12965022984,12965022983,12965022982,12965022981,12965022980,12965022979,12965022978,12965022977,12965022976,12965022975,12965022974,12965022973,12965022972,12965022971,12965022970,12965022969,12965022968,12965022967,12965022966,12965022965,12965022964,12965022963,12965022962,12965022961,12965022960,12965022959,12965022940,12965022958,12965022957,12965022956,12965022955,12965022954,12965022953,12965022952,12965022951,12965022950,12965022949,12965022948,12965022947,12965022946,306460248,12965021052,12965021051,12965021050,12965021049,12965021048,12965021047,12965021046,12965021045,12965021044,12965021043,12965021042,12965021041,12965021040,12965021039,12965021038,12965021037,12965021036,12965021035,12965021034,12965021033,12965021032,12965021031,12965021030,12965021029,12965021028,12965021027,12965021026,12965021025,12965021024,12965021023,12965021022,12965021021,12965021020,12965021019,12965021018,12965021017,12965021016,12965021015,12965021014,12965021013,12965021012,12965021011,12965021010,12965020988,12965021009,12965021008,1313570177,12965021007,12965001853,12965001852,12965021006,12965021005,12965021004,12965021003,12965021002,12965021001,12965021000,12965020999,12965020998,12965020997,12965020996,12965020995,12965020994,12965020993,12965020992,12965020991,5574704062]},"geometry":{"type":"LineString","coordinates":[[88.3622289,26.8666193],[88.3619875,26.8661838],[88.3616925,26.8657819],[88.361274,26.865509],[88.3610308,26.8652858],[88.3609843,26.8648295],[88.3610327,26.8644419],[88.3610845,26.8641181],[88.3608717,26.8635279],[88.3612311,26.863145],[88.3620465,26.8626569],[88.362599,26.8623267],[88.3628601,26.8619933],[88.3630658,26.8615898],[88.3632517,26.8609405],[88.3635432,26.8601827],[88.3639079,26.8595558],[88.3653104,26.8580436],[88.3655871,26.8572587],[88.3657051,26.8565073],[88.3660734,26.8559202],[88.3667887,26.8553922],[88.367296,26.8549943],[88.3673125,26.854384],[88.3670823,26.8537274],[88.3668351,26.8531923],[88.3669228,26.8529036],[88.3671409,26.8526467],[88.3677703,26.8523819],[88.3681451,26.8521015],[88.368203,26.8517373],[88.3679635,26.8507067],[88.3678812,26.8500766],[88.3679429,26.8496045],[88.3683747,26.8490189],[88.3692993,26.8486015],[88.3698142,26.8480313],[88.3724199,26.8465332],[88.3726627,26.8461072],[88.3728905,26.8448231],[88.3733475,26.8443092],[88.3738875,26.843926],[88.3750767,26.8436615],[88.3755651,26.8435274],[88.3760297,26.8431557],[88.3763248,26.8423229],[88.3762926,26.8416145],[88.3761321,26.840864],[88.3771241,26.8398004],[88.3775586,26.8389197],[88.378787,26.8380533],[88.3800543,26.8377835],[88.3817115,26.8368963],[88.3845337,26.8353854],[88.3853046,26.833749],[88.3873492,26.8285332],[88.3940042,26.8200817],[88.3986116,26.8151704],[88.4052666,26.8104874],[88.4087714,26.8070462],[88.4094692,26.8065293],[88.4095801,26.8063712],[88.4251785,26.7948461],[88.4275818,26.7925811],[88.4280753,26.7925524],[88.4284347,26.7925212],[88.4287888,26.7924278],[88.4290919,26.7922435],[88.4293869,26.7920424],[88.4297088,26.7919083],[88.4298536,26.79187],[88.4301299,26.7917096],[88.4303498,26.7915276],[88.4305617,26.7913696],[88.4310123,26.7911038],[88.4314066,26.7907375],[88.4317687,26.7902945],[88.4321523,26.7900288],[88.4325144,26.7897175],[88.4327665,26.7894302],[88.4332573,26.7890591],[88.4335953,26.7888843],[88.433944,26.7887813],[88.4341049,26.788688],[88.4344643,26.7882642],[88.4346038,26.7880199],[88.4347245,26.7877542],[88.4348828,26.7872968],[88.4350464,26.7870622],[88.4354433,26.7867437],[88.4356955,26.786557],[88.4359583,26.7864133],[88.4361005,26.786284],[88.4362051,26.7861212],[88.4362856,26.7859512],[88.4362963,26.785841],[88.4362802,26.7857501],[88.4362614,26.7856327],[88.4361058,26.7852568],[88.4359905,26.7850174],[88.4359503,26.7848665],[88.435953,26.7847396],[88.4360415,26.7844906],[88.4362131,26.784311],[88.4364545,26.7841865],[88.4366074,26.7841506],[88.4367818,26.7841721],[88.4369776,26.78422],[88.4372136,26.7842583],[88.4374523,26.7842296],[88.4377098,26.7841242],[88.4379539,26.783983],[88.4382087,26.783698],[88.4386513,26.7833125],[88.4388122,26.7830946],[88.4389476,26.7829534],[88.4390496,26.7827881],[88.439126,26.782575],[88.4391823,26.7823284],[88.4392253,26.7821177],[88.4392843,26.7820171],[88.4393781,26.7819405],[88.4396437,26.7818327],[88.4397376,26.7817825],[88.4398395,26.7816603],[88.4399106,26.7815023],[88.4399495,26.7813527],[88.4399575,26.7812317],[88.4399427,26.7811228],[88.4398073,26.7805277],[88.4398056,26.7805227],[88.4397134,26.7802524],[88.4396768,26.7801968],[88.4395444,26.7799962],[88.4394854,26.7798381],[88.4395123,26.7796873],[88.4396356,26.7795412],[88.4397671,26.7794861],[88.439813,26.7794662],[88.4401265,26.7793305],[88.440274,26.7792539],[88.4404403,26.7791186],[88.4405033,26.7790455],[88.4405516,26.7789306],[88.440569,26.7788085],[88.4406213,26.7786433],[88.4406562,26.7784887],[88.440664,26.7783689],[88.4407783,26.7781524],[88.4408963,26.7780135],[88.441202,26.7777884],[88.44154,26.7775537],[88.4417385,26.777343],[88.4418726,26.7771371],[88.4419584,26.7768928],[88.4420228,26.7766055],[88.4420174,26.7762894],[88.4419262,26.7757769],[88.4417278,26.7752789],[88.4413415,26.7746227],[88.4411216,26.7740097],[88.440966,26.7736553],[88.4408373,26.7733584],[88.4407836,26.7732242],[88.4407783,26.7730806],[88.4408212,26.7729225],[88.4408534,26.772798],[88.4408909,26.7726543],[88.4409124,26.7724675],[88.4409016,26.7723239],[88.4408051,26.7720892],[88.4406871,26.7718497],[88.4405369,26.7716533],[88.4403223,26.771548],[88.4401238,26.7715097],[88.4398931,26.7714666],[88.4397,26.7714402],[88.4395015,26.7713708],[88.4393835,26.7712774],[88.4393245,26.7711912],[88.4393406,26.7711049],[88.4393808,26.7710163],[88.4394962,26.7708846],[88.4396946,26.7706404],[88.439877,26.7703458],[88.4400004,26.7700441],[88.4400648,26.7698094],[88.4401023,26.7695939],[88.4400326,26.7693927],[88.4398878,26.7691053],[88.4395176,26.7685067],[88.4393191,26.7681427],[88.4392333,26.7678361],[88.4390938,26.7674338],[88.4389543,26.7672326],[88.4387827,26.7670937],[88.4385842,26.766974],[88.4384447,26.7668782],[88.4383857,26.7667489],[88.4383696,26.7665812],[88.4384018,26.7663897],[88.4384555,26.766131],[88.4385896,26.7658676],[88.4386861,26.7656616],[88.4387934,26.7654844],[88.4389436,26.7653647],[88.4391367,26.7652018],[88.4392065,26.7651108],[88.4392574,26.7650055],[88.4392762,26.7648689],[88.4392655,26.7647253],[88.4392306,26.7645552],[88.4391421,26.7644115],[88.4390053,26.7643253],[88.4387881,26.7642104],[88.4380424,26.7637506],[88.4377795,26.7635781],[88.4375811,26.7634392],[88.4373504,26.7633147],[88.4370768,26.7632476],[88.4364545,26.7631854],[88.4359717,26.7630944],[88.4357303,26.7630273],[88.4355426,26.7629459],[88.4353709,26.7628357],[88.4352636,26.7626537],[88.4349471,26.7620693],[88.4345609,26.7614898],[88.4341639,26.7609868],[88.433944,26.7606755],[88.4335417,26.7602827],[88.4332573,26.7600911],[88.4332084,26.7600642],[88.4331179,26.7600145],[88.4329998,26.7598948],[88.4329301,26.759775],[88.4328818,26.7596121],[88.4329033,26.7594397],[88.4329408,26.7592194],[88.432973,26.7585536],[88.4329516,26.7579884],[88.4330106,26.7574231],[88.4329998,26.7568531],[88.4330428,26.756331],[88.4331071,26.7558808],[88.4331393,26.7554496],[88.4331393,26.7549419],[88.4330428,26.7545108],[88.4327853,26.753821],[88.4324634,26.7533228],[88.4319913,26.7527288],[88.431412,26.7522307],[88.4309077,26.7518474],[88.4305,26.7516079],[88.4301084,26.751263],[88.4297597,26.7507984],[88.4294912,26.7503777],[88.4294325,26.7502858],[88.4290516,26.7495337],[88.4289068,26.7490739],[88.4287298,26.7487242],[88.4284615,26.7482882],[88.428129,26.7478523],[88.4277052,26.7474739],[88.4271687,26.7471146],[88.4265518,26.7466643],[88.4259242,26.7461134],[88.4251946,26.7454188],[88.4247547,26.7449589],[88.4244704,26.7445086],[88.4243256,26.7441589],[88.424111,26.7437564],[88.4236282,26.7431145],[88.4233385,26.7426163],[88.4231561,26.7421995],[88.4228182,26.7414234],[88.4226833,26.7410821],[88.4225553,26.7407024],[88.4224936,26.7404102],[88.4224749,26.7402593],[88.4224829,26.740082],[88.4225446,26.7397347],[88.422727,26.7393059],[88.4230167,26.7384675],[88.4232151,26.7377729],[88.4232956,26.7374231],[88.4233546,26.736992],[88.4233868,26.736556],[88.4233868,26.7362063],[88.4233868,26.7357367],[88.4234512,26.7353822],[88.4236067,26.7349798],[88.423875,26.7344815],[88.4241646,26.7340791],[88.4245884,26.7336623],[88.4249586,26.7333748],[88.4254092,26.7330921],[88.4257364,26.7328861],[88.4259456,26.7326897],[88.4260958,26.7324885],[88.4261656,26.7323016],[88.4261763,26.7322249],[88.4261441,26.7320525],[88.4260046,26.7315063],[88.4257203,26.7306678],[88.425495,26.730251],[88.4253126,26.7299444],[88.4246153,26.7288041],[88.42417,26.7282627],[88.423757,26.7277835],[88.423242,26.7272757],[88.4228665,26.7268732],[88.4225661,26.7264659],[88.4223837,26.7261401],[88.4221959,26.725661],[88.4221047,26.7250669],[88.4220886,26.7244153],[88.422094,26.7238834],[88.4219974,26.7229107],[88.4218955,26.7220674],[88.421815,26.7216218],[88.4216863,26.7210756],[88.4215254,26.720606],[88.421343,26.7202946],[88.4211874,26.720146],[88.4210694,26.7200598],[88.4208816,26.7199831],[88.4205759,26.7199065],[88.4202754,26.7198729],[88.4199321,26.7198633],[88.4193957,26.7198106],[88.41887,26.7195854],[88.4184033,26.7192548],[88.4178561,26.7190344],[88.4174216,26.7189002],[88.4172639,26.7188231],[88.416971,26.7186798],[88.4164882,26.718469],[88.4155118,26.7181],[88.4149432,26.7178461],[88.4139401,26.7173525],[88.4134197,26.7170315],[88.4129584,26.7166865],[88.4124434,26.7162217],[88.4120142,26.7157665],[88.4115905,26.7151915],[88.4114134,26.71488],[88.411333,26.7145877],[88.41129,26.7141612],[88.411274,26.7134952],[88.4112847,26.7130974],[88.4112954,26.7126757],[88.411274,26.7123451],[88.4109199,26.7098197],[88.4105229,26.7084588],[88.4101689,26.7074141],[88.4099811,26.7069158],[88.409788,26.7064605],[88.409729,26.7061873],[88.4096807,26.7057848],[88.4096593,26.7051522],[88.4096432,26.7047018],[88.409611,26.7040596],[88.4095305,26.7036666],[88.4094232,26.7032641],[88.4092194,26.7027897],[88.4090316,26.7025692],[88.4087902,26.7023823],[88.4085864,26.7022098],[88.4083021,26.7018456],[88.4080982,26.7015149],[88.4078139,26.7010261],[88.4076047,26.700427],[88.4074223,26.6997657],[88.4073579,26.6993919],[88.4073472,26.6990899],[88.4073633,26.6984142],[88.407433,26.6978008],[88.4075671,26.6971346],[88.4077227,26.6966937],[88.4078085,26.6960179],[88.4078836,26.6953278],[88.4078421,26.6951159],[88.4078085,26.6949444],[88.407551,26.694446],[88.4073043,26.6939379],[88.4071219,26.6935354],[88.4069502,26.6929986],[88.4067464,26.6924426],[88.4065694,26.6918962],[88.406328,26.6912636],[88.4061617,26.6907747],[88.4059149,26.6903242],[88.4056199,26.6899839],[88.4054482,26.689658],[88.4052765,26.68915],[88.4052543,26.6887181],[88.405416,26.688316],[88.4056467,26.6878127],[88.4059524,26.6873334],[88.4061831,26.6871417],[88.4068215,26.6867199],[88.4076583,26.6860777],[88.4087098,26.685282],[88.4095091,26.6844385],[88.4102225,26.6836428],[88.4109306,26.6830676],[88.4115851,26.6824637],[88.4121537,26.6819077],[88.4124434,26.6815722],[88.4126472,26.6812942],[88.4127438,26.6809682],[88.4128189,26.6803355],[88.4127974,26.6797795],[88.4126687,26.6788208],[88.4127116,26.6783415],[88.4129906,26.6771815],[88.4132588,26.6761461],[88.4135485,26.6747656],[88.4135806,26.674037],[88.4132051,26.6723114],[88.4129262,26.6709691],[88.4124326,26.6697228],[88.4119606,26.6691955],[88.4114349,26.668764],[88.4101796,26.6677478],[88.4093213,26.6669712],[88.4085703,26.6661275],[88.4076905,26.664929],[88.4068537,26.6637976],[88.4063601,26.6628772],[88.4053087,26.661113],[88.404386,26.6601734],[88.4036779,26.6592912],[88.4030556,26.6581982],[88.4022832,26.6565873],[88.4017467,26.654823],[88.4012532,26.6527327],[88.4010386,26.6513135],[88.4009957,26.649856],[88.4009957,26.648269],[88.4009957,26.6476505],[88.4009957,26.6463847],[88.4008726,26.6455986],[88.4008455,26.6454258],[88.400768,26.6451765],[88.4006814,26.6448977],[88.4005236,26.6443901],[88.4004485,26.6436613],[88.4005773,26.6431339],[88.4007811,26.6427311],[88.4012318,26.6423283],[88.4016502,26.6420886],[88.4022939,26.6418872],[88.4028947,26.641705],[88.4037852,26.6414461],[88.4048474,26.6410625],[88.4058666,26.6406981],[88.4068107,26.6403912],[88.4073579,26.6401323],[88.4079051,26.6397007],[88.408286,26.6390726],[88.408463,26.6386698],[88.4085304,26.6382774]]}},{"type":"Feature","properties":{"osm_id":546192374,"group":"mahananda","version":9,"timestamp":"2021-06-25T19:40:39Z","tags":{"name":"Mahananda River","waterway":"river"},"nodes":[5574704062,5278244609,5278244610,5278244608,5278244607,5278244605,5278244606,5574704063,5574704064,5574704065,5574704066,5574704067,5574704068,5574704069,5574704070,5574704071,5574704072,5574704073,8866653710,8866653709,5574704074,4911675723,5574704075,8866653714,5574704076,5574704077,5574704078,5574704079,5574704080,5574704081,5574704082,5574704083,5574704084,5574704090,5574704091,5574704092,5574704093,5574704094,5574704095,5574704096,5574704097,5574704098,5574704099,5574704100,5574704101,5574704102,5574704103,5574704104,5574704105,5574704106,5574704107,5574704108,5574704109,5574704110,5574704111,5574704112,5574704113,5574704114,5279499093,4911344298,5279556881,5279556880,5279556879,5427592325,5427592326,5279556861,5427549887,5427549886,5427549885,5427549890,5427549891,5427549883,5427549882,5279556847,5427549881,5574704061,5574704060,5574704059,5574704335,5574704336,5280708695,5280708689,5280708690,5280708691,5280708661,5280708688,5574704352]},"geometry":{"type":"LineString","coordinates":[[88.4085304,26.6382774],[88.4099822,26.6343309],[88.4097544,26.632349],[88.4076803,26.6301361],[88.4034777,26.6283404],[88.4018244,26.6278911],[88.3994375,26.6274927],[88.3981869,26.6264607],[88.3976096,26.6255449],[88.3973527,26.6246986],[88.3972161,26.6235402],[88.3972435,26.6222021],[88.3971385,26.6214613],[88.3969137,26.620701],[88.397024,26.6199961],[88.3974189,26.6192451],[88.3973108,26.618505],[88.3966227,26.6174524],[88.3959224,26.6166903],[88.3950163,26.6159257],[88.3926569,26.6149822],[88.3910346,26.614627],[88.3899721,26.6146853],[88.3889562,26.6144784],[88.3882904,26.6139874],[88.3875694,26.6131274],[88.3869148,26.6115121],[88.3866994,26.6095941],[88.387,26.6078051],[88.3874934,26.6067691],[88.3884562,26.6059692],[88.3911575,26.6057378],[88.3930081,26.605263],[88.3937272,26.604699],[88.3940781,26.6040409],[88.3943416,26.603059],[88.3941021,26.6016882],[88.3931785,26.6008252],[88.3915897,26.6006444],[88.3884207,26.6008216],[88.3851937,26.6006786],[88.3809938,26.5988743],[88.3794941,26.5968777],[88.3793847,26.5962406],[88.379069,26.594968],[88.3785554,26.592866],[88.3783639,26.5926093],[88.3779328,26.5919504],[88.3767818,26.5902152],[88.3769825,26.5888739],[88.3764562,26.5876496],[88.3764181,26.5875606],[88.3763444,26.5874024],[88.3758805,26.5863076],[88.3743111,26.5847044],[88.3739094,26.5830931],[88.373778,26.5810056],[88.3732034,26.5793217],[88.3721248,26.5776471],[88.3694851,26.5759197],[88.3684868,26.5747249],[88.3684375,26.5732496],[88.3692041,26.5714642],[88.37148,26.5685413],[88.3714458,26.5672141],[88.37147,26.5656091],[88.3717328,26.5634932],[88.3711427,26.5626775],[88.3707619,26.5621737],[88.3704442,26.561479],[88.369748,26.5602399],[88.3691794,26.5587813],[88.3687019,26.5579224],[88.3681341,26.5569724],[88.3680367,26.5559022],[88.3671516,26.5549714],[88.3650166,26.5533446],[88.363477,26.5526873],[88.3596677,26.5494341],[88.3589803,26.5488591],[88.3584116,26.5481856],[88.3572308,26.5462853],[88.3563902,26.5442985],[88.3560979,26.5421254],[88.3561307,26.5414199],[88.3563364,26.5396988],[88.3574635,26.5376306]]}},{"type":"Feature","properties":{"osm_id":583039974,"group":"mahananda","version":1,"timestamp":"2018-04-23T21:34:38Z","tags":{"name":"Mahananda River","waterway":"river"},"nodes":[5574704352,5574704351]},"geometry":{"type":"LineString","coordinates":[[88.3574635,26.5376306],[88.3571004,26.53416]]}},{"type":"Feature","properties":{"osm_id":583039973,"group":"mahananda","version":1,"timestamp":"2018-04-23T21:34:38Z","tags":{"name":"Mahananda River","waterway":"river"},"nodes":[5574704351,5574704350]},"geometry":{"type":"LineString","coordinates":[[88.3571004,26.53416],[88.3570914,26.5340888]]}},{"type":"Feature","properties":{"osm_id":583039975,"group":"mahananda","version":4,"timestamp":"2023-12-02T21:11:56Z","tags":{"name":"Mahananda River","waterway":"river"},"nodes":[5574704350,5574704349,5574704348,5574704347,5574704346,5574704345,5574704344,5574704343,5574704342,5574704341,5574704340,5574704339,5574704338,5574704337,5279674660,5279674662,5279674652,4911344331,5279674659,11390517643,5279674658,5279674657,5279674656,5574704115,5279674655,5279674654,5279674653,5574704116,5574704117,5574704118,5574704119,5976805500,5574704120,5574704321,5574704322,5574704323,5574704324,5574704325,5574704326,5574704327,5574704328,5574704329,5574704330,5574704331,5574704332,5574704333,5574704334,306460301]},"geometry":{"type":"LineString","coordinates":[[88.3570914,26.5340888],[88.3570911,26.534086],[88.3570892,26.5340729],[88.3570617,26.5339516],[88.3569371,26.5334207],[88.356813,26.532556],[88.3568069,26.5325165],[88.356736,26.5322436],[88.3566482,26.5316363],[88.3566062,26.5315084],[88.3565773,26.5313885],[88.3558442,26.529946],[88.3556684,26.5295647],[88.3555922,26.5293799],[88.3549368,26.5276838],[88.3525299,26.5235183],[88.3512998,26.5221353],[88.3507955,26.5205417],[88.3499464,26.517049],[88.3497987,26.515231],[88.3496712,26.5136622],[88.34966,26.5123057],[88.3496002,26.5111749],[88.3490846,26.5093273],[88.3483243,26.5081948],[88.3470658,26.5071824],[88.3457725,26.5060366],[88.3434436,26.504729],[88.3430509,26.504216],[88.3422489,26.5031106],[88.3421467,26.5030836],[88.3406514,26.5027565],[88.3392124,26.5022708],[88.3369436,26.5012641],[88.3363377,26.5006979],[88.3359846,26.4997018],[88.3352034,26.4991436],[88.3347103,26.4987833],[88.3345038,26.4985171],[88.3343647,26.4983268],[88.3340809,26.4979493],[88.3339064,26.497712],[88.333619,26.4973271],[88.3334861,26.4970964],[88.3330034,26.4961539],[88.3328753,26.4960356],[88.3320238,26.4952958],[88.331747,26.4946504]]}},{"type":"Feature","properties":{"osm_id":134079134,"group":"mahananda","version":6,"timestamp":"2018-10-12T22:52:54Z","tags":{"name":"Mahananda River","waterway":"river"},"nodes":[306460301,306460302,306460305,306460306,306460309,306460310,306460313,306460315,306460317,306460320,306460322,306460324,4944695909,4944695908,306460327,306460328,306460331,306460332,306460336,3676496946,306460338,306460340,306460343,306460344,306460347,306460349,306460350,306460353,306460355,306460357,306460358,306460361,306460363,306460365,4932392728,306460366,4932392729,306460367,4932390172,306460370,4932390157,306460373,306460374,306460376,306460378,306460380,306460382,306460384,306460385,306460387,306460389,306460391,306460393,306460394,306460397,306460398,306460399,306460402,306460404,306460406,306460407]},"geometry":{"type":"LineString","coordinates":[[88.331747,26.4946504],[88.3286571,26.4941895],[88.3202457,26.4958795],[88.3149241,26.4971085],[88.3123492,26.4969549],[88.3096026,26.4948041],[88.307886,26.4898877],[88.3063411,26.4868149],[88.3049678,26.4852784],[88.3020495,26.4842029],[88.2990661,26.4852731],[88.2967325,26.4886897],[88.2954721,26.4905178],[88.2945518,26.490782],[88.2932037,26.4906009],[88.2907199,26.4899578],[88.2835101,26.483742],[88.2706355,26.4768276],[88.2591342,26.4729862],[88.2523727,26.4655299],[88.2472896,26.4599242],[88.2416247,26.4536231],[88.2376765,26.450703],[88.2292651,26.4433256],[88.2189654,26.4374848],[88.2129025,26.4367541],[88.2057026,26.4328074],[88.2007693,26.4228815],[88.1832599,26.4139649],[88.1746768,26.4084301],[88.1681537,26.4076614],[88.1621455,26.4085839],[88.1547641,26.4072001],[88.1513309,26.4036638],[88.1496345,26.3990333],[88.1509649,26.3959645],[88.1548647,26.394377],[88.1561374,26.3930543],[88.1569423,26.389165],[88.1576712,26.3846674],[88.1566689,26.380053],[88.1527041,26.3769075],[88.1470393,26.3724475],[88.1367396,26.369833],[88.1212901,26.3619889],[88.1123637,26.3521447],[88.1079112,26.337687],[88.1054973,26.331069],[88.0931376,26.3252226],[88.0761432,26.3190681],[88.0670451,26.3124516],[88.0536555,26.302757],[88.0479907,26.2933695],[88.0349444,26.2813646],[88.0267047,26.2667415],[88.0093669,26.2511929],[88.0018138,26.2401075],[87.9958056,26.2339485],[87.9836177,26.2300989],[87.9690265,26.2282511],[87.9609632,26.2272573]]}},{"type":"Feature","properties":{"osm_id":45309519,"group":"mahananda","version":6,"timestamp":"2020-09-29T15:35:07Z","tags":{"name":"Mahananda River","waterway":"river"},"nodes":[306460407,306460408,306460409,306460411,6299809738,6299809737,306460412,306460414,306460416,6299809732,306460417,306460418,692876634]},"geometry":{"type":"LineString","coordinates":[[87.9609632,26.2272573],[87.9556369,26.2239394],[87.9508089,26.2205707],[87.948985,26.2136984],[87.9506635,26.2081996],[87.9545688,26.2033481],[87.9554008,26.1974304],[87.9529547,26.1906722],[87.9435991,26.1822191],[87.9398489,26.1804546],[87.9383205,26.1769043],[87.938857,26.1662933],[87.9383273,26.1649252]]}},{"type":"Feature","properties":{"osm_id":155331892,"group":"mahananda","version":7,"timestamp":"2023-12-02T17:18:20Z","tags":{"name":"Mahananda River","waterway":"river"},"nodes":[692876634,306460419,6299809721,306460421,306460423,306460424,306460425,3898253255,3898253229,575583139,306460429,306460430,306460431,3898253367,306460433,11390133485,306460435,306460437,11390133484,306460441,306460442,306460444,306460446,3898252935,3898252903,3898252888,306459724,306459725,3898253396,11390133492,306459726,306459727,3898252623,306459728,306459729,306459731,306459732,306459733,3898192153,3898192168,306459734,306459955,306459735,306459736,306459738,11390133493,306459739]},"geometry":{"type":"LineString","coordinates":[[87.9383273,26.1649252],[87.9285573,26.1576459],[87.9279399,26.1553802],[87.9258107,26.1504038],[87.9187297,26.1492289],[87.9104899,26.1472257],[87.9037952,26.1395207],[87.9010765,26.1298873],[87.8953477,26.1238106],[87.8900003,26.1224779],[87.8816406,26.1177402],[87.8795909,26.1123951],[87.8797626,26.100834],[87.8786184,26.0953014],[87.877531,26.0900427],[87.8764579,26.0889037],[87.8756427,26.0880384],[87.8754023,26.0877461],[87.8751693,26.0873653],[87.8702596,26.0795718],[87.8652053,26.0731271],[87.8657178,26.0648565],[87.8633674,26.0520606],[87.8559097,26.0510603],[87.8530998,26.0458844],[87.8529231,26.0348966],[87.8494063,26.0264009],[87.8439809,26.0175077],[87.8337858,26.0058348],[87.8325462,26.0044154],[87.8263759,25.99735],[87.818523,25.9804408],[87.8133627,25.9708609],[87.8196811,25.953523],[87.8135013,25.933919],[87.8073011,25.9271297],[87.7977227,25.9162103],[87.7918719,25.9067459],[87.7940266,25.8965191],[87.8022342,25.8937491],[87.8057072,25.8896756],[87.8041166,25.8789434],[87.8042316,25.8783309],[87.8038882,25.8701449],[87.8025149,25.8641209],[87.8024883,25.8637926],[87.8015593,25.8523106]]}},{"type":"Feature","properties":{"osm_id":390239445,"group":"mahananda","version":3,"timestamp":"2023-12-07T19:12:41Z","tags":{"name":"Mahananda","waterway":"river"},"nodes":[3982123672,11401557471,11401557470,3982123671,11401557469,3982123670,11401496368,3982123669,11401496367,3982123668,11401496366,11401496365,3982123667,11401496364,3982123666,3982123665,3982123664,11401496363,3982123663,3982123662,3982123661,3982123660,3982123659,3982123658,11401496362,3982123657,11401496361,11401496360,3982123656,3982123655,11401496359,3982123654,3982123653,3982123652,3982123651,3982123650,3982123649,3982123648,3982123647,3982123646,3982123645,3982123644,3982123643,3982123642,3982123641,3982123640,3982123639,3982123638,3982123637,3982123636,3982123635,3982123634,3982123633,3982123632,3982123631,3982123630,3982123629,3982123628,3982123627,3982123626,3982123625,3982123624,3934007021,3934007020,3934007019,3934007018,3934007017,3934007016,3934007015,3934007014,3934007013,3934007012,3934007011,3934007010,3934007009,3934007008,3934007007,3934007006,3934007005,3934007004,3934007003,3934007002,3934007001,3934007000,3934006999,3934006998,3934006997,3934006986,3934006987,3934006988,3934006989,3934006990,3934006991,3934006996,3934006992,3934006993,3934006994,3934006995]},"geometry":{"type":"LineString","coordinates":[[87.9849467,25.1836253],[87.985543,25.1825928],[87.9858434,25.1820636],[87.9861636,25.1816467],[87.9865998,25.181316],[87.9870513,25.1810878],[87.9876029,25.1812044],[87.9882916,25.1815222],[87.98859,25.1815976],[87.9890751,25.1815814],[87.9899204,25.1807917],[87.9903388,25.1804908],[87.9906843,25.1803619],[87.991181,25.1802335],[87.9915502,25.1803459],[87.9919214,25.1806818],[87.9927343,25.1816413],[87.9932463,25.1818452],[87.993883,25.1818972],[87.9946252,25.1817853],[87.9948903,25.1810336],[87.9947256,25.1801403],[87.9941304,25.1796102],[87.9935826,25.1786186],[87.9936325,25.177641],[87.9939157,25.1772286],[87.9940885,25.1765002],[87.994228,25.1761215],[87.9941481,25.1758838],[87.9935119,25.1744443],[87.9934609,25.1740242],[87.9935472,25.1734847],[87.9944838,25.1722692],[87.9960213,25.1718373],[87.9966045,25.1714055],[87.9975412,25.1690543],[87.9984071,25.1679187],[88.0014468,25.1660313],[88.0036381,25.1641919],[88.0052993,25.1630403],[88.006342,25.1628803],[88.0089575,25.1634081],[88.0100885,25.163968],[88.0119265,25.1656155],[88.0129691,25.1659993],[88.0137997,25.1656794],[88.0143829,25.1650556],[88.0149838,25.1636481],[88.0150191,25.1626404],[88.0146657,25.1613287],[88.0140118,25.1595052],[88.0127571,25.15645],[88.0110252,25.1544185],[88.0094347,25.1532508],[88.0081799,25.1525469],[88.0079148,25.1518431],[88.0082506,25.1509312],[88.0088515,25.1502114],[88.0100532,25.1500834],[88.0111489,25.1501634],[88.012439,25.1505793],[88.013782,25.1505473],[88.0148188,25.1499258],[88.0153285,25.1491569],[88.0156258,25.1480035],[88.0156399,25.146863],[88.0161637,25.146312],[88.0193632,25.1452227],[88.020156,25.1450561],[88.02269,25.1457865],[88.0240349,25.1458506],[88.0271069,25.1456328],[88.0282536,25.1454021],[88.0286925,25.1449407],[88.0291172,25.1435823],[88.029825,25.1404297],[88.0307452,25.1375461],[88.0312124,25.1367644],[88.0327555,25.1351751],[88.0344685,25.1329451],[88.0354736,25.1322146],[88.0360682,25.1321377],[88.0375546,25.1324581],[88.0384041,25.1324709],[88.0388571,25.1316763],[88.0400179,25.130433],[88.0407682,25.1299204],[88.0414619,25.1299204],[88.0432881,25.130715],[88.0447321,25.1312277],[88.0468415,25.1306894],[88.0509753,25.130433],[88.0526033,25.1300101],[88.0561708,25.1297794],[88.0602763,25.1292795],[88.0619326,25.1290232],[88.0636314,25.1287797],[88.0642543,25.1285618]]}},{"type":"Feature","properties":{"osm_id":1229513554,"group":"mahananda","version":1,"timestamp":"2023-12-07T19:12:40Z","tags":{"name":"Mahananda","waterway":"river"},"nodes":[3934006995,2475801835,3934006982,3934006983,3934006984,2475801834,3934006985,2475801833,3934055243,2475801832,3982117743,3982117742,2475801831,2475801828,3982117741,3982117740,3982117739,2475801826,2475801830,3982117738,2475801829,3982117737,3982117736,2475801823,3982117735,3982117734,3982117733,3982117732,3982117731,2475801821,3982123578,2475801820,3982123577,2475801819,3934055898,3934055897,3934055896,2475801818,3934055895,3934055894,2475801817,3934055893,3982117755,3934055899,2475801812,3934055891,3934055890,2475801811,3934055892,2475801807,2475801801,2590546363,2475801796,2475801794,2590546345,3934055950,3934055951,2475801790,3934055952,2590546339,2475801780,2475801778,3934055980,3934055981,11401496358,1757106020]},"geometry":{"type":"LineString","coordinates":[[88.0642543,25.1285618],[88.0643263,25.1276821],[88.066733,25.1243496],[88.0688424,25.1186329],[88.0701023,25.1169409],[88.0719144,25.1163641],[88.0746749,25.1162872],[88.077294,25.1157232],[88.0786717,25.1148489],[88.0820127,25.1087728],[88.0825707,25.1049481],[88.0823586,25.1008352],[88.0819698,25.0927533],[88.0848327,25.0887681],[88.0861405,25.0879678],[88.0880491,25.0877438],[88.0913008,25.0867994],[88.0932448,25.0867834],[88.0983992,25.089756],[88.0994852,25.0900064],[88.1004724,25.0895057],[88.100354,25.0880036],[88.0998011,25.0855537],[88.0982412,25.0822454],[88.0990113,25.0807074],[88.1010648,25.0807611],[88.1026839,25.0805286],[88.1035724,25.0794198],[88.1048558,25.0785077],[88.1101547,25.0740863],[88.1127472,25.0724238],[88.1156454,25.0730001],[88.1171653,25.0721357],[88.1209333,25.0671761],[88.1220028,25.0664467],[88.1254135,25.0667828],[88.1271454,25.0661745],[88.1299621,25.0617871],[88.1320583,25.0574819],[88.1317756,25.0540879],[88.1333837,25.0508219],[88.1345148,25.0476039],[88.133493,25.0401837],[88.1333661,25.0392622],[88.1334898,25.0332738],[88.1337018,25.0319768],[88.1342143,25.0306477],[88.1356314,25.0280529],[88.1370066,25.0227693],[88.138291,25.0191105],[88.1547537,25.0073269],[88.1560637,25.0054294],[88.1568534,25.0039114],[88.1519485,24.9969179],[88.1501068,24.9954841],[88.1476956,24.9933745],[88.1472128,24.9927132],[88.1467944,24.9919353],[88.1467408,24.9909045],[88.1469232,24.9894847],[88.1485084,24.9855638],[88.154487,24.9795362],[88.1638211,24.9718141],[88.1710094,24.9676611],[88.1774604,24.9601486],[88.1826437,24.9552624]]}},{"type":"Feature","properties":{"osm_id":239809734,"group":"mahananda","version":6,"timestamp":"2025-08-19T11:31:40Z","tags":{"name":"Mahananda","waterway":"river"},"nodes":[310716499,1671761201,1671761185,1671761183,1671761182,1671761180,1671761179,1671761178,1671761177,1671761175,1671761172,1671761171,1671761159,1671761155,1671761153,1671761151,1671761149,1671761147,1671761145,1671761143,1671761142,1671761141,1671761139,1671761125,1671761124,1671761123,1671761122,1671761121,1671761120,1671761118,1671761117,1671761116,1671761115,1671761105,1671761103,1671761102,1671761100,1671761098,1671761097,1671761096,1671761095,1671761093,13081622994,1671761092,1671761083,1671761081,1671761079,1671761077,1671761075,1671761074,5156476536,1671761073,1671761072,1671761071,1671761069,1671761061,1671761059,1671761057,1671761055,1671761053,1671761051,1671761050,1671761049,1671761048,1671761046,1671761038,1671761037,1671761035,1671761033,1671761032,1671761030,1671761028,1671761026,1671761025,1671761024,1671761023,1671761018,1671761017,1671761015,1671761013,1671761012,1671761010,1671761008,1671761005,1671761003,1671761001,1671760996,1671760992,1671760989,1671760985,1671760983,1671760980,1671760979,1671760978,1671760977,1671760975,1671760965,1671760962,1671760960,1671760958,1671760957,1671760955,1671760954,1671760953,1671760952,1671760950,1671760941,1671760939,1671760937,1671760935,1671760934,1671760933,1671760932,1671760924,1671760921,1671760916,1671760913,1671760898,1671760895,1671760887,1671760882,1671760872,1671760875,1671760884,1671760891,1671760896,1671760903,1671760915,1671760918,1671760923,1671760928,1671760930,1671760929,1671760922,1671760920,1671760917,1671760914,1671760900,1671760889,1671760874,1671760870,1671760868,1671760866,1671760863,1671760861,1671760859,1671760857,1671760854,1671760852,1671760849,1671760846,1671760844,1671760840,1671760837,1671760817,1671760814,1671760809,1671760808,1671760815,1671760819,1671760823,1671760836,1671760839,1671760838,1671760825,1671760821,1671760812,1671760794,1671760791,1671760789,1671760788,1671760787,1671760784,1671760781,1671760778,1671760775,1671760771,1671760760,1671760758,1671760756,1671760754,1671760752,1671760750,1671760747,1671760745,1671760744,1671760743,1671760741,1671760732,1671760730,1671760729,1671760726,1671760718,7725464400,1671760722,1671760727,1671760728,1671760711,1671760705,1671760695,1671760689,1671760686,1671760681,1671760671,1671760672,1671760684,1671760687,1671760690,1671760703,1671760707,1671760710,1671760712,1671760724,1671760720,1671760709,1671760708,1671760706,1671760704,1671760693,1671760688,1671760679,1671760670,1671760669,1671760667,1671760664,1671760662,1671760660,1671760657,1671760655,1671760647,1671760643,1671760651,1671760649,1671760645,1671760640,1671760638,1671760636,1671760634,1671760633,1671760632,1671760628,1671760626,1671760624,1671760623,8526938365,8526938364,1671760621,1671760619,1671760617,1671760615,1671760613,1671760612,1671760608,2434653657,2434653658,2434653659,6386667953]},"geometry":{"type":"LineString","coordinates":[[88.264167,24.885556],[88.2634773,24.8850615],[88.2627901,24.8833158],[88.2608428,24.8809466],[88.2588726,24.8778292],[88.2563755,24.8745869],[88.2553217,24.8731736],[88.2547719,24.8720513],[88.2544283,24.8712407],[88.2543137,24.8705133],[88.2543137,24.8697858],[88.254749,24.8690999],[88.2555508,24.8685803],[88.2566963,24.8684556],[88.2575897,24.8680607],[88.259285,24.8670838],[88.2606595,24.8661277],[88.2622632,24.8651923],[88.2636377,24.8646103],[88.2651039,24.8639868],[88.2665013,24.8631761],[88.2675781,24.8622408],[88.2690901,24.8604116],[88.2706174,24.8583325],[88.2714421,24.8563369],[88.2724501,24.8536762],[88.272725,24.8517637],[88.2730916,24.850267],[88.2738088,24.8484921],[88.2743271,24.8473749],[88.2749751,24.8462577],[88.2763358,24.8448466],[88.2783769,24.8430826],[88.2807096,24.841642],[88.2824591,24.8409951],[88.2865089,24.8396427],[88.288712,24.8390547],[88.2920814,24.8379668],[88.2976863,24.836732],[88.3006021,24.8363203],[88.3028052,24.8359675],[88.3042631,24.8351443],[88.304503,24.8349719],[88.3050407,24.8345856],[88.3057858,24.8336447],[88.3062394,24.8326451],[88.3062718,24.8317042],[88.3059478,24.8308221],[88.3053971,24.8304104],[88.3042631,24.8290579],[88.3041098,24.8286404],[88.3039067,24.8280876],[88.3026108,24.8267644],[88.3014121,24.8256176],[88.299695,24.8240004],[88.2968115,24.8218832],[88.2945436,24.8194426],[88.2932801,24.8178546],[88.291563,24.8155021],[88.2903643,24.8128555],[88.2889387,24.8096206],[88.2875456,24.8060328],[88.2864441,24.8036212],[88.2845974,24.799945],[88.2829127,24.7978274],[88.2806124,24.7945922],[88.277243,24.7907686],[88.2749103,24.7878273],[88.2733552,24.7856801],[88.2706337,24.7819445],[88.2676531,24.7782676],[88.2645429,24.7727668],[88.2624694,24.7687072],[88.2611734,24.765883],[88.2604931,24.7633236],[88.2600395,24.759705],[88.2601691,24.7572337],[88.2608818,24.7552331],[88.2618538,24.7541739],[88.2635061,24.7534972],[88.2658712,24.7526146],[88.2691434,24.7511141],[88.2721888,24.7490839],[88.2743595,24.7475245],[88.2757527,24.7463182],[88.2773726,24.7442585],[88.2788629,24.7421695],[88.2799644,24.7405217],[88.281228,24.7382266],[88.2822323,24.7357254],[88.283269,24.7333713],[88.2845002,24.7306935],[88.2851805,24.7289868],[88.2855045,24.727486],[88.2855369,24.7261028],[88.2852453,24.7247786],[88.2844678,24.7230129],[88.283431,24.7215414],[88.2815519,24.7199228],[88.2796728,24.7182453],[88.2766598,24.7155083],[88.2737764,24.7132716],[88.2676855,24.7085331],[88.2624046,24.7049129],[88.2596831,24.7028232],[88.2563137,24.7002625],[88.2543698,24.6988496],[88.2528471,24.6974073],[88.2515835,24.6960828],[88.2505792,24.6949348],[88.2492509,24.6934924],[88.2480845,24.6918146],[88.2475986,24.6900484],[88.2476958,24.6880762],[88.2483437,24.6866043],[88.2495101,24.6850147],[88.2515188,24.6834545],[88.2539162,24.6816882],[88.2557305,24.6801868],[88.258452,24.6790093],[88.2610438,24.6781261],[88.2651584,24.6772724],[88.2675883,24.6775373],[88.2713465,24.6784499],[88.2741003,24.6794509],[88.276595,24.6809817],[88.2792517,24.6824536],[88.2828155,24.6841904],[88.2845002,24.6856329],[88.2866709,24.6874874],[88.2881612,24.6885177],[88.2898135,24.6889004],[88.291725,24.6885177],[88.2939929,24.6872814],[88.2951592,24.6862805],[88.2963579,24.6852502],[88.2974595,24.6835134],[88.2981399,24.6818943],[88.2986258,24.6793625],[88.2985286,24.6773607],[88.2981723,24.6746817],[88.2976539,24.6723853],[88.296034,24.6690879],[88.2946494,24.6666636],[88.2924501,24.6628329],[88.2870436,24.6556709],[88.2825534,24.6503407],[88.2772385,24.6455934],[88.2713738,24.6417621],[88.2680749,24.6384304],[88.2660589,24.6351819],[88.2651426,24.6321832],[88.2646844,24.6296843],[88.2646844,24.6276018],[88.2656007,24.6255193],[88.2667004,24.6245196],[88.2691746,24.6239365],[88.2724735,24.6237699],[88.274856,24.6248528],[88.2792545,24.6258525],[88.2825534,24.626269],[88.2878683,24.6274352],[88.2904341,24.6278517],[88.2922669,24.6277684],[88.2930916,24.6270187],[88.2932749,24.6258525],[88.2931832,24.6240198],[88.2928167,24.6200212],[88.2926334,24.6168556],[88.2918087,24.6135232],[88.288968,24.6087745],[88.2867687,24.606525],[88.2847527,24.6053586],[88.2809956,24.6046087],[88.276872,24.6035256],[88.2710073,24.6020259],[88.2662422,24.6008595],[88.2580866,24.5998596],[88.2505724,24.5992764],[88.2430583,24.5983599],[88.2371935,24.59736],[88.2327034,24.5957769],[88.2280299,24.5938605],[88.223723,24.5911942],[88.2210656,24.589111],[88.2184998,24.5868612],[88.2163921,24.583778],[88.2158423,24.5808615],[88.215934,24.5776115],[88.2170336,24.5746114],[88.2192329,24.571528],[88.2213405,24.5694445],[88.2233565,24.5687778],[88.2259906,24.5688482],[88.2264721,24.5688611],[88.2294961,24.5694445],[88.2329783,24.5696945],[88.2371935,24.5683611],[88.2426917,24.5656942],[88.2476401,24.5621938],[88.2520386,24.5584433],[88.2570786,24.554776],[88.2598277,24.5527756],[88.2633098,24.5521088],[88.2673418,24.5521921],[88.2701825,24.5535257],[88.2715571,24.5561095],[88.2715571,24.55911],[88.27284,24.5636106],[88.2744894,24.5667776],[88.2760473,24.5677777],[88.2793462,24.5684444],[88.2835614,24.5689445],[88.28796,24.5687778],[88.2929083,24.567611],[88.2960239,24.5670277],[88.2984981,24.5662776],[88.3006057,24.5640274],[88.3016137,24.5613604],[88.3026217,24.5571931],[88.3032632,24.5525255],[88.3031716,24.5494415],[88.302805,24.544607],[88.3022552,24.5412727],[88.3010639,24.5389387],[88.3000559,24.5371047],[88.298773,24.5354375],[88.2963905,24.5338536],[88.2944661,24.5326032],[88.2924501,24.5316028],[88.2900676,24.5313527],[88.2870436,24.5318529],[88.2837447,24.5316862],[88.2806291,24.5316028],[88.2786131,24.531186],[88.2760473,24.5288518],[88.2750393,24.5256838],[88.2752225,24.5233495],[88.2765054,24.5200146],[88.2786131,24.5176802],[88.2826451,24.5124275],[88.2851192,24.5095093],[88.2902509,24.5062575],[88.293997,24.504117],[88.2947802,24.5032286],[88.2958317,24.5026916],[88.2978272,24.5025257],[88.2992434,24.5023304],[88.3001876,24.5020766],[88.3014484,24.5015455],[88.3028698,24.5005243],[88.3037925,24.4992747],[88.3044576,24.4981617],[88.3048009,24.4966387],[88.3049726,24.4957795],[88.3048439,24.4944908],[88.3034277,24.4906245]]}},{"type":"Feature","properties":{"osm_id":1352087403,"group":"bhagirathi","version":3,"timestamp":"2026-09-28T10:15:38Z","tags":{"name":"Bhagirathi","name:bn":"ভাগীরথী","name:en":"Bhagirathi","waterway":"river"},"nodes":[308068575,12509494162,12509494101]},"geometry":{"type":"LineString","coordinates":[[88.3802183,23.4160646],[88.3794654,23.4146723],[88.3786264,23.4097575]]}}]}