{"type":"FeatureCollection","properties":{"licence":"ODbL 1.0 — © OpenStreetMap contributors","system":"padma","batch":"b9","fetched":"2026-09-29","snapshot":"2026-09-29T14:20:59Z"},"features":[{"type":"Feature","properties":{"osm_id":631213767,"group":"kirtankhola","version":11,"timestamp":"2022-10-21T19:15:04Z","tags":{"name":"কীর্তনখোলা","name:en":"Kirtankhola","waterway":"river"},"nodes":[6468612145,6468612146,6468612147,6468612148,6468612149,5961343469,5960810721,6468612150,8425316368,6468612153,5960810722,5960758946,6468014649,5960810720,5960810719,5960810718,6468014901,5960810717,5960810716,5960810715,5968123355,5960810714,5968123378,5968122248,6468014916,5960810713,5960810712,5960810711,5960810710,5960810709,5960810708,5960810707,5960810706,5960810705,5960810704,5960810703,5960810702,5960810701,5960810700,5963878363,5960810699,5960810698,5960810697,5960810696,5960810695,5960810694,5960810264,5960810693,5960810254,5960810692,5960810691,8424961075,8424961074,8424961073,5960810690,5960810689,5960810688,6024463155,5960810687,5968315564,6024565714,5960810686,8424351339,6024565715,5960810685,6024565716,5960810284,5960810283,5960810282,5960810281,5960810280,5960810279,5960810278]},"geometry":{"type":"LineString","coordinates":[[90.4353118,22.7838181],[90.4322219,22.7806231],[90.4322863,22.7784765],[90.4343247,22.7748461],[90.4383802,22.7678718],[90.4385307,22.7650309],[90.4387187,22.7639855],[90.4382944,22.7624702],[90.4374925,22.7602671],[90.4331832,22.7558827],[90.4267288,22.7529921],[90.4200339,22.746363],[90.4195404,22.7425932],[90.4198945,22.7396842],[90.4224264,22.7378734],[90.435065,22.7313326],[90.4360467,22.7279236],[90.434711,22.725702],[90.4319215,22.7233665],[90.4277264,22.7213675],[90.4244354,22.7211522],[90.4214287,22.7209815],[90.420765,22.7209403],[90.4182774,22.7207858],[90.4161715,22.720655],[90.4101419,22.7213081],[90.4057002,22.723703],[90.4024064,22.7259395],[90.3996491,22.7292744],[90.3990697,22.733658],[90.3988981,22.7365079],[90.3981257,22.7390211],[90.3974604,22.7408814],[90.3957438,22.7428603],[90.3939843,22.7436124],[90.3916025,22.7429989],[90.3869462,22.7379327],[90.3848433,22.7331831],[90.3850794,22.7295415],[90.3858167,22.7261903],[90.3862595,22.724178],[90.3889847,22.7180225],[90.3916454,22.7124804],[90.3883624,22.704246],[90.385251,22.7010589],[90.3813457,22.6991982],[90.3801446,22.6991646],[90.3778052,22.6990992],[90.3773354,22.6985761],[90.3759384,22.6970206],[90.3738785,22.6899929],[90.3725855,22.6865693],[90.3720486,22.6851479],[90.3713986,22.6834268],[90.3707456,22.6816977],[90.3624415,22.6711845],[90.3539443,22.6608685],[90.3514559,22.656847],[90.3456884,22.647554],[90.3454137,22.647278],[90.3442132,22.6464326],[90.342958,22.6457395],[90.342746,22.6456464],[90.3424323,22.6455019],[90.3418422,22.6453633],[90.3403348,22.6457197],[90.3389025,22.6464723],[90.3361559,22.6519576],[90.3334307,22.6562151],[90.3321647,22.6588685],[90.32974,22.6619971],[90.325706,22.662908],[90.3236461,22.6627174]]}}]}