{"type":"FeatureCollection","properties":{"licence":"ODbL 1.0 — © OpenStreetMap contributors","system":"karnaphuli","fetched":"2026-09-29","snapshot":"2026-09-29T11:21:51Z"},"features":[{"type":"Feature","properties":{"osm_id":687541579,"group":"kasalong","version":12,"timestamp":"2026-09-23T18:55:03Z","tags":{"name":"kachalong River","waterway":"river"},"nodes":[6445035485,11193744444,6445035486,11193744445,6445035487,6445035488,6445035489,6445035490,11193744446,6445035491,6445035492,6445035493,6445035494,6445035495,6445035496,6445035497,6445035498,6445035499,6445035500,6445035501,6445035502,6445035503,6445035504,6445035505,6445035506,6445035507,6445035508,6445035509,6445035510,6445035511,6445035512,6445035513,6445035514,6445035515,6445035516,6445035517,6445035518,6445035519,6445035520,6445035521,6445035522,6445035523,6445035524,6445035525,6445035526,6445035527,6445035528,6445035529,6445035530,6445035531,6445035532,6445035533,6445035534,6445035535,6445035536,6445035537,6445035538,6445035539,6445035540,6445035541,6445035542,6445035543,6445035544,6445035545,6445035546,6445035547,6445035548,6445035549,6445035550,6445035551,6445035552,6445035553,6445035554,6445035555,6445035556,6445035557,6445035558,6445035559,6445035560,6445035561,6445035562,6445035563,6445035564,6445035565,6445035566,6445035567,6445035568,6445035569,6445035570,6445035571,6445035572,6445035573,6445035574,6445035575,6445035576,6445035577,6445035578,6445035579,6445035580,6445035581,6445035582,6445035583,6445035584,6445035585,6445035586,6445035587,6449313498,6449313499,6449313500,6449313501,6449313502,6449313503,6449313504,6449313505,6449313506,6449313507,6449313508,6449313509,6449313510,6449313511,6449313512,6449313513,6449313514,6449313515,6449313516,6449313517,6449313518,6449313519,6449313520,6449313521,6449313522,6449313523,6449313524,6449313525,6449313526,6449313527,6449313528,6449313529,6449313530,6449313531,6449313532,6449313533,6449313534,6449313535,6449313536,6449313537,6449313538,6449313539,6449313540,6449313541,6449313542,6449313543,6449313544,6449313545,6449313546,6449313547,6449313548,6449313549,6449313550,6449313551,6449313552,6449313553,6449313554,6449313555,6449313556,6449313557,6449313558,6449313559,6449313560,6449313561,6449313562,6449313563,6449313564,6449313565,6449313566,6449313567,6449313568,6449313569,6449313570,6449313571,6449313572,6449313573,6449313574,6449313575,6449313576,6449313577,6449313578,6449313579,6449313580,6449313581,6449313582,6449313583,6449313584,6449314385,6449314386,6449314387,6449314388,6449314389,6449314390,6449314391,6449314392,6449314393,6449314394,6449314395,6449314396,6449314397,6449314398,6449314399,6449314400,6449314401,6449314402,6449314403,6449314404,6449314405,6449314406,6449314407,6449314408,6449314409,6449314410,6449314411,6449314412,6449314413,6449314414,6449314415,6449314416,6449314417,6449314418,6449314419,6449314420,6449314421,6449314422,6449314423,6449314424,6449314425,6449314426,6449314427,6449314428,6449314429,6449314430,6449314431,6449314432,6449314433,6449314434,6449314435,6449314436,6449314437,6449314438,6449314439,6449314440,6449314441,6449314442,6449314443,6449314444,6449314445,6449314446,6449314447,6449314448,6449314449,6449314450,6449314451,6449314452,6449314453,6449314454,6449314455,6449314456,6449314457,6449314458,6449314459,6449314460,6449314461,6449314462,6449314463,6449314464,6449318378,6449318379,6449318380,6449318381,6449318382,6449318383,6449318384,6449318885,6449318886,6449318887,6449318888,6449318889,6449318890,6449318891,6449318892,6449318893,6449318894,6449318895,6449318896,6449318897,6449318898,6449318899,6449318900,6449318901,6449318902,6449318903,6449318904,6449318905,6449318906,6449318907,6449318908,6449318909,6449318910,6449318911,6449318912,6449318913,6449318914,6449318915,6449318916,6449318917,6449318918,6449318919,6449318920,6449318921,6449318922,6449318923,6449318924,6449318925,6449318926,6449318927,6449318928,6449318929,6449318930,6449318931,6449318932,6449318933,6449318934,6449318935,6449318936,6449318937,6449318938,6449318939,6449318940,6449318941,6449318942,6449318943,6449318944,6449318945,6449318946,6449318947,12153537392,12153537393,6449318948,12153537391,12153537390,6449318949,6449318950,6449318951,12153537389,6449318952,12153537388,6449318953,12153537387,6449318954,6449318955,12153537537,12153537386,6449318956,12153537385,6449318957,12153537383,12153537382,12153537384,6449318958,12153537379,12153537380,6449318959,12153537381,6449318960,12153537378,6449318961,12153537377,6449318962,12153537376,6449318963,12153537375,6449318964,12153537371,6449318965,12153537372,6449318966,12153537373,12153537374,6449318967,6449318968,6449318969,6449318970,12153537152,6449318971,12153537195,6449318972,6449318973,6449318974,6449319367,12153537655,6449319368,6449319369,6449319370,12153537657,6449319371,12153537656,6449319372,12153537658,6449319373,12153537659,12153537660,6449319374,12153537661,6449319375,6449319376,6449319377,12153537902,6449319378,12153537901,6449319379,12153537899,6449319380,12153537900,12153537891,6449319381,12153537890,6449319382,12153537893,12153537892,6449319383,12153537897,6449319384,12153537896,6449326885,12153537894,12153537895,6449326886,12153537898,6449326887,6449326888,12153538436,6449326889,12153538438,12153538437,6449326890,6449326891,6449326892,6449326893,6449326894,6449326895,6449326896,12153579250,6449326897,12153579249,6449326898,12153579248,6449326899,12153579247,6449326900,12153579246,6449326901,12153579245,6449326902,12153579244,12153579243,6449326903,12153579242,6449326904,12153579241,6449326905,12153579240,12153579239,6449326906,12153579238,6449326907,12153579237,6449326908,12153579233,12153579234,9611080481,6449326909,12153579235,6449326910,12153579236,6449326911,6449326912,6449326913,6449326914,6449326915,6449326916,6449326917,6449326918,6449326919,6449326920,12153538995,6449326921,12153538994,6449326922,12153538993,6449326923,6449326924,6449326925,6449326926,6449326927,6449326928,6449326929,6449326930,6449326931,6449326932,6449326933,6449326934,6449326935,6449326936,6449326937,6449326938,6449326939,6449326940,6449326941,6449326942,6449326943,6449326944,6449326945,6449326946,6449326947,6449326948,6449326949,6449326950,6449326951,6449326952,6449326953,6449326954,6449326955,6449326956,6449326957,6449326958,6449326959,6449326960,6449326961,6449326962,6449326963,6449326964,6449326965,6449326966,6449326967,6449326968,6449326969,6449326970,6449326971,6449326972,12154093371,6449326973,12154093370,12154093369,6449326974,12154093372,12154093373,6449326975,12154093375,12154093374,6449326976,6449326977,6449326978,6449326979,6449326980,6449326981,6449326982,6449326983,6449326984,6449326985,6449326986,1326882935]},"geometry":{"type":"LineString","coordinates":[[92.0709795,23.4588884],[92.0710022,23.4584896],[92.0709163,23.4580638],[92.0708366,23.4578473],[92.0706923,23.4576955],[92.0704121,23.4575936],[92.0700788,23.457731],[92.0695219,23.4582868],[92.0692114,23.4585869],[92.0688568,23.45879],[92.0681757,23.4590248],[92.06777,23.459016],[92.0670057,23.4586888],[92.0660431,23.458468],[92.0654415,23.4582322],[92.065179,23.4579814],[92.0652829,23.4577155],[92.0661197,23.4569378],[92.0671643,23.4560196],[92.067394,23.4554928],[92.0675888,23.4539735],[92.0676787,23.4534126],[92.0681462,23.4525218],[92.0688295,23.4512516],[92.0692251,23.4502865],[92.0695308,23.4498824],[92.0702141,23.4487029],[92.0705108,23.4473666],[92.0709874,23.4460468],[92.0710953,23.4454859],[92.0706907,23.4450652],[92.0702591,23.4445951],[92.0706367,23.4443146],[92.0709604,23.4442404],[92.0714189,23.4443971],[92.0716797,23.4449498],[92.0718865,23.4455602],[92.0722281,23.4456344],[92.0724709,23.4451147],[92.0726327,23.4445208],[92.072381,23.4441166],[92.0715268,23.4439764],[92.0710773,23.4436795],[92.0709154,23.4431928],[92.0711942,23.4424999],[92.0718325,23.4421122],[92.073298,23.4420132],[92.074341,23.441906],[92.0749434,23.441411],[92.0752903,23.4411355],[92.0753717,23.44079],[92.0746489,23.4405284],[92.0741603,23.4401922],[92.0739261,23.4398092],[92.0741297,23.4395477],[92.0747507,23.4396037],[92.0754125,23.4398933],[92.0762778,23.439968],[92.0769192,23.4400801],[92.0772144,23.4401455],[92.0773977,23.4399493],[92.0773875,23.4397251],[92.0767359,23.4394729],[92.075779,23.4387911],[92.0753616,23.4385669],[92.075107,23.4384268],[92.075107,23.4381653],[92.0752394,23.4379504],[92.0763694,23.4371098],[92.0770515,23.4365774],[92.0774384,23.4361944],[92.0777438,23.4361477],[92.0777947,23.4363532],[92.0777133,23.4369416],[92.0774486,23.4376142],[92.0775809,23.4379785],[92.0783547,23.4378197],[92.0793218,23.437334],[92.0798105,23.4366894],[92.0799836,23.4356153],[92.0800854,23.4352416],[92.0802279,23.4350081],[92.0804315,23.4350455],[92.0806962,23.435335],[92.0809304,23.4357554],[92.0812358,23.4357647],[92.0823149,23.4355405],[92.0828748,23.4353537],[92.0831904,23.4350735],[92.0831192,23.4347746],[92.081755,23.4343356],[92.0798716,23.4338312],[92.0793625,23.4334949],[92.0793625,23.433252],[92.0799327,23.4331306],[92.0807776,23.432869],[92.0816939,23.4321778],[92.082376,23.4313558],[92.0831803,23.4300854],[92.0832108,23.4294689],[92.0824371,23.4282358],[92.0821011,23.427638],[92.0821317,23.4273391],[92.0835366,23.426816],[92.0839947,23.4261994],[92.0841474,23.4253774],[92.0843388,23.4242552],[92.0849182,23.4234086],[92.0849396,23.4213806],[92.0856263,23.4209474],[92.0888664,23.4217153],[92.090819,23.4216169],[92.0919992,23.4219319],[92.0929219,23.4213018],[92.0930935,23.4205536],[92.0922138,23.4200614],[92.0915486,23.4199629],[92.0916129,23.4194904],[92.0932866,23.4190572],[92.0934368,23.4183089],[92.0937802,23.4177773],[92.0944883,23.4176986],[92.0952393,23.4182302],[92.0950891,23.4204355],[92.0953466,23.4207111],[92.0959903,23.4204355],[92.0965482,23.4194313],[92.0967842,23.4177182],[92.0980717,23.416399],[92.0994235,23.414745],[92.1001531,23.4133272],[92.1004106,23.4125987],[92.100475,23.411811],[92.1001746,23.4114763],[92.0991231,23.4120079],[92.0986511,23.4118504],[92.0987798,23.4110431],[92.1000484,23.4086549],[92.102044,23.4045196],[92.1029666,23.4031018],[92.1042326,23.4022944],[92.1044043,23.4017627],[92.1033529,23.40001],[92.1034602,23.39873],[92.1040395,23.3969379],[92.1045545,23.3961305],[92.1056488,23.3960517],[92.1066144,23.3963668],[92.1069148,23.3973121],[92.1073011,23.3977453],[92.108846,23.3977059],[92.1106485,23.3978438],[92.111421,23.3968985],[92.112644,23.395264],[92.1136096,23.3949489],[92.1150473,23.3951064],[92.1154121,23.3946731],[92.116485,23.392625],[92.1173004,23.3913252],[92.1186737,23.3904192],[92.120519,23.3897496],[92.1230296,23.3896118],[92.1254543,23.3900844],[92.1268061,23.3913646],[92.1273855,23.3918766],[92.1283081,23.3918175],[92.1287158,23.3914237],[92.1279005,23.3894345],[92.1275571,23.3868545],[92.1280292,23.3852789],[92.1299389,23.3853183],[92.1307114,23.3873469],[92.132192,23.388115],[92.1326641,23.3878984],[92.1335438,23.3856137],[92.1341661,23.3851805],[92.1348313,23.3865985],[92.1357969,23.3865788],[92.1376637,23.3852789],[92.1378354,23.384432],[92.1366981,23.3840972],[92.1360329,23.3835458],[92.1362689,23.3822459],[92.1362475,23.3806899],[92.1375564,23.3801975],[92.1377495,23.3798036],[92.1373418,23.3781294],[92.1377495,23.3766719],[92.1396378,23.3759431],[92.140818,23.3755689],[92.1417406,23.3733629],[92.1415046,23.3716886],[92.1407965,23.370625],[92.141054,23.3690098],[92.1403244,23.3677295],[92.1387151,23.3663703],[92.1393159,23.365543],[92.1406034,23.3649915],[92.1431569,23.3655036],[92.1440152,23.3657203],[92.1444658,23.3635535],[92.1459678,23.3616033],[92.1481994,23.3592592],[92.149444,23.3574863],[92.1497014,23.3568559],[92.1491221,23.354886],[92.1488861,23.3519507],[92.1483496,23.3497837],[92.1498087,23.3488381],[92.1526841,23.3474393],[92.1571258,23.3454298],[92.1591214,23.3447797],[92.1594003,23.3440704],[92.1569327,23.3433415],[92.1559456,23.3424549],[92.1560315,23.3408788],[92.1573618,23.339677],[92.160044,23.3406227],[92.1619752,23.3401893],[92.1627692,23.3392436],[92.1627263,23.3387904],[92.1621684,23.338554],[92.1610096,23.3386131],[92.1606878,23.3377659],[92.1614173,23.3353622],[92.1616534,23.3345938],[92.1611169,23.3325645],[92.1611169,23.3305153],[92.1631125,23.3302395],[92.1683696,23.3308109],[92.1689275,23.3304365],[92.168155,23.3291952],[92.1649149,23.3269687],[92.1644643,23.325885],[92.1670607,23.3246634],[92.1676615,23.3242102],[92.1678117,23.3230279],[92.1673182,23.319619],[92.1677688,23.3179441],[92.1688417,23.3163283],[92.1687988,23.3148701],[92.1681121,23.3137469],[92.1667388,23.3141804],[92.1669105,23.3153233],[92.1670392,23.3167815],[92.1662882,23.3184958],[92.1655157,23.3186141],[92.1647433,23.3165056],[92.164121,23.3151263],[92.1626833,23.3154218],[92.1606234,23.3152642],[92.159808,23.3145548],[92.1622327,23.3124857],[92.164121,23.3114413],[92.1639064,23.3106333],[92.1624902,23.3106924],[92.1605376,23.3119339],[92.1599153,23.3114413],[92.1598295,23.310121],[92.1615675,23.3092736],[92.162855,23.3091159],[92.1635202,23.3100224],[92.1639708,23.3095889],[92.1633056,23.3062191],[92.1617607,23.3037163],[92.1611169,23.3022185],[92.1621684,23.3014105],[92.1637991,23.3020018],[92.1635202,23.3039134],[92.1644214,23.3044455],[92.1659234,23.3024944],[92.1664384,23.3015485],[92.1668247,23.2998142],[92.1656144,23.297892],[92.1632326,23.2959803],[92.1629751,23.2940883],[92.1632112,23.2926299],[92.164327,23.2902648],[92.1643913,23.2891808],[92.1631897,23.2870128],[92.1592844,23.2849432],[92.1563447,23.282578],[92.1547354,23.2804099],[92.1528042,23.2788527],[92.152375,23.2781431],[92.1535552,23.2769999],[92.1563232,23.2760932],[92.1574605,23.2755413],[92.1578896,23.2741812],[92.1582115,23.2705739],[92.1590054,23.268721],[92.1621812,23.2659218],[92.1629322,23.2648179],[92.1632326,23.2621172],[92.1628464,23.260067],[92.1594131,23.2580561],[92.1575034,23.2562227],[92.1572245,23.2548625],[92.1586621,23.253581],[92.16128,23.2529699],[92.1636832,23.2519053],[92.1646274,23.2508998],[92.1650994,23.2497169],[92.1647132,23.2476271],[92.1645201,23.2447683],[92.1642197,23.240273],[92.1641982,23.2357578],[92.1642411,23.2348508],[92.1631253,23.2343579],[92.1621597,23.2337072],[92.1620524,23.2329974],[92.1640265,23.2314594],[92.1666873,23.2295468],[92.1679104,23.2289158],[92.1683825,23.2292115],[92.1691764,23.2302566],[92.1700776,23.2300003],[92.1707213,23.2288566],[92.1713651,23.2284228],[92.1720303,23.2283439],[92.17394,23.2296256],[92.1748627,23.2296256],[92.175721,23.2283439],[92.1760214,23.2258791],[92.1778667,23.2252679],[92.182566,23.2230791],[92.1855057,23.2216987],[92.1862138,23.2221128],[92.1878446,23.2237495],[92.1890462,23.2243805],[92.1936381,23.2250904],[92.1948612,23.2251495],[92.1960628,23.2238284],[92.1974791,23.2211663],[92.1983159,23.2178731],[92.1986378,23.2155659],[92.1976936,23.2125289],[92.1974791,23.2082692],[92.1970284,23.2042065],[92.1971786,23.2013271],[92.1976936,23.1976784],[92.198069,23.1958297],[92.1983722,23.1949037],[92.1985488,23.1941322],[92.1984401,23.1936171],[92.1981766,23.193309],[92.1978352,23.1932093],[92.1974376,23.1932519],[92.1966422,23.1935957],[92.1954835,23.1935366],[92.1945746,23.1929071],[92.1938269,23.191938],[92.19303,23.191344],[92.191944,23.1914515],[92.1908581,23.1918436],[92.1904893,23.1917729],[92.1901486,23.1914759],[92.1903766,23.1892368],[92.1904452,23.1883324],[92.1904148,23.187988],[92.1903122,23.186791],[92.1900953,23.1861265],[92.18978,23.1854362],[92.1893408,23.1849209],[92.1889157,23.184716],[92.1884554,23.1849186],[92.1880162,23.1851341],[92.1867849,23.185306],[92.1862747,23.1852561],[92.185849,23.1851933],[92.1855423,23.1848653],[92.185334,23.1842268],[92.1852737,23.1838224],[92.1852696,23.1834181],[92.1854608,23.1827741],[92.1861444,23.1821043],[92.1867653,23.181766],[92.1871962,23.1813437],[92.1872571,23.18091],[92.187135,23.1804053],[92.1866468,23.1800507],[92.186046,23.1796832],[92.185811,23.1794971],[92.1856323,23.1792593],[92.1857808,23.1782943],[92.1860097,23.1775596],[92.1864498,23.1769284],[92.1869219,23.175232],[92.1869004,23.1735947],[92.187866,23.1707146],[92.188278,23.1679477],[92.1883595,23.1674004],[92.1889864,23.1654409],[92.1890033,23.1653882],[92.1894968,23.1635338],[92.1900118,23.1620937],[92.1906767,23.1595325],[92.1910313,23.1577723],[92.1914,23.1558559],[92.1917442,23.1535347],[92.1924148,23.1520947],[92.192748,23.1514719],[92.193037,23.1504966],[92.1928536,23.1496847],[92.1926631,23.14871],[92.1926674,23.1478125],[92.1930896,23.1470583],[92.1939923,23.1459172],[92.1943298,23.1450657],[92.1946249,23.1440448],[92.1958332,23.1425547],[92.1969423,23.1409865],[92.1981011,23.1381451],[92.1982298,23.1363693],[92.1986861,23.1346507],[92.1995997,23.1328761],[92.1998569,23.1321234],[92.1999464,23.1312586],[92.1994907,23.1302232],[92.1989359,23.1292578],[92.1989068,23.1290307],[92.1990148,23.1287614],[92.1998177,23.128279],[92.2005354,23.1279729],[92.2014055,23.1281014],[92.2017255,23.1282905],[92.2020151,23.1285776],[92.202457,23.1295024],[92.2026369,23.1301006],[92.2029692,23.1302923],[92.2034271,23.1301813],[92.2038088,23.1298181],[92.2040436,23.1289766],[92.2039934,23.1285348],[92.2038517,23.1281211],[92.2031679,23.1265137],[92.2023926,23.1252006],[92.201254,23.1236395],[92.2011063,23.1233724],[92.2009978,23.1230693],[92.2010525,23.1228215],[92.2012836,23.1226098],[92.201942,23.1222405],[92.2053752,23.1214906],[92.2084007,23.1207013],[92.2101603,23.1205434],[92.2128854,23.1211354],[92.2158466,23.1205236],[92.218915,23.1189646],[92.2200061,23.1181371],[92.2206531,23.117228],[92.2208414,23.1166376],[92.2207189,23.1160391],[92.2200423,23.1154324],[92.2191081,23.1148993],[92.2188642,23.1146326],[92.2188691,23.1142433],[92.219124,23.1138448],[92.2197519,23.1133402],[92.2205564,23.1130687],[92.221663,23.1128788],[92.2224636,23.1129495],[92.2229001,23.1130284],[92.2244481,23.1138071],[92.2247189,23.1139017],[92.2250608,23.1138493],[92.2252695,23.1136091],[92.2253094,23.1132218],[92.2252305,23.112831],[92.2250094,23.1123423],[92.2242121,23.1113974],[92.2240037,23.111024],[92.2239908,23.1106099],[92.2241472,23.1103727],[92.2244813,23.1101845],[92.2252103,23.1101358],[92.2261877,23.1103688],[92.2266378,23.1105439],[92.2271118,23.1103404],[92.2273904,23.1101737],[92.2275624,23.1098273],[92.2271049,23.1089712],[92.2261677,23.1078537],[92.2229276,23.1052485],[92.2201381,23.1040643],[92.2191081,23.1035906],[92.2184215,23.1019919],[92.2186361,23.1006696],[92.2197089,23.0999788],[92.2224126,23.0993472],[92.2225628,23.098755],[92.220181,23.0971958],[92.2197766,23.0966691],[92.219666,23.0958536],[92.2199435,23.095412],[92.2203324,23.0949424],[92.2214137,23.0949394],[92.2224341,23.0949457],[92.2244725,23.0929324],[92.2276483,23.0907414],[92.2291932,23.0896558],[92.2295365,23.0887478],[92.2293649,23.0856685],[92.229043,23.0833985],[92.2296224,23.0821549],[92.2308669,23.0826089],[92.2339783,23.0837538],[92.2352014,23.0838327],[92.2359524,23.0831616],[92.236682,23.0813455],[92.236639,23.0749694],[92.2373901,23.0728176],[92.2388063,23.0722648],[92.2403727,23.0732716],[92.2414241,23.073469],[92.2418318,23.0725215],[92.2415958,23.0694418],[92.2414241,23.0681783],[92.2428403,23.0656316],[92.2428403,23.0648222],[92.2419605,23.0646642],[92.2396002,23.0644865],[92.237905,23.063302],[92.2373042,23.0621964],[92.2377334,23.0595113],[92.238184,23.0580503],[92.2380338,23.0562734],[92.236639,23.0549111],[92.2349653,23.0527985],[92.2348795,23.0515546],[92.2363386,23.0506069],[92.2372399,23.0503305],[92.2402439,23.0522457],[92.2420035,23.0524431],[92.2428403,23.051989],[92.242733,23.0499158],[92.2417674,23.0488891],[92.2389994,23.0473885],[92.2385273,23.0461446],[92.2397719,23.04417],[92.2415528,23.0427878],[92.2448788,23.0429063],[92.2464881,23.0429261],[92.2469387,23.0422152],[92.2465096,23.0411884],[92.243999,23.0391546],[92.2427974,23.0376934],[92.2423789,23.0368722],[92.2422395,23.0354028],[92.2422094,23.0348936],[92.2423655,23.0341275],[92.2430763,23.0322038],[92.2436056,23.0315238],[92.2439101,23.0312572],[92.2443807,23.0311557],[92.2451522,23.0312686],[92.2458639,23.0314486],[92.2472606,23.0318088],[92.2480974,23.0316706],[92.2482476,23.0305845],[92.2473035,23.0295774],[92.2421751,23.028274],[92.2411237,23.0272669],[92.241467,23.0246009],[92.2427545,23.0225866],[92.2433338,23.0211252],[92.2402868,23.0189923],[92.2382913,23.0162669],[92.2327834,23.0108258]]}},{"type":"Feature","properties":{"osm_id":257617740,"group":"halda","version":17,"timestamp":"2022-06-13T20:22:37Z","tags":{"name":"হালদা নদী","name:en":"Halda River","wikidata":"Q2606655","waterway":"river"},"nodes":[2631041853,2631071249,6103866375,2631071253,6103866376,2631071255,2631071258,2631071259,2631071261,2631071263,2631071265,2631071267,2631071269,6103856544,6103856547,2631071271,2631071272,5356745200,2631071274,2631071276,2631071278,2631071280,2631071282,2631071284,2631071286,2631071288,2631071290,2631071292,2631071294,2631071296,2631071298,2631071301,2631071303,2631071305,2631071307,5365743683,2631071309,5365743684,2631071311,6112430123,2631071313,6112430122,6112430121,2631071315,6112430120,6112430119,2631071317,2631071319,2631071321,2631071323,2631071325,2631071327,2631071330,2631071332,2631071334,2631071341,2631071344,2631071345,2631071347,2631071349,2631071351,2631071353,2631071355,5367486181,2631071357,2631071360,2631071362,2631071364,2631071366,2631071368,2631071370,2631071372,2631071374,2631071376,2631071379,2631071381,2631071383,2631071385,2631071387,2631071389,2631071390,2631071392,5360330210,2631071394,2631071396,2631071398,6112191215,6112191214,6112191212,6112191213,2631071400,6112191560,6112191211,6112191559,6112191558,2631071402,5356738145,2631082474,6112191557,5356738146,2631082475,5356738147,2631082476,5356738148,2631082477,2631082478,5356596946,2631082479,5356596947,2631082480,6112191556,5356596948,2631082481,2631082482,5356596949,2631082483,5356596950,5356596951,2631082484,2631082485,5356596952,2631082486,2631082487,5356596953,2631082488,5356596954,2631082489,5356596955,2631082490,6112277371,6112277372,2631082491,6112689997,2631082492,6114693871,2631082493,2631082494,2631082495,2631082496,2631082497,2631082498,2631082499,6112181688,6112181689,6112181685,6112181584,2631082500,2631082501,6112181686,6112181687,2631082502,6112176846,2631082503,6112176844,6112176845,6112176843,2631082504,6112176842,2631082505,5356560699,2631082506,5356560700,2631082507,6112181732,5356560701,6112181733,2631082508,6112181735,6112181736,6112181734,2631082509,6112181739,6112181738,6112181737,2631082510,6112181740,6112181741,6112181742,2631082511,6112181743,6112181744,2631082512,5356353182,2631082513,5356353183,2631082514,2631082515,2631082516,5356353184,5356353185,2631082517,5356353186,2631082518,5356353187,5356353181,2631082519,2631082520,5356353189,5356353188,2631082521,5356353190,2631082522,2631082523,2631082524,2631082525,5356353191,5356353192,2631082526,2631082527,5356353193,2631082528,5356353194,2631082529,2631082530,2631082531,6112708250,5356129363,6112708251,2631082532,5356129362,2631082533,2631082534,6112708249,6112708248,2631082535,5356129361,2631082536,2631082537,5356129360,2631082538,5356129359,2631082539,2631082540,5356129358,2631082541,2631082542,2631082543,2631082544]},"geometry":{"type":"LineString","coordinates":[[91.7203488,22.79601],[91.7210132,22.7953615],[91.7212754,22.7949606],[91.7213389,22.7946289],[91.7212218,22.794204],[91.7209741,22.7938963],[91.719932,22.7932718],[91.719463,22.7930076],[91.7192546,22.7926233],[91.7192416,22.792191],[91.7195151,22.7914584],[91.7197385,22.7897886],[91.7197481,22.7887848],[91.7198163,22.7884102],[91.7200094,22.78798],[91.7201849,22.7878169],[91.7207006,22.7876512],[91.7213213,22.7877943],[91.7218469,22.7879154],[91.722381,22.7880596],[91.722824,22.7878794],[91.7237619,22.7862821],[91.7245826,22.7853933],[91.7259895,22.7847087],[91.7268753,22.7841202],[91.7269617,22.7835016],[91.7265916,22.7827399],[91.7267257,22.7821662],[91.7270707,22.7815019],[91.7274821,22.7807764],[91.7284125,22.7803369],[91.7301267,22.7806329],[91.7316822,22.7805771],[91.7326963,22.7802768],[91.733975,22.7796883],[91.7348582,22.779891],[91.7357336,22.7798805],[91.7360544,22.7796289],[91.7362286,22.779388],[91.7366979,22.7791841],[91.7373196,22.7791282],[91.7376892,22.7789875],[91.737834,22.7788711],[91.737857,22.7786794],[91.7376405,22.778392],[91.737504,22.7780842],[91.7374401,22.7777425],[91.7374271,22.7769738],[91.7376355,22.7763252],[91.7384562,22.7749199],[91.7387559,22.7743314],[91.738808,22.7736827],[91.7373359,22.7734065],[91.7369842,22.7729861],[91.7371275,22.7726017],[91.7377007,22.7724696],[91.7387689,22.7723855],[91.7392118,22.7719771],[91.7395114,22.7707399],[91.7399022,22.769779],[91.7406708,22.7691544],[91.7418041,22.7691184],[91.7443444,22.7692745],[91.7447584,22.7692313],[91.7464157,22.7690583],[91.747067,22.7688781],[91.7477705,22.7691904],[91.7483176,22.7691304],[91.748982,22.7680133],[91.7495421,22.7664157],[91.7504019,22.7651304],[91.751431,22.7644457],[91.7522517,22.7640253],[91.7527467,22.7634607],[91.7526946,22.7625598],[91.7524862,22.7614667],[91.7526295,22.7606738],[91.7532418,22.7601813],[91.7538019,22.759881],[91.7540494,22.7594846],[91.7540625,22.758932],[91.7548571,22.7581392],[91.7550149,22.7579958],[91.7557299,22.7573464],[91.7561728,22.7563613],[91.7578502,22.7543897],[91.7582256,22.7538356],[91.7583624,22.7536228],[91.7584053,22.7534547],[91.7583784,22.753284],[91.7581866,22.7528563],[91.7581531,22.752584],[91.7582041,22.7522971],[91.7583516,22.7519928],[91.7584401,22.751832],[91.7587131,22.7516649],[91.7590302,22.7513695],[91.7593992,22.7509239],[91.75956,22.7507796],[91.7596954,22.7507103],[91.7601717,22.7506197],[91.76072,22.7504939],[91.7611856,22.7502635],[91.7617714,22.749831],[91.762296,22.7492741],[91.7629398,22.748542],[91.7631072,22.7481984],[91.7629022,22.7477504],[91.7626136,22.7474267],[91.7625777,22.7470603],[91.7626834,22.7468157],[91.7628443,22.7465758],[91.763326,22.7463058],[91.7636908,22.7459892],[91.7638475,22.7449729],[91.763723,22.744045],[91.7637455,22.7435629],[91.7639601,22.742984],[91.7648012,22.7421106],[91.7654879,22.7415565],[91.766004,22.7413415],[91.7665768,22.7412596],[91.7676229,22.741314],[91.7682141,22.7414355],[91.7688138,22.7413338],[91.7692226,22.7409259],[91.7697526,22.7404631],[91.7701828,22.7400008],[91.7704231,22.7394785],[91.7702419,22.7390583],[91.7701738,22.7389429],[91.7699806,22.7386869],[91.7691609,22.7380218],[91.7682479,22.7375416],[91.7678225,22.7374132],[91.7663848,22.7364237],[91.7655909,22.7359141],[91.765033,22.7352165],[91.7640889,22.7347119],[91.7631876,22.7344843],[91.7626834,22.7339796],[91.7624677,22.7334623],[91.7625654,22.7332845],[91.7627719,22.7331039],[91.7630455,22.7329554],[91.7631581,22.7328639],[91.7632467,22.7327724],[91.7631662,22.7324928],[91.7631072,22.7323691],[91.7629221,22.7322628],[91.7625385,22.7321292],[91.7622958,22.7319498],[91.762092,22.7317148],[91.762033,22.7316035],[91.7619833,22.731481],[91.7619793,22.7313351],[91.7619967,22.731199],[91.7622945,22.7309516],[91.7626405,22.7307191],[91.7630589,22.730249],[91.7636479,22.7298405],[91.7637563,22.7296405],[91.7638099,22.7294079],[91.7637134,22.7292372],[91.7635846,22.7290714],[91.763362,22.7288785],[91.763075,22.7287103],[91.7629194,22.7286633],[91.7627746,22.7286645],[91.7625989,22.7286694],[91.7623253,22.7287065],[91.7620222,22.7287461],[91.7617969,22.7287548],[91.7616749,22.7287313],[91.7615951,22.7287029],[91.7615227,22.7286663],[91.7614523,22.7286064],[91.7613369,22.7284876],[91.7611331,22.7282204],[91.7610204,22.7279112],[91.7609373,22.7275821],[91.760861,22.7269609],[91.7608595,22.7265629],[91.7609453,22.7258009],[91.7611653,22.7253407],[91.761471,22.7252665],[91.7622274,22.7251577],[91.7627531,22.7248212],[91.7628819,22.7245886],[91.762855,22.7242522],[91.7625332,22.7239256],[91.761868,22.7236782],[91.7611867,22.7230548],[91.760897,22.7221889],[91.761058,22.7217584],[91.7612672,22.7214466],[91.7616373,22.7204719],[91.7616481,22.719695],[91.7616749,22.7191754],[91.7615504,22.7186828],[91.7612886,22.7183194],[91.760853,22.7183117],[91.7597587,22.7188461],[91.7592973,22.7188213],[91.7583264,22.7169163],[91.7576998,22.7162708],[91.7573994,22.7161669],[91.7566742,22.7159613],[91.756143,22.7155703],[91.7560744,22.7150882],[91.7563523,22.7146203],[91.75704,22.7139995],[91.7579241,22.7136925],[91.7594422,22.7131951],[91.7600725,22.7130021],[91.7602104,22.7128676],[91.7602694,22.7126758],[91.7602319,22.71252],[91.7601825,22.7123638],[91.7598617,22.7114412],[91.7591632,22.7105823],[91.7585034,22.7097585],[91.7578903,22.7095756],[91.757606,22.7095261],[91.7573367,22.7095382],[91.7568174,22.7088977],[91.7564301,22.7081056],[91.7560438,22.706762],[91.7561012,22.7063417],[91.7562235,22.7058713],[91.7564982,22.7057256],[91.7567814,22.7056931],[91.7579911,22.7058193],[91.7583007,22.7056044],[91.7585624,22.7053368],[91.7592223,22.7042085],[91.7598123,22.7027338],[91.7604507,22.7015559]]}},{"type":"Feature","properties":{"osm_id":651892151,"group":"halda","version":3,"timestamp":"2024-03-29T15:37:48Z","tags":{"name":"Halda River","waterway":"river"},"nodes":[2631082544,5355965632,2631084105,5355965633,5355965634,2631084107,2631084109,5355965635,2631084110,5355965636,5355965637,5355965638,2631084111,5354381933,2631084113,5354381934,6112587060,6112580344,2631084115,2631084117,5354381935,6112580342,2631084119,2631084121,6112581903,6112580343,6112581904,6112453791]},"geometry":{"type":"LineString","coordinates":[[91.7604507,22.7015559],[91.760602,22.7010589],[91.7604346,22.7006998],[91.760205,22.7005789],[91.7599153,22.7006036],[91.75941,22.7007196],[91.7587448,22.7006206],[91.7580646,22.7001632],[91.7578597,22.6996853],[91.7580217,22.6992575],[91.7583328,22.6988715],[91.7586386,22.6982678],[91.75919,22.6977305],[91.7598081,22.6971493],[91.7603219,22.6961914],[91.7604866,22.694759],[91.7608434,22.6940066],[91.7610338,22.6935291],[91.7611588,22.6932417],[91.762103,22.6910047],[91.7625117,22.6902304],[91.7625922,22.6898147],[91.7626393,22.6893912],[91.7627144,22.6876788],[91.7627759,22.6875355],[91.7628725,22.6873883],[91.7631179,22.6870901],[91.7636195,22.6864343]]}},{"type":"Feature","properties":{"osm_id":257617991,"group":"halda","version":15,"timestamp":"2024-03-29T15:36:39Z","tags":{"name":"Halda River","waterway":"river"},"nodes":[2631084123,2631084125,5354180188,2631084127,2631084129,2631084131,2631084133,5353842707,2631084135,5353842713,2631084137,5353842712,2631084138,5353842711,2631084139,5353842710,5353842709,2631084140,5353842708,2631084141,2631084142,2631084143,2631084144,5354469848,2631084146,5354469847,2631084153,2631084155,2631084157,2631084159,6114871130,6114871129,2631084161,6114871128,2631084163,6114871127,6114871126,2631084165,6114871125,6114871124,6114871123,2631084167,6114871122,2631084169,5353930750,2631084171,5353930751,2631084173,5350618805,2631084175,5350618804,2631084176,5350618803,2631084177,5350618802,2631084178,2631084179,5350606345,5350618801,2631084180,5350618800,5350606344,5350606343,2631084181,5350606342,2631084182,5350606341,2631084183,5350606340,2631084184,5350606339,2631084185,5350341289,5350341288,2631084186,5350341871,5350341287,2631084187,5350341286,2631084188,5350341285,2631084189,5350341284,5350341870,2631084190,2631084191,2631084192,2631084193,2631084194,5350341869,2631084195,5350341868,2631084196,5350341867,5350341866,2631084197,2631084198,2631084199]},"geometry":{"type":"LineString","coordinates":[[91.76379,22.6861594],[91.7659224,22.6817593],[91.7664374,22.6811468],[91.7669524,22.680314],[91.7676282,22.6792152],[91.7675317,22.6780471],[91.7671294,22.6760721],[91.766991,22.674986],[91.7669873,22.6741046],[91.7670447,22.6736272],[91.7672742,22.6732186],[91.7678493,22.6730902],[91.7684463,22.6730701],[91.7688659,22.6732585],[91.7690632,22.6735676],[91.7687023,22.6742039],[91.7684367,22.6747286],[91.7682827,22.6752851],[91.7682892,22.6764263],[91.7689479,22.677463],[91.7705787,22.6787301],[91.7717803,22.6788489],[91.7731107,22.6781956],[91.7739701,22.6773816],[91.7742828,22.6770596],[91.7742866,22.6761491],[91.773851,22.6752505],[91.7710508,22.672137],[91.7701818,22.671048],[91.7696238,22.6696225],[91.769661,22.6691619],[91.769826,22.6685686],[91.7702043,22.6682135],[91.7705751,22.6680313],[91.7710495,22.6681743],[91.7717757,22.6683796],[91.7725059,22.6683166],[91.773623,22.6681567],[91.7752899,22.6683129],[91.7761105,22.668556],[91.7766952,22.6686451],[91.7773861,22.6688602],[91.778098,22.6691278],[91.7796473,22.6691547],[91.7807212,22.6687367],[91.7815436,22.6680162],[91.781998,22.6672319],[91.7821015,22.6663554],[91.7821884,22.6653385],[91.7819352,22.664316],[91.7813516,22.6632743],[91.780519,22.6622715],[91.7804182,22.6620021],[91.7804278,22.6615439],[91.7809814,22.6608684],[91.7814148,22.6601133],[91.7826808,22.6589697],[91.7828321,22.6587101],[91.7827892,22.658423],[91.7826432,22.6581479],[91.7818612,22.657923],[91.7811477,22.6578091],[91.7800856,22.6577225],[91.779473,22.6577865],[91.7781705,22.6580121],[91.7766512,22.6581776],[91.775904,22.6578611],[91.7753852,22.6573262],[91.7752683,22.6567893],[91.7753101,22.6560391],[91.7759818,22.6555517],[91.7766727,22.6551678],[91.7776179,22.6547893],[91.7786828,22.6546879],[91.779827,22.6547172],[91.7807776,22.6546903],[91.7815474,22.6544626],[91.7822624,22.6541727],[91.7828214,22.6537794],[91.7834265,22.6534599],[91.7839533,22.6533537],[91.7844565,22.6534079],[91.7848465,22.6535468],[91.7851174,22.6538438],[91.7855132,22.6544598],[91.7860872,22.6560688],[91.7868007,22.6565984],[91.7874874,22.6563856],[91.7878146,22.6556875],[91.7878157,22.6549032],[91.7872084,22.6517816],[91.7871076,22.6506457],[91.7871816,22.6504003],[91.7873704,22.6501704],[91.7882127,22.6497249],[91.7888767,22.6492171],[91.7901052,22.6485339],[91.7916448,22.6479151]]}},{"type":"Feature","properties":{"osm_id":650444530,"group":"halda","version":2,"timestamp":"2018-11-29T06:45:14Z","tags":{"name":"Halda river","waterway":"river"},"nodes":[2631084199,5342075649,2631084773,5342075648,2631084774,6102239698,6102239697,6102239699,6102239696,2631084775,5340634293,2631084776,5340676249,5340634280,5340634281,2631084777,2631084778,5338318620,5338319921,5338319922,2631084779,5338319923,5338319924,6101678492,2631084780,5338319925,5338319926,6101961469]},"geometry":{"type":"LineString","coordinates":[[91.7916448,22.6479151],[91.793105,22.6474277],[91.7934794,22.6469695],[91.7935717,22.6459177],[91.7934097,22.6447911],[91.7928931,22.6436923],[91.7925552,22.6432022],[91.7921689,22.6427591],[91.7913616,22.6418233],[91.7906416,22.6407908],[91.7895455,22.6390162],[91.7892469,22.6385331],[91.7892784,22.6382952],[91.7893231,22.6379566],[91.7895591,22.6376001],[91.7901481,22.6363546],[91.7918271,22.6343989],[91.7922091,22.6339461],[91.7925471,22.6334361],[91.7928475,22.6324657],[91.7932862,22.6310221],[91.7935288,22.6302178],[91.7938399,22.6295295],[91.794084,22.6291804],[91.7943752,22.6288335],[91.7951006,22.6284006],[91.7964148,22.6278708],[91.7973,22.6274771]]}},{"type":"Feature","properties":{"osm_id":650444529,"group":"halda","version":1,"timestamp":"2018-11-29T05:48:19Z","tags":{"name":"Halda river","waterway":"river"},"nodes":[6101961469,2631084781]},"geometry":{"type":"LineString","coordinates":[[91.7973,22.6274771],[91.7980767,22.6271228]]}},{"type":"Feature","properties":{"osm_id":257618058,"group":"halda","version":13,"timestamp":"2022-06-13T20:22:37Z","tags":{"name":"হালদা নদী","name:en":"Halda River","wikidata":"Q2606655","waterway":"river"},"nodes":[2631084781,5338319927,2631084782,5336301545,2631084783,2631084784,2631084785,5336301546,2631084786,5336301544,2631084787,2631084788,5336301543,2631084789,2631084790,2631084791,5336482863,2631084792,5336584984,5336584985,2631084793,2631084794,2631084795,2631084853,5332996584,5332996583,2631084854,5332996582,5332996581,2631084855,5332996580,5332996579,5332996578,2631084856,5332996577,1215635150]},"geometry":{"type":"LineString","coordinates":[[91.7980767,22.6271228],[91.800347,22.626014],[91.8017138,22.625006],[91.8022889,22.624375],[91.8026471,22.6234314],[91.8025721,22.6210843],[91.8028081,22.619579],[91.8033832,22.6185122],[91.8042243,22.618034],[91.8057489,22.6170365],[91.8078507,22.6155383],[91.8101144,22.6144538],[91.8107808,22.6138277],[91.8111552,22.6131811],[91.8113912,22.6115569],[91.8116058,22.6097741],[91.8119609,22.609044],[91.8125285,22.6085856],[91.813809,22.6079297],[91.8146998,22.6070313],[91.8154896,22.606466],[91.8166054,22.6057529],[91.8179304,22.6045148],[91.8192099,22.6029028],[91.8195033,22.6023361],[91.8196267,22.6018607],[91.8197517,22.6013527],[91.8198091,22.6006869],[91.8197608,22.600313],[91.8196524,22.5999809],[91.8195167,22.5996147],[91.8193504,22.5992458],[91.8191761,22.5989288],[91.8189416,22.5987428],[91.8185028,22.5984756],[91.8181268,22.5982608]]}},{"type":"Feature","properties":{"osm_id":30667147,"group":"halda","version":28,"timestamp":"2024-05-16T17:31:19Z","tags":{"name":"হালদা নদী","name:bn":"হালদা নদী","name:en":"Halda River","wikidata":"Q2606655","waterway":"river"},"nodes":[1215635150,5332996576,1215635085,5332996575,5332996574,5332996573,5332996572,1215634534,5332996571,5332996569,5332996570,5332996568,1215634640,11910407031,5332996567,11910407030,11910407028,11910407029,1215634641,11910407027,11910407024,11910407026,11910407025,1215634657,11910407023,11910407018,1215634780,11910407017,11910407016,11910407021,11910407015,11910407020,1215634797,11910407019,11910407012,11910407022,11910407014,11910407013,1215635041,11910407011,11910407010,1215634894,11910407006,11910407007,11910407005,11910407009,11910407008,1215635152,11910407002,11910407003,11910407004,1215635674,11910407001,11910407032,1215635145,11910406999,11910407000,1215634342,11910406998,11910407033,11910406997,11910406996,11910407034,11910406994,11910407035,11910406993,11910406995,1215634171,11910406992,11910407036,1215634194,11910406991,11910407037,1215635707,11910407038,11910406990,11910406989,1215634494,11910406988,11910406983,11910406984,11910406985,11910406986,11910406987,1215634280,11910406982,11910407039,11910406980,11910406981,11910406978,11910406979,1215635748,11910407040,11910406977,11910406976,1215633859,11910406975,1215635533,11910406974,11910407041,11910406973,11910407042,1215634256,11910406972,1215633850,11910406971,11910406970,11910406969,11910406968,1215635675,11771869376,11910406948,11910406947,11910406949,11771869375,11910406950,11910406945,11910406951,11771869374,11910406946,11910406944,11771869373,11910406933,11910406934,11771869372,11910406932,11910406930,11910406931,11771869371,11910406929,11771869370,11771869369,11910406924,11910406922,11910406923,11771855968,11910406921,11771855967,11910406911,11910406920,11771855966,11910406910,11910406909,11910406912,11910406913,11771855965,11910406914,11910406915,11771855964,11910406887,11771855963,11910406886,11771855962,339140259,339140260,11909833721,339140261,11909833702,339140262,11909833701,11909833698,11909833700,11909833724,11909833699,339140263,11909833697,11909833725,339140264,11909833696,11909833726,11909833695,339140265,339140266,339140267,339140268,6125949187,339140269,1215634282,11910406872,339139603,339139605,11909833691,339139606,11909833690,11909833689,11909833688,1215634401,11909833687,1470117409,6124782250,1470117407,1470117400,11909833683,1470117396,11909833678,11909833679,5047246799,11909833680,1470117380,1470117370,1470117343,5053060351,1470117340,5052693889,1470117371,6125984397,1470117377,1470117374,6125984396,1470117310,1470117308,6121212760,6121212759,1470117357,6121212758,6121212757,1470117352,1470117339,6121212756,1470117306,5044593525,5044593377,5044593524,1470117304,1470117289,5044593522,1470117291,1470117290,1470117286,1470117271,6121217960,1470117263,1470117251,1470117238,1470117234,1470117233,1215635175,5044698863,1470117229,5045732978,1470117214,1470117213,1470117212,5055426204,5055426205,1470117225,5055426213,6127649123,1470117226,1470117215,1470117210,1470117208,1470117207,1470117198,1470117193,1470117172,1470117128,1470117125,1470117116,1470117102,5047327396,1472532182,6127506412,1470117080,1470117060,5047292980,1470117061,1470117052,1470117051,5597883901,1470117050,1470117041,6129720441,1470117039,1470117034,6127820315,339164673]},"geometry":{"type":"LineString","coordinates":[[91.8181268,22.5982608],[91.8176606,22.5979606],[91.8171102,22.5975972],[91.8166682,22.5972003],[91.8164429,22.5967323],[91.8163758,22.5963411],[91.8164402,22.5960513],[91.8165898,22.595787],[91.8171698,22.5948974],[91.8172958,22.5946473],[91.8174085,22.5943724],[91.8174621,22.5940406],[91.8174965,22.5935386],[91.8174015,22.5930888],[91.8172744,22.592738],[91.8169363,22.5922522],[91.8161798,22.5915286],[91.8158229,22.5908818],[91.8157235,22.5902647],[91.8159582,22.5894821],[91.8160642,22.5887392],[91.8158891,22.5883009],[91.8156498,22.5878031],[91.8153963,22.5869661],[91.8154633,22.5864968],[91.8156055,22.5860275],[91.816378,22.5850691],[91.8167414,22.5849304],[91.8171263,22.5850047],[91.8173342,22.5851731],[91.8174777,22.5853712],[91.8176306,22.5858343],[91.8178263,22.5862182],[91.8180543,22.5864559],[91.8183253,22.5866541],[91.81868,22.5867067],[91.8190347,22.5867098],[91.8196369,22.5865674],[91.8200687,22.5862628],[91.8202578,22.5858021],[91.8202323,22.5849849],[91.8203959,22.5844202],[91.8205864,22.5841589],[91.8209123,22.5839292],[91.8212918,22.5838977],[91.8219516,22.5841905],[91.8224291,22.584315],[91.8228153,22.5842568],[91.8231506,22.5839992],[91.8234416,22.5835039],[91.8235549,22.582855],[91.8239472,22.5820477],[91.8244997,22.581223],[91.8259615,22.5797556],[91.8274877,22.5784368],[91.8284748,22.5772877],[91.8288315,22.576515],[91.8288771,22.5759602],[91.8287849,22.5756054],[91.8286691,22.5754429],[91.8284996,22.5752902],[91.8281221,22.5751553],[91.8276963,22.5749856],[91.8274528,22.5748259],[91.827202,22.5746252],[91.8269942,22.574385],[91.82697,22.5741473],[91.827021,22.5739491],[91.8280724,22.5731912],[91.8288824,22.5725894],[91.8296388,22.5722055],[91.8304971,22.5719232],[91.8308994,22.5718216],[91.8313018,22.5717399],[91.8321078,22.5717832],[91.8329728,22.5718365],[91.8340323,22.5719925],[91.8350355,22.5723442],[91.8360949,22.5727937],[91.8368325,22.5728668],[91.8373073,22.5727615],[91.8375393,22.5725306],[91.837607,22.5721575],[91.8374692,22.571758],[91.8372777,22.5714773],[91.836628,22.5706408],[91.8363406,22.5702424],[91.8361552,22.5698142],[91.8360097,22.5688464],[91.8360412,22.5681163],[91.836292,22.5674835],[91.8365964,22.5668804],[91.8370296,22.5663739],[91.8375057,22.5658971],[91.838694,22.5649732],[91.841226,22.5634475],[91.8426315,22.5628183],[91.844112,22.5621892],[91.8446608,22.5617382],[91.8448761,22.5615126],[91.8450378,22.5612871],[91.8451628,22.5608906],[91.8452126,22.5604941],[91.8451156,22.5595582],[91.8449435,22.5586621],[91.8447874,22.5582258],[91.8445562,22.5578193],[91.8440133,22.5570558],[91.8430027,22.5558855],[91.8410672,22.553743],[91.8394457,22.5514674],[91.8392354,22.5510062],[91.8391002,22.550545],[91.8390884,22.5502175],[91.8391302,22.5499198],[91.8392372,22.5496018],[91.8393872,22.5493333],[91.8395961,22.549035],[91.8398587,22.5487467],[91.8402024,22.5486717],[91.8405461,22.5486463],[91.8411477,22.5487639],[91.842442,22.5493676],[91.8431696,22.5498577],[91.8437255,22.5500406],[91.8441285,22.5499973],[91.8444564,22.5499242],[91.8446824,22.5497323],[91.8447903,22.5495403],[91.8449419,22.5482704],[91.8452759,22.5467627],[91.8461539,22.5434675],[91.8461906,22.5427265],[91.8461414,22.5420746],[91.8459099,22.5414772],[91.8455925,22.5409294],[91.8450878,22.5405897],[91.8444167,22.5404482],[91.843033,22.5405386],[91.8423895,22.5406581],[91.8417674,22.5406984],[91.8413386,22.5405126],[91.8409849,22.5402476],[91.8407144,22.5399008],[91.8407347,22.539658],[91.8408301,22.5394648],[91.8411446,22.5391876],[91.8418651,22.5389698],[91.8426607,22.5388609],[91.8436702,22.5384828],[91.8443793,22.5380155],[91.8448004,22.5374625],[91.8450283,22.5369096],[91.8458414,22.5345713],[91.8470204,22.5314259],[91.8473557,22.5304488],[91.8475408,22.5294816],[91.8474544,22.5287909],[91.8472178,22.5282687],[91.8470132,22.5281619],[91.8467442,22.5281046],[91.8462476,22.5281727],[91.8451893,22.5288855],[91.8440558,22.5293209],[91.8430304,22.5293181],[91.84178,22.5290391],[91.8411977,22.528751],[91.8406583,22.5284034],[91.8402251,22.5277208],[91.8400675,22.5274093],[91.8399743,22.5270383],[91.8401325,22.5259209],[91.8410767,22.5246157],[91.8427343,22.5237337],[91.8460216,22.5227902],[91.8472143,22.5221372],[91.8481385,22.521413],[91.8483282,22.521028],[91.8485205,22.5204946],[91.8486378,22.5199612],[91.8482961,22.5185564],[91.8477076,22.5178468],[91.8471192,22.5172858],[91.846197,22.51699],[91.844454,22.516486],[91.8429635,22.5158448],[91.8425576,22.5154346],[91.8426495,22.5147798],[91.8429346,22.5144719],[91.8457224,22.5141957],[91.8473672,22.5139691],[91.8497264,22.5130501],[91.8500554,22.5122192],[91.8501806,22.5109919],[91.8503375,22.5092592],[91.85136,22.5077287],[91.8521841,22.5061834],[91.8522555,22.5050288],[91.8520961,22.5037156],[91.8521916,22.5023766],[91.8526274,22.5016652],[91.8539416,22.5012108],[91.8555299,22.5016219],[91.8591282,22.5024473],[91.8596535,22.5025678],[91.8606108,22.5034532],[91.8616919,22.5036699],[91.8629787,22.5035484],[91.86369,22.5018673],[91.8647259,22.5007627],[91.8653007,22.5005706],[91.865809,22.500544],[91.8665385,22.5007819],[91.8675328,22.5013731],[91.8683088,22.5017533],[91.8691563,22.5019912],[91.8702773,22.5019256],[91.8711711,22.5017192],[91.8716133,22.5012775],[91.8719331,22.5007163],[91.8723756,22.4995032],[91.8725738,22.499067],[91.8728604,22.4984364],[91.8737591,22.4973164],[91.8740057,22.4970559],[91.8741334,22.4970098],[91.8749303,22.4967219],[91.8756158,22.4962268],[91.8766193,22.4950524],[91.8770404,22.493794],[91.8770528,22.4917616],[91.8764148,22.489682],[91.8755055,22.4875852],[91.876272,22.4864326],[91.8784437,22.4860785],[91.880793,22.4860733],[91.881561,22.4843255],[91.8813082,22.4821303],[91.8809008,22.4793372],[91.8805287,22.4780511],[91.8773605,22.4699632],[91.8762939,22.4683716],[91.8746796,22.4677522],[91.8737751,22.467845],[91.8724984,22.4689207],[91.8713356,22.4719677],[91.8696445,22.4728617],[91.8685596,22.4733333],[91.8672861,22.4729435],[91.8643162,22.4704494],[91.8577328,22.4672576],[91.8557975,22.4653985],[91.854752,22.4634987],[91.856225,22.4613886],[91.8574361,22.4603438],[91.8579882,22.4593376],[91.8583567,22.4581034],[91.8585896,22.4550532],[91.8609769,22.4493587],[91.8673617,22.44058],[91.8678702,22.4399814],[91.8713697,22.4358618],[91.873496,22.4338341],[91.8767113,22.4307679],[91.8796409,22.4297451],[91.8799915,22.4297563],[91.8887268,22.4300361],[91.8899301,22.42787],[91.8878649,22.4230553],[91.8860747,22.421492],[91.8829122,22.4187304],[91.8832412,22.4171085],[91.8865293,22.4145611],[91.8889085,22.4127178],[91.891733,22.4076863],[91.8925199,22.4055092],[91.8934674,22.4028877]]}}]}