{"type":"FeatureCollection","properties":{"licence":"ODbL 1.0 — © OpenStreetMap contributors","fetched":"2026-09-20","queries":{"northernLimitLine":"[out:json][timeout:180];way[\"name\"=\"북방한계선\"];out tags geom;","siegfriedLine":"[out:json][timeout:180];rel(1629004);way(r)[\"barrier\"=\"tank_trap\"];out tags geom;"},"excludedWays":[979904704]},"features":[{"type":"Feature","properties":{"id":"northernLimitLine","osmWay":367998876,"tags":{"admin_level":"2","border_type":"nation","boundary":"administrative","left:country":"North Korea","maritime":"yes","name":"북방한계선","name:en":"Northern Limit Line","right:country":"South Korea","wikipedia":"ko:북방한계선"}},"geometry":{"type":"LineString","coordinates":[[124.63333,38.05],[124.85,38]]}},{"type":"Feature","properties":{"id":"northernLimitLine","osmWay":367998877,"tags":{"admin_level":"2","border_type":"nation","boundary":"administrative","left:country":"North Korea","maritime":"yes","name":"북방한계선","name:en":"Northern Limit Line","right:country":"South Korea","wikipedia":"ko:북방한계선"}},"geometry":{"type":"LineString","coordinates":[[124.85,38],[124.855,37.93013],[124.859,37.87412]]}},{"type":"Feature","properties":{"id":"northernLimitLine","osmWay":369342741,"tags":{"admin_level":"2","border_type":"nation","boundary":"administrative","left:country":"North Korea","maritime":"yes","name":"북방한계선","right:country":"South Korea","wdb:source":"CIA World database II - asia-bdy.txt - segment 158"}},"geometry":{"type":"LineString","coordinates":[[128.39321,38.6156],[128.52795,38.61669],[128.65379,38.6177]]}},{"type":"Feature","properties":{"id":"northernLimitLine","osmWay":459670476,"tags":{"admin_level":"2","border_type":"nation","boundary":"administrative","left:country":"North Korea","maritime":"yes","name":"북방한계선","right:country":"South Korea","source":"https://bemil.chosun.com/nbrd/bbs/view.html?b_bbs_id=10002&num=9320"}},"geometry":{"type":"LineString","coordinates":[[128.3768,38.61547],[128.39321,38.6156]]}},{"type":"Feature","properties":{"id":"northernLimitLine","osmWay":587847393,"tags":{"admin_level":"2","border_type":"nation","boundary":"administrative","left:country":"North Korea","maritime":"yes","name":"북방한계선","name:en":"Northern Limit Line","right:country":"South Korea","wikipedia":"ko:북방한계선"}},"geometry":{"type":"LineString","coordinates":[[124.86667,37.76667],[124.97755,37.68737]]}},{"type":"Feature","properties":{"id":"northernLimitLine","osmWay":587847394,"tags":{"admin_level":"2","border_type":"nation","boundary":"administrative","left:country":"North Korea","maritime":"yes","name":"북방한계선","name:en":"Northern Limit Line","right:country":"South Korea","wikipedia":"ko:북방한계선"}},"geometry":{"type":"LineString","coordinates":[[124.859,37.87412],[124.86667,37.76667]]}},{"type":"Feature","properties":{"id":"northernLimitLine","osmWay":587847399,"tags":{"admin_level":"2","border_type":"nation","boundary":"administrative","left:country":"North Korea","maritime":"yes","name":"북방한계선","name:en":"Northern Limit Line","right:country":"South Korea","wikipedia":"ko:북방한계선"}},"geometry":{"type":"LineString","coordinates":[[125.42631,37.64921],[125.51667,37.68193],[125.66667,37.69028],[125.695,37.69166],[125.75001,37.71471]]}},{"type":"Feature","properties":{"id":"northernLimitLine","osmWay":777198768,"tags":{"admin_level":"2","border_type":"nation","boundary":"administrative","left:country":"North Korea","maritime":"yes","name":"북방한계선","name:en":"Northern Limit Line","right:country":"South Korea","wikipedia":"ko:북방한계선"}},"geometry":{"type":"LineString","coordinates":[[124.97755,37.68737],[125.04722,37.6375],[125.24444,37.58333],[125.42631,37.64921]]}},{"type":"Feature","properties":{"id":"northernLimitLine","osmWay":861129204,"tags":{"admin_level":"2","border_type":"nation","boundary":"administrative","left:country":"North Korea","maritime":"yes","name":"북방한계선","name:en":"Northern Limit Line","right:country":"South Korea","wikipedia":"ko:북방한계선"}},"geometry":{"type":"LineString","coordinates":[[125.75001,37.71471],[126.01444,37.67998]]}},{"type":"Feature","properties":{"id":"northernLimitLine","osmWay":861129205,"tags":{"admin_level":"2","border_type":"nation","boundary":"administrative","left:country":"North Korea","maritime":"yes","name":"북방한계선","name:en":"Northern Limit Line","right:country":"South Korea","wikipedia":"ko:북방한계선"}},"geometry":{"type":"LineString","coordinates":[[126.01444,37.67998],[126.10276,37.7077],[126.11111,37.71249]]}},{"type":"Feature","properties":{"id":"siegfriedLine","osmWay":22066578,"tags":{"abandoned:military":"tank_trap","accociated_with":"Westwall","barrier":"tank_trap","disused":"yes","heritage":"8","heritage:operator":"UntereDenkmalbehörde","name":"Höckerlinie","natural":"scrub"}},"geometry":{"type":"LineString","coordinates":[[6.03905,50.82379],[6.0391,50.82381],[6.03922,50.82385],[6.03951,50.82326],[6.03986,50.82259],[6.03987,50.82256],[6.0398,50.82253],[6.03897,50.82231],[6.03849,50.82218],[6.03841,50.82229],[6.03961,50.82261],[6.03964,50.82263],[6.03965,50.82264],[6.0396,50.82275],[6.03921,50.82346],[6.03905,50.82377],[6.03905,50.82379]]}},{"type":"Feature","properties":{"id":"siegfriedLine","osmWay":22070010,"tags":{"abandoned:military":"tank_trap","accociated_with":"Westwall","barrier":"tank_trap","disused":"yes","heritage":"8","heritage:operator":"UntereDenkmalbehörde","name":"Höckerlinie","natural":"scrub"}},"geometry":{"type":"LineString","coordinates":[[6.03755,50.82671],[6.03835,50.82714],[6.03869,50.82735],[6.03939,50.82723],[6.04024,50.82707],[6.04291,50.8268],[6.04428,50.82667],[6.04631,50.82936],[6.04962,50.82965],[6.04968,50.82955],[6.04644,50.82924],[6.04439,50.82653],[6.04424,50.82654],[6.04018,50.82696],[6.0402,50.82702],[6.03931,50.82718],[6.03871,50.82727],[6.03843,50.82709],[6.0378,50.82676],[6.03787,50.8267],[6.03775,50.82665],[6.03755,50.82671]]}},{"type":"Feature","properties":{"id":"siegfriedLine","osmWay":22071074,"tags":{"abandoned:military":"tank_trap","accociated_with":"Westwall","barrier":"tank_trap","disused":"yes","heritage":"8","heritage:operator":"UntereDenkmalbehörde","is_in":"Eifel, Nordrhein-Westfalen, Bundesrepublik Deutschland","name":"Höckerlinie","natural":"wood"}},"geometry":{"type":"LineString","coordinates":[[6.03649,50.82181],[6.03387,50.82112],[6.03385,50.82056],[6.03405,50.82056],[6.03408,50.82104],[6.03657,50.82171],[6.03649,50.82181]]}},{"type":"Feature","properties":{"id":"siegfriedLine","osmWay":22071078,"tags":{"abandoned:military":"tank_trap","accociated_with":"Westwall","barrier":"tank_trap","disused":"yes","name":"Höckerlinie","natural":"wood"}},"geometry":{"type":"LineString","coordinates":[[6.03376,50.81812],[6.03393,50.81819],[6.03392,50.81748],[6.0339,50.81672],[6.03253,50.81595],[6.02976,50.81438],[6.02963,50.81454],[6.03371,50.81677],[6.03376,50.81812]]}},{"type":"Feature","properties":{"id":"siegfriedLine","osmWay":22077114,"tags":{"abandoned:military":"tank_trap","accociated_with":"Westwall","barrier":"tank_trap","disused":"yes","name":"Höckerlinie","natural":"scrub"}},"geometry":{"type":"LineString","coordinates":[[6.02755,50.81346],[6.0279,50.81344],[6.0278,50.81338],[6.02779,50.81313],[6.02815,50.80989],[6.02795,50.8098],[6.02763,50.81314],[6.02763,50.81339],[6.02755,50.81346]]}},{"type":"Feature","properties":{"id":"siegfriedLine","osmWay":22077115,"tags":{"abandoned:military":"tank_trap","accociated_with":"Westwall","barrier":"tank_trap","disused":"yes","heritage":"8","heritage:operator":"UntereDenkmalbehörde","name":"Höckerlinie","natural":"wood"}},"geometry":{"type":"LineString","coordinates":[[6.02805,50.80904],[6.02818,50.80769],[6.02547,50.80734],[6.02151,50.80687],[6.02173,50.80524],[6.02207,50.80505],[6.02179,50.80672],[6.02841,50.80755],[6.02832,50.8089],[6.02805,50.80904]]}},{"type":"Feature","properties":{"id":"siegfriedLine","osmWay":22083045,"tags":{"abandoned:military":"tank_trap","accociated_with":"Westwall","barrier":"tank_trap","disused":"yes","heritage":"8","heritage:operator":"UntereDenkmalbehörde","name":"Höckerlinie"}},"geometry":{"type":"LineString","coordinates":[[6.0157,50.79613],[6.01584,50.79608],[6.01565,50.79388],[6.0155,50.79379],[6.0157,50.79613]]}},{"type":"Feature","properties":{"id":"siegfriedLine","osmWay":22083341,"tags":{"abandoned:military":"tank_trap","accociated_with":"Westwall","barrier":"tank_trap","disused":"yes","heritage":"8","heritage:operator":"UntereDenkmalbehörde","name":"Höckerlinie"}},"geometry":{"type":"LineString","coordinates":[[6.01554,50.79373],[6.01566,50.7938],[6.02043,50.79257],[6.02033,50.7925],[6.01554,50.79373]]}},{"type":"Feature","properties":{"id":"siegfriedLine","osmWay":24039432,"tags":{"abandoned:military":"tank_trap","accociated_with":"Westwall","barrier":"tank_trap","disused":"yes","heritage":"8","heritage:operator":"UntereDenkmalbehörde","name":"Höckerlinie","natural":"wood","wikimedia_commons":"File:Panzersperren Aachen-Köpfchen.JPG"}},"geometry":{"type":"LineString","coordinates":[[6.08947,50.723],[6.0895,50.72289],[6.08954,50.7228],[6.08956,50.72275],[6.08953,50.72269],[6.08956,50.72261],[6.08966,50.72235],[6.08978,50.72237],[6.08987,50.72217],[6.08992,50.72209],[6.08996,50.72203],[6.08988,50.72196],[6.08966,50.72189],[6.08962,50.72207],[6.08961,50.7221],[6.08944,50.72237],[6.08901,50.72247],[6.08893,50.72256],[6.08878,50.72265],[6.08843,50.72272],[6.0871,50.72293],[6.0868,50.72293],[6.086,50.72274],[6.08558,50.72267],[6.08361,50.72226],[6.08347,50.72228],[6.08072,50.72379],[6.08059,50.72381],[6.07959,50.72361],[6.07813,50.7239],[6.07791,50.72408],[6.07963,50.72385],[6.08002,50.72388],[6.08051,50.72397],[6.08071,50.72399],[6.08084,50.72393],[6.08357,50.72251],[6.08367,50.72249],[6.08377,50.7225],[6.08556,50.72289],[6.08681,50.72314],[6.08702,50.72317],[6.08849,50.72291],[6.08871,50.72279],[6.08893,50.72276],[6.089,50.72287],[6.08908,50.72293],[6.08929,50.72298],[6.08947,50.723]]}},{"type":"Feature","properties":{"id":"siegfriedLine","osmWay":24526435,"tags":{"abandoned:military":"tank_trap","area":"yes","barrier":"tank_trap","name":"Höckerlinie","old_name":"Westwall","tourism":"attraction"}},"geometry":{"type":"LineString","coordinates":[[8.03716,49.04502],[8.03624,49.0451],[8.03138,49.04673],[8.03159,49.04678],[8.03633,49.04522],[8.03636,49.04514],[8.03711,49.04508],[8.03777,49.04533],[8.03782,49.04529],[8.03718,49.04503],[8.03716,49.04502]]}},{"type":"Feature","properties":{"id":"siegfriedLine","osmWay":31024311,"tags":{"abandoned:military":"tank_trap","accociated_with":"Westwall","barrier":"tank_trap","disused":"yes","heritage":"8","heritage:operator":"UntereDenkmalbehörde","image":"File:Panzersperren Horbach.JPG","is_in":"Eifel, Nordrhein-Westfalen, Bundesrepublik Deutschland","name":"Höckerlinie"}},"geometry":{"type":"LineString","coordinates":[[6.04983,50.82967],[6.04985,50.82963],[6.05016,50.82972],[6.05099,50.83065],[6.05088,50.83069],[6.05006,50.82972],[6.04983,50.82967]]}},{"type":"Feature","properties":{"id":"siegfriedLine","osmWay":31024497,"tags":{"abandoned:military":"tank_trap","accociated_with":"Westwall","barrier":"tank_trap","disused":"yes","heritage":"8","heritage:operator":"UntereDenkmalbehörde","historic":"yes","image":"https://commons.wikimedia.org/wiki/Category:Cultural_heritage_monuments_in_Herzogenrath#/media/File:HZ_132_Panzerbefestigung_Westwall.JPG","is_in":"Eifel, Nordrhein-Westfalen, Bundesrepublik Deutschland","name":"Höckerlinie","ref:Herzogenrath":"000133-01","start_date":"1938-10"}},"geometry":{"type":"LineString","coordinates":[[6.06197,50.83766],[6.06204,50.83757],[6.06703,50.83918],[6.06697,50.83929],[6.06501,50.83866],[6.06197,50.83766]]}},{"type":"Feature","properties":{"id":"siegfriedLine","osmWay":31024709,"tags":{"abandoned:military":"tank_trap","accociated_with":"Westwall","barrier":"tank_trap","disused":"yes","heritage":"8","heritage:operator":"UntereDenkmalbehörde","historic":"yes","image":"https://commons.wikimedia.org/wiki/Category:Cultural_heritage_monuments_in_Herzogenrath#/media/File:HZ_131_Panzerbefestigung_Westwall_1.JPG","name":"Höckerlinie","ref:Herzogenrath":"000131-01"}},"geometry":{"type":"LineString","coordinates":[[6.07138,50.84274],[6.07147,50.84274],[6.07169,50.84344],[6.07393,50.84387],[6.0739,50.84394],[6.0716,50.84349],[6.07138,50.84274]]}},{"type":"Feature","properties":{"id":"siegfriedLine","osmWay":77466244,"tags":{"barrier":"tank_trap","disused":"yes","heritage":"8","heritage:operator":"UntereDenkmalbehörde","name":"Höckerlinie","natural":"scrub"}},"geometry":{"type":"LineString","coordinates":[[6.26772,50.64382],[6.26934,50.64345],[6.26958,50.64345],[6.26981,50.64347],[6.27048,50.64377],[6.27296,50.64303],[6.27273,50.64297],[6.27052,50.64362],[6.26956,50.6432],[6.26759,50.64371],[6.26772,50.64382]]}},{"type":"Feature","properties":{"id":"siegfriedLine","osmWay":83461847,"tags":{"abandoned:military":"tank_trap","accociated_with":"Westwall","barrier":"tank_trap","disused":"yes","heritage":"8","heritage:operator":"UntereDenkmalbehörde","name":"Höckerlinie"}},"geometry":{"type":"LineString","coordinates":[[6.0903,50.72276],[6.09033,50.7227],[6.09203,50.72305],[6.092,50.72311],[6.0903,50.72276]]}},{"type":"Feature","properties":{"id":"siegfriedLine","osmWay":86505676,"tags":{"abandoned:military":"tank_trap","accociated_with":"Westwall","barrier":"tank_trap","description":"Höckerlinie","disused":"yes","image":"File:Panzersperren des Westwalls im Naturschutzgebiet Wurmtal südlich Herzogenrath, einschließlich Meisbach, Würselen 12 von 14.jpg","natural":"scrub"}},"geometry":{"type":"LineString","coordinates":[[6.08363,50.84672],[6.08429,50.84702],[6.08529,50.84736],[6.0863,50.84771],[6.08861,50.84864],[6.08864,50.84858],[6.08711,50.84796],[6.08638,50.84766],[6.08437,50.84696],[6.08368,50.84665],[6.08363,50.84672]]}},{"type":"Feature","properties":{"id":"siegfriedLine","osmWay":86505678,"tags":{"abandoned:military":"tank_trap","accociated_with":"Westwall","barrier":"tank_trap","description":"Höckerlinie","disused":"yes","image":"File:Panzersperren des Westwalls im Naturschutzgebiet Wurmtal südlich Herzogenrath, einschließlich Meisbach, Würselen 03 von 14.jpg","natural":"scrub"}},"geometry":{"type":"LineString","coordinates":[[6.089,50.84926],[6.08905,50.84943],[6.08917,50.84968],[6.08918,50.84982],[6.08919,50.84988],[6.08936,50.84987],[6.08935,50.84982],[6.08934,50.84966],[6.0892,50.84942],[6.08915,50.84916],[6.08885,50.84867],[6.08871,50.84869],[6.089,50.84926]]}},{"type":"Feature","properties":{"id":"siegfriedLine","osmWay":87927003,"tags":{"abandoned:military":"tank_trap","accociated_with":"Westwall","associated_with":"Westwall","barrier":"tank_trap","disused":"yes","is_in":"Eifel, Nordrhein-Westfalen, Bundesrepublik Deutschland","name":"Höckerlinie"}},"geometry":{"type":"LineString","coordinates":[[6.38329,50.4405],[6.38321,50.44196],[6.38278,50.44374],[6.38133,50.44508],[6.38152,50.44551]]}},{"type":"Feature","properties":{"id":"siegfriedLine","osmWay":87927006,"tags":{"abandoned:military":"tank_trap","accociated_with":"Westwall","associated_with":"Westwall","barrier":"tank_trap","disused":"yes","is_in":"Eifel, Nordrhein-Westfalen, Bundesrepublik Deutschland","name":"Höckerlinie"}},"geometry":{"type":"LineString","coordinates":[[6.38765,50.44567],[6.38597,50.44963]]}},{"type":"Feature","properties":{"id":"siegfriedLine","osmWay":87927008,"tags":{"abandoned:military":"tank_trap","accociated_with":"Westwall","associated_with":"Westwall","barrier":"tank_trap","disused":"yes","is_in":"Eifel, Nordrhein-Westfalen, Bundesrepublik Deutschland","name":"Höckerlinie"}},"geometry":{"type":"LineString","coordinates":[[6.38334,50.43952],[6.3833,50.44039]]}},{"type":"Feature","properties":{"id":"siegfriedLine","osmWay":87930596,"tags":{"abandoned:military":"tank_trap","accociated_with":"Westwall","associated_with":"Westwall","barrier":"tank_trap","disused":"yes","is_in":"Eifel, Nordrhein-Westfalen, Bundesrepublik Deutschland","name":"Höckerlinie"}},"geometry":{"type":"LineString","coordinates":[[6.36976,50.46],[6.36944,50.45832]]}},{"type":"Feature","properties":{"id":"siegfriedLine","osmWay":87930599,"tags":{"abandoned:military":"tank_trap","accociated_with":"Westwall","associated_with":"Westwall","barrier":"tank_trap","disused":"yes","is_in":"Eifel, Nordrhein-Westfalen, Bundesrepublik Deutschland","name":"Höckerlinie"}},"geometry":{"type":"LineString","coordinates":[[6.36774,50.45924],[6.36969,50.45815],[6.37125,50.45728],[6.37219,50.45622],[6.37379,50.454],[6.3746,50.45287],[6.37512,50.45238],[6.37578,50.45213],[6.37637,50.45207],[6.37736,50.45211]]}},{"type":"Feature","properties":{"id":"siegfriedLine","osmWay":87930601,"tags":{"abandoned:military":"tank_trap","accociated_with":"Westwall","associated_with":"Westwall","barrier":"tank_trap","disused":"yes","is_in":"Eifel, Nordrhein-Westfalen, Bundesrepublik Deutschland","name":"Höckerlinie"}},"geometry":{"type":"LineString","coordinates":[[6.36768,50.46246],[6.36955,50.46204],[6.37016,50.46162],[6.36984,50.46031]]}},{"type":"Feature","properties":{"id":"siegfriedLine","osmWay":88078379,"tags":{"abandoned:military":"tank_trap","accociated_with":"Westwall","barrier":"tank_trap","disused":"yes","heritage":"8","heritage:operator":"UntereDenkmalbehörde","name":"Höckerlinie"}},"geometry":{"type":"LineString","coordinates":[[6.25516,50.57259],[6.25378,50.57112],[6.25416,50.57073],[6.25234,50.56918],[6.2527,50.56666],[6.25191,50.56576]]}},{"type":"Feature","properties":{"id":"siegfriedLine","osmWay":88181381,"tags":{"abandoned:military":"tank_trap","accociated_with":"Westwall","associated_with":"Westwall","barrier":"tank_trap","disused":"yes","is_in":"Eifel, Nordrhein-Westfalen, Bundesrepublik Deutschland","name":"Höckerlinie"}},"geometry":{"type":"LineString","coordinates":[[6.38159,50.44564],[6.38225,50.44717],[6.37985,50.44821]]}},{"type":"Feature","properties":{"id":"siegfriedLine","osmWay":88211404,"tags":{"abandoned:military":"tank_trap","accociated_with":"Westwall","barrier":"tank_trap","disused":"yes","heritage":"8","heritage:operator":"UntereDenkmalbehörde","name":"Höckerlinie"}},"geometry":{"type":"LineString","coordinates":[[6.24384,50.56522],[6.24559,50.56469],[6.25069,50.56451],[6.25137,50.56503]]}},{"type":"Feature","properties":{"id":"siegfriedLine","osmWay":89082522,"tags":{"abandoned:military":"tank_trap","associated_with":"Westwall","barrier":"tank_trap","disused":"yes","is_in":"Eifel, Nordrhein-Westfalen, Bundesrepublik Deutschland","name":"Höckerlinie"}},"geometry":{"type":"LineString","coordinates":[[6.4025,50.35013],[6.40638,50.34738],[6.4049,50.34623],[6.40423,50.34579]]}},{"type":"Feature","properties":{"id":"siegfriedLine","osmWay":89082530,"tags":{"abandoned:military":"tank_trap","associated_with":"Westwall","barrier":"tank_trap","disused":"yes","is_in":"Eifel, Bundesrepublik Deutschland","name":"Höckerlinie"}},"geometry":{"type":"LineString","coordinates":[[6.4072,50.36886],[6.40782,50.36821],[6.40697,50.36531],[6.40722,50.36491]]}},{"type":"Feature","properties":{"id":"siegfriedLine","osmWay":89082538,"tags":{"abandoned:military":"tank_trap","associated_with":"Westwall","barrier":"tank_trap","disused":"yes","is_in":"Eifel, Bundesrepublik Deutschland","name":"Höckerlinie"}},"geometry":{"type":"LineString","coordinates":[[6.4078,50.35745],[6.41018,50.35911],[6.40898,50.36199]]}},{"type":"Feature","properties":{"id":"siegfriedLine","osmWay":89082539,"tags":{"abandoned:military":"tank_trap","associated_with":"Westwall","barrier":"tank_trap","disused":"yes","is_in":"Eifel, Bundesrepublik Deutschland","name":"Höckerlinie"}},"geometry":{"type":"LineString","coordinates":[[6.4076,50.37517],[6.40489,50.37162]]}},{"type":"Feature","properties":{"id":"siegfriedLine","osmWay":89082551,"tags":{"abandoned:military":"tank_trap","associated_with":"Westwall","barrier":"tank_trap","disused":"yes","name":"Höckerlinie"}},"geometry":{"type":"LineString","coordinates":[[6.40735,50.36474],[6.4085,50.36309]]}},{"type":"Feature","properties":{"id":"siegfriedLine","osmWay":89082574,"tags":{"abandoned:military":"tank_trap","associated_with":"Westwall","barrier":"tank_trap","disused":"yes","is_in":"Eifel, Bundesrepublik Deutschland","name":"Höckerlinie"}},"geometry":{"type":"LineString","coordinates":[[6.40477,50.37147],[6.4048,50.37139],[6.40706,50.36902]]}},{"type":"Feature","properties":{"id":"siegfriedLine","osmWay":89082576,"tags":{"abandoned:military":"tank_trap","associated_with":"Westwall","barrier":"tank_trap","disused":"yes","is_in":"Eifel, Bundesrepublik Deutschland","name":"Höckerlinie"}},"geometry":{"type":"LineString","coordinates":[[6.40702,50.35316],[6.40606,50.35494]]}},{"type":"Feature","properties":{"id":"siegfriedLine","osmWay":89082591,"tags":{"abandoned:military":"tank_trap","associated_with":"Westwall","barrier":"tank_trap","disused":"yes","is_in":"Eifel, Bundesrepublik Deutschland","name":"Höckerlinie"}},"geometry":{"type":"LineString","coordinates":[[6.40589,50.35533],[6.40559,50.35595],[6.40756,50.35724]]}},{"type":"Feature","properties":{"id":"siegfriedLine","osmWay":91232988,"tags":{"abandoned:military":"tank_trap","associated_with":"Westwall","barrier":"tank_trap","disused":"yes","is_in":"Eifel, Nordrhein-Westfalen, Bundesrepublik Deutschland","name":"Höckerlinie"}},"geometry":{"type":"LineString","coordinates":[[6.41046,50.33549],[6.41188,50.3358],[6.41256,50.33594],[6.41541,50.33445],[6.41677,50.32935],[6.41797,50.32904]]}},{"type":"Feature","properties":{"id":"siegfriedLine","osmWay":91232998,"tags":{"abandoned:military":"tank_trap","associated_with":"Westwall","barrier":"tank_trap","disused":"yes","is_in":"Eifel, Nordrhein-Westfalen, Bundesrepublik Deutschland","name":"Höckerlinie"}},"geometry":{"type":"LineString","coordinates":[[6.41822,50.3286],[6.41823,50.32826],[6.41914,50.32698],[6.41964,50.32659],[6.42132,50.32605],[6.42063,50.32423]]}},{"type":"Feature","properties":{"id":"siegfriedLine","osmWay":91233001,"tags":{"abandoned:military":"tank_trap","associated_with":"Westwall","barrier":"tank_trap","disused":"yes","is_in":"Eifel, Nordrhein-Westfalen, Bundesrepublik Deutschland","name":"Höckerlinie"}},"geometry":{"type":"LineString","coordinates":[[6.4041,50.34552],[6.40452,50.34395],[6.40376,50.34301],[6.40371,50.34134],[6.40369,50.34114],[6.40366,50.34069],[6.40266,50.34022]]}},{"type":"Feature","properties":{"id":"siegfriedLine","osmWay":91571532,"tags":{"abandoned:military":"tank_trap","accociated_with":"Westwall","barrier":"tank_trap","disused":"yes","name":"Höckerlinie"}},"geometry":{"type":"LineString","coordinates":[[6.38626,50.41624],[6.38643,50.41606],[6.38636,50.41587],[6.38621,50.41601],[6.38187,50.41357],[6.38177,50.41372],[6.3842,50.41503],[6.38608,50.41613],[6.38587,50.41637],[6.38605,50.41644],[6.38626,50.41624]]}},{"type":"Feature","properties":{"id":"siegfriedLine","osmWay":93419842,"tags":{"abandoned:military":"tank_trap","accociated_with":"Westwall","associated_with":"Westwall","barrier":"tank_trap","disused":"yes","is_in":"Eifel, Nordrhein-Westfalen, Bundesrepublik Deutschland","name":"Höckerlinie"}},"geometry":{"type":"LineString","coordinates":[[6.37856,50.45091],[6.37955,50.44881]]}},{"type":"Feature","properties":{"id":"siegfriedLine","osmWay":100541126,"tags":{"abandoned:military":"tank_trap","accociated_with":"Westwall","area":"yes","barrier":"tank_trap","disused":"yes","image":"File:Westwall-Monschauer-Str-Schmithofer-Weg.jpg","name":"Höckerlinie"}},"geometry":{"type":"LineString","coordinates":[[6.16151,50.69113],[6.16143,50.69102],[6.1593,50.69162],[6.15927,50.69175],[6.16151,50.69113]]}},{"type":"Feature","properties":{"id":"siegfriedLine","osmWay":100541128,"tags":{"abandoned:military":"tank_trap","accociated_with":"Westwall","barrier":"tank_trap","disused":"yes","heritage":"8","heritage:operator":"UntereDenkmalbehörde","image":"File:Westwall, Siegfried Line - panoramio.jpg","leaf_type":"broadleaved","name":"Höckerlinie","natural":"wood"}},"geometry":{"type":"LineString","coordinates":[[6.17749,50.68706],[6.17732,50.687],[6.17667,50.6877],[6.17626,50.68814],[6.17646,50.6882],[6.17652,50.68813],[6.17688,50.68773],[6.17749,50.68706]]}},{"type":"Feature","properties":{"id":"siegfriedLine","osmWay":100541130,"tags":{"abandoned:military":"tank_trap","accociated_with":"Westwall","barrier":"tank_trap","disused":"yes","heritage":"8","heritage:operator":"UntereDenkmalbehörde","image":"File:Westwall, Siegfreid Line - panoramio.jpg","leaf_type":"broadleaved","name":"Höckerlinie","natural":"wood"}},"geometry":{"type":"LineString","coordinates":[[6.17765,50.68664],[6.17782,50.68667],[6.17961,50.68472],[6.17964,50.68445],[6.17851,50.6857],[6.17765,50.68664]]}},{"type":"Feature","properties":{"id":"siegfriedLine","osmWay":100541131,"tags":{"abandoned:military":"tank_trap","accociated_with":"Westwall","barrier":"tank_trap","disused":"yes","heritage":"8","heritage:operator":"UntereDenkmalbehörde","image":"File:Westwall, Siegfried Line - panoramio.jpg","leaf_type":"broadleaved","name":"Höckerlinie","natural":"wood"}},"geometry":{"type":"LineString","coordinates":[[6.17579,50.68888],[6.17623,50.68849],[6.17603,50.68842],[6.17558,50.6888],[6.17579,50.68888]]}},{"type":"Feature","properties":{"id":"siegfriedLine","osmWay":100541133,"tags":{"abandoned:military":"tank_trap","accociated_with":"Westwall","barrier":"tank_trap","disused":"yes","heritage":"8","heritage:operator":"UntereDenkmalbehörde","leaf_type":"mixed","name":"Höckerlinie","natural":"wood"}},"geometry":{"type":"LineString","coordinates":[[6.15627,50.69438],[6.15648,50.69426],[6.15647,50.69375],[6.15626,50.69375],[6.15627,50.69438]]}},{"type":"Feature","properties":{"id":"siegfriedLine","osmWay":100541134,"tags":{"abandoned:military":"tank_trap","accociated_with":"Westwall","barrier":"tank_trap","disused":"yes","heritage":"8","heritage:operator":"UntereDenkmalbehörde","image":"File:Westwall2.jpg","leaf_type":"broadleaved","name":"Höckerlinie","natural":"wood"}},"geometry":{"type":"LineString","coordinates":[[6.1543,50.69717],[6.15561,50.69732],[6.15619,50.697],[6.15625,50.69474],[6.1564,50.69464],[6.15645,50.69531],[6.15638,50.69705],[6.15568,50.69745],[6.15426,50.6973],[6.1543,50.69717]]}},{"type":"Feature","properties":{"id":"siegfriedLine","osmWay":100541136,"tags":{"abandoned:military":"tank_trap","accociated_with":"Westwall","barrier":"tank_trap","disused":"yes","heritage":"8","heritage:operator":"UntereDenkmalbehörde","image":"File:Aachen, Germany - panoramio - mroszewski (6).jpg","leaf_type":"broadleaved","name":"Höckerlinie","natural":"wood"}},"geometry":{"type":"LineString","coordinates":[[6.15976,50.69283],[6.15909,50.69207],[6.15901,50.69227],[6.15939,50.69274],[6.15866,50.69284],[6.15851,50.69301],[6.15976,50.69283]]}},{"type":"Feature","properties":{"id":"siegfriedLine","osmWay":100541137,"tags":{"abandoned:military":"tank_trap","accociated_with":"Westwall","barrier":"tank_trap","disused":"yes","heritage":"8","heritage:operator":"UntereDenkmalbehörde","leaf_type":"broadleaved","name":"Höckerlinie","natural":"wood"}},"geometry":{"type":"LineString","coordinates":[[6.15689,50.69315],[6.15677,50.69304],[6.1584,50.69286],[6.15827,50.69302],[6.15689,50.69315]]}},{"type":"Feature","properties":{"id":"siegfriedLine","osmWay":100772696,"tags":{"abandoned:military":"tank_trap","barrier":"tank_trap","disused":"yes","heritage":"8","heritage:operator":"UntereDenkmalbehörde","name":"Höckerlinie"}},"geometry":{"type":"LineString","coordinates":[[6.28222,50.60563],[6.28359,50.60601],[6.28431,50.60691]]}},{"type":"Feature","properties":{"id":"siegfriedLine","osmWay":100772697,"tags":{"abandoned:military":"tank_trap","barrier":"tank_trap","disused":"yes","heritage":"8","heritage:operator":"UntereDenkmalbehörde","name":"Höckerlinie"}},"geometry":{"type":"LineString","coordinates":[[6.28202,50.59683],[6.28279,50.59734],[6.28305,50.60076],[6.28169,50.60158],[6.28182,50.6027],[6.28245,50.60309],[6.28279,50.60452],[6.28204,50.60546],[6.28205,50.60553]]}},{"type":"Feature","properties":{"id":"siegfriedLine","osmWay":100773207,"tags":{"abandoned:military":"tank_trap","barrier":"tank_trap","disused":"yes","heritage":"8","heritage:operator":"UntereDenkmalbehörde","name":"Höckerlinie"}},"geometry":{"type":"LineString","coordinates":[[6.28634,50.61304],[6.28576,50.61361],[6.28506,50.61415],[6.28457,50.61454],[6.2837,50.61526],[6.28378,50.61549],[6.28403,50.61604]]}},{"type":"Feature","properties":{"id":"siegfriedLine","osmWay":100773208,"tags":{"abandoned:military":"tank_trap","barrier":"tank_trap","disused":"yes","heritage":"8","heritage:operator":"UntereDenkmalbehörde","name":"Höckerlinie"}},"geometry":{"type":"LineString","coordinates":[[6.28439,50.607],[6.28512,50.60783],[6.28311,50.61005],[6.28359,50.61116],[6.28495,50.61149],[6.28666,50.61229],[6.28646,50.61294]]}},{"type":"Feature","properties":{"id":"siegfriedLine","osmWay":100773209,"tags":{"abandoned:military":"tank_trap","barrier":"tank_trap","disused":"yes","heritage":"8","heritage:operator":"UntereDenkmalbehörde","name":"Höckerlinie"}},"geometry":{"type":"LineString","coordinates":[[6.28428,50.61616],[6.28477,50.61757],[6.28412,50.6177],[6.28424,50.61792]]}},{"type":"Feature","properties":{"id":"siegfriedLine","osmWay":101503321,"tags":{"abandoned:military":"tank_trap","accociated_with":"Westwall","barrier":"tank_trap","disused":"yes","heritage":"8","heritage:operator":"UntereDenkmalbehörde","name":"Höckerlinie"}},"geometry":{"type":"LineString","coordinates":[[6.26017,50.57748],[6.25955,50.57741],[6.25928,50.57712]]}},{"type":"Feature","properties":{"id":"siegfriedLine","osmWay":104035810,"tags":{"abandoned:military":"tank_trap","associated_with":"Westwall","barrier":"tank_trap","disused":"yes","name":"Höckerlinie"}},"geometry":{"type":"LineString","coordinates":[[6.39311,50.34903],[6.39523,50.34855],[6.39645,50.34758],[6.40007,50.34547],[6.40138,50.3436],[6.40295,50.34113],[6.40266,50.34022],[6.40228,50.33924],[6.40238,50.33872],[6.40249,50.33863],[6.40287,50.33833],[6.40389,50.33807],[6.40531,50.33808],[6.40783,50.33783],[6.4092,50.33628]]}},{"type":"Feature","properties":{"id":"siegfriedLine","osmWay":104491116,"tags":{"abandoned:military":"tank_trap","accociated_with":"Westwall","area":"yes","barrier":"tank_trap","disused":"yes","name":"Höckerlinie"}},"geometry":{"type":"LineString","coordinates":[[6.16285,50.68956],[6.16277,50.68981],[6.16276,50.68985],[6.16254,50.69052],[6.16275,50.69057],[6.16296,50.68988],[6.16298,50.68985],[6.16302,50.6897],[6.16285,50.68956]]}},{"type":"Feature","properties":{"id":"siegfriedLine","osmWay":109372776,"tags":{"abandoned:military":"tank_trap","barrier":"tank_trap","disused":"yes","heritage":"8","heritage:operator":"UntereDenkmalbehörde","name":"Höckerlinie"}},"geometry":{"type":"LineString","coordinates":[[6.27385,50.58711],[6.27397,50.58841],[6.27549,50.58983],[6.27808,50.59059],[6.27739,50.59377],[6.27847,50.59417]]}},{"type":"Feature","properties":{"id":"siegfriedLine","osmWay":109372777,"tags":{"abandoned:military":"tank_trap","barrier":"tank_trap","disused":"yes","heritage":"8","heritage:operator":"UntereDenkmalbehörde","name":"Höckerlinie"}},"geometry":{"type":"LineString","coordinates":[[6.28192,50.59676],[6.27995,50.59565],[6.28027,50.59489],[6.27877,50.59448]]}},{"type":"Feature","properties":{"id":"siegfriedLine","osmWay":109783992,"tags":{"abandoned:military":"tank_trap","accociated_with":"Westwall","associated_with":"Westwall","barrier":"tank_trap","disused":"yes","is_in":"Eifel, Nordrhein-Westfalen, Bundesrepublik Deutschland","name":"Höckerlinie"}},"geometry":{"type":"LineString","coordinates":[[6.36735,50.46259],[6.36471,50.46353]]}},{"type":"Feature","properties":{"id":"siegfriedLine","osmWay":110240376,"tags":{"abandoned:military":"tank_trap","accociated_with":"Westwall","barrier":"tank_trap","disused":"yes","heritage":"8","heritage:operator":"UntereDenkmalbehörde","name":"Höckerlinie"}},"geometry":{"type":"LineString","coordinates":[[6.26627,50.58114],[6.26624,50.58101]]}},{"type":"Feature","properties":{"id":"siegfriedLine","osmWay":110240378,"tags":{"abandoned:military":"tank_trap","barrier":"tank_trap","disused":"yes","heritage":"8","heritage:operator":"UntereDenkmalbehörde","name":"Höckerlinie"}},"geometry":{"type":"LineString","coordinates":[[6.27383,50.58695],[6.27375,50.58604],[6.27309,50.58596],[6.27252,50.58522],[6.27257,50.5852],[6.27311,50.58592],[6.27378,50.58601],[6.27387,50.58695],[6.27383,50.58695]]}},{"type":"Feature","properties":{"id":"siegfriedLine","osmWay":110240380,"tags":{"abandoned:military":"tank_trap","barrier":"tank_trap","disused":"yes","heritage":"8","heritage:operator":"UntereDenkmalbehörde","name":"Höckerlinie"}},"geometry":{"type":"LineString","coordinates":[[6.26733,50.58271],[6.26667,50.58243],[6.26644,50.58156]]}},{"type":"Feature","properties":{"id":"siegfriedLine","osmWay":110256112,"tags":{"abandoned:military":"tank_trap","barrier":"tank_trap","disused":"yes","heritage":"8","heritage:operator":"UntereDenkmalbehörde","name":"Höckerlinie"}},"geometry":{"type":"LineString","coordinates":[[6.284,50.62294],[6.28471,50.62572],[6.28462,50.62722]]}},{"type":"Feature","properties":{"id":"siegfriedLine","osmWay":110256114,"tags":{"abandoned:military":"tank_trap","barrier":"tank_trap","disused":"yes","name":"Höckerlinie"}},"geometry":{"type":"LineString","coordinates":[[6.26783,50.64374],[6.26961,50.64328],[6.27054,50.6437],[6.27275,50.64306]]}},{"type":"Feature","properties":{"id":"siegfriedLine","osmWay":110256118,"tags":{"abandoned:military":"tank_trap","barrier":"tank_trap","disused":"yes","heritage":"8","heritage:operator":"UntereDenkmalbehörde","name":"Höckerlinie"}},"geometry":{"type":"LineString","coordinates":[[6.28433,50.61798],[6.28442,50.61814],[6.28396,50.6196],[6.28367,50.61983]]}},{"type":"Feature","properties":{"id":"siegfriedLine","osmWay":110256120,"tags":{"abandoned:military":"tank_trap","barrier":"tank_trap","disused":"yes","heritage":"8","heritage:operator":"UntereDenkmalbehörde","name":"Höckerlinie"}},"geometry":{"type":"LineString","coordinates":[[6.28456,50.62731],[6.28432,50.62886],[6.28447,50.62952]]}},{"type":"Feature","properties":{"id":"siegfriedLine","osmWay":110256121,"tags":{"abandoned:military":"tank_trap","barrier":"tank_trap","disused":"yes","heritage":"8","heritage:operator":"UntereDenkmalbehörde","name":"Höckerlinie"}},"geometry":{"type":"LineString","coordinates":[[6.28348,50.61996],[6.28276,50.62039],[6.28397,50.62261]]}},{"type":"Feature","properties":{"id":"siegfriedLine","osmWay":115266436,"tags":{"abandoned:military":"tank_trap","accociated_with":"Westwall","barrier":"tank_trap","disused":"yes","heritage":"8","heritage:operator":"UntereDenkmalbehörde","name":"Höckerlinie"}},"geometry":{"type":"LineString","coordinates":[[6.25595,50.57534],[6.25606,50.57446]]}},{"type":"Feature","properties":{"id":"siegfriedLine","osmWay":119514882,"tags":{"abandoned:military":"tank_trap","accociated_with":"Westwall","associated_with":"Westwall","barrier":"tank_trap","disused":"yes","is_in":"Eifel, Nordrhein-Westfalen, Bundesrepublik Deutschland","name":"Höckerlinie"}},"geometry":{"type":"LineString","coordinates":[[6.38853,50.44467],[6.38883,50.44442]]}},{"type":"Feature","properties":{"id":"siegfriedLine","osmWay":119514885,"tags":{"abandoned:military":"tank_trap","accociated_with":"Westwall","associated_with":"Westwall","barrier":"tank_trap","disused":"yes","is_in":"Eifel, Nordrhein-Westfalen, Bundesrepublik Deutschland","name":"Höckerlinie"}},"geometry":{"type":"LineString","coordinates":[[6.38899,50.4443],[6.3891,50.44419],[6.38787,50.44388],[6.39061,50.44202],[6.39126,50.44147],[6.39156,50.44124]]}},{"type":"Feature","properties":{"id":"siegfriedLine","osmWay":119514908,"tags":{"abandoned:military":"tank_trap","accociated_with":"Westwall","associated_with":"Westwall","barrier":"tank_trap","disused":"yes","is_in":"Eifel, Nordrhein-Westfalen, Bundesrepublik Deutschland","name":"Höckerlinie"}},"geometry":{"type":"LineString","coordinates":[[6.38753,50.44547],[6.38828,50.44489]]}},{"type":"Feature","properties":{"id":"siegfriedLine","osmWay":159704845,"tags":{"abandoned:military":"tank_trap","barrier":"tank_trap","historic":"yes","military":"obstacle","name":"Westwall/Höckerlinie","natural":"scrub"}},"geometry":{"type":"LineString","coordinates":[[6.41648,49.51295],[6.41505,49.51332],[6.4149,49.51336],[6.41501,49.51348],[6.41538,49.51337],[6.41656,49.51307],[6.41648,49.51295]]}},{"type":"Feature","properties":{"id":"siegfriedLine","osmWay":188899952,"tags":{"abandoned:military":"tank_trap","accociated_with":"Westwall","barrier":"tank_trap","disused":"yes","is_in":"Eifel, Nordrhein-Westfalen, Bundesrepublik Deutschland","name":"Höckerlinie"}},"geometry":{"type":"LineString","coordinates":[[6.06958,50.84206],[6.06714,50.841],[6.06699,50.84104],[6.06952,50.84211],[6.06958,50.84206]]}},{"type":"Feature","properties":{"id":"siegfriedLine","osmWay":213549644,"tags":{"abandoned:military":"tank_trap","associated_with":"Westwall","barrier":"tank_trap","disused":"yes","is_in":"Eifel, Bundesrepublik Deutschland","name":"Höckerlinie"}},"geometry":{"type":"LineString","coordinates":[[6.40827,50.37579],[6.40781,50.37531]]}},{"type":"Feature","properties":{"id":"siegfriedLine","osmWay":243515302,"tags":{"abandoned:military":"tank_trap","accociated_with":"Westwall","barrier":"tank_trap","description":"Höckerlinie","disused":"yes","heritage":"8","heritage:operator":"UntereDenkmalbehörde","historic":"yes","image":"https://commons.wikimedia.org/wiki/Category:Cultural_heritage_monuments_in_Herzogenrath#/media/File:HZ_132_Panzerbefestigung_Westwall.JPG","natural":"scrub","ref:Herzogenrath":"000132-01"}},"geometry":{"type":"LineString","coordinates":[[6.07599,50.84477],[6.07584,50.84489],[6.07591,50.84516],[6.07596,50.84518],[6.07648,50.84511],[6.08074,50.84446],[6.0807,50.8444],[6.08069,50.84432],[6.07958,50.84447],[6.07608,50.84503],[6.07599,50.84477]]}},{"type":"Feature","properties":{"id":"siegfriedLine","osmWay":293180722,"tags":{"abandoned:military":"tank_trap","area":"yes","barrier":"tank_trap","description":"Panzersperre, Höckerlinie","historic":"memorial","image":"https://commons.wikimedia.org/wiki/File:Göcklingen_Höckerlinie_an_der_Kaiserberg_Halle.JPG","name":"Höckerlinie","old_name":"Westwall","tourism":"attraction","wheelchair":"yes"}},"geometry":{"type":"LineString","coordinates":[[8.02916,49.16393],[8.02937,49.16397],[8.02953,49.16372],[8.02931,49.16372],[8.02916,49.16393]]}},{"type":"Feature","properties":{"id":"siegfriedLine","osmWay":314839469,"tags":{"abandoned:military":"tank_trap","barrier":"tank_trap","description":"Panzersperre aus Betonpyramiden im Zuge des Westwalls - hier Orscholzriegel","historic":"battlefield","name":"Höckerlinie","tourism":"attraction","website":"https://www.saarbruecker-zeitung.de/saarland/merzig-wadern/mettlach/ehemalige-panzersperre-wird-als-weltkriegs-mahnmal-eingeweiht_aid-794327"}},"geometry":{"type":"LineString","coordinates":[[6.50055,49.50236],[6.49964,49.50306],[6.49952,49.503],[6.50045,49.50226],[6.50503,49.50171],[6.50617,49.50157],[6.5062,49.50168],[6.50267,49.5021],[6.50055,49.50236]]}},{"type":"Feature","properties":{"id":"siegfriedLine","osmWay":329482784,"tags":{"abandoned:military":"tank_trap","barrier":"tank_trap","description":"dreireihig","heritage":"4","image":"File:Panzersperre Piesbach (2).JPG","name":"Höckerlinie","start_date":"1938","wikimedia_commons":"Category:Panzersperre Piesbach"}},"geometry":{"type":"LineString","coordinates":[[6.8017,49.39524],[6.80255,49.3952],[6.80253,49.3951],[6.80167,49.39515],[6.8017,49.39524]]}},{"type":"Feature","properties":{"id":"siegfriedLine","osmWay":366015542,"tags":{"abandoned:military":"tank_trap","area":"yes","barrier":"tank_trap","historic":"yes","name":"Höckerlinie (Westwall)","tank_trap":"dragons_teeth"}},"geometry":{"type":"LineString","coordinates":[[6.99396,49.21558],[6.99241,49.21561],[6.99198,49.21562],[6.99201,49.21575],[6.99396,49.21571],[6.99396,49.21558]]}},{"type":"Feature","properties":{"id":"siegfriedLine","osmWay":366015543,"tags":{"abandoned:military":"tank_trap","area":"yes","barrier":"tank_trap","historic":"yes","name":"Höckerlinie (Westwall)","tank_trap":"dragons_teeth"}},"geometry":{"type":"LineString","coordinates":[[6.9865,49.21859],[6.98606,49.21864],[6.98573,49.21861],[6.98572,49.21872],[6.98578,49.21874],[6.98588,49.21874],[6.98675,49.21869],[6.98677,49.21868],[6.98689,49.21863],[6.98713,49.21846],[6.98702,49.21839],[6.98655,49.21857],[6.9865,49.21859]]}},{"type":"Feature","properties":{"id":"siegfriedLine","osmWay":366845613,"tags":{"abandoned:military":"tank_trap","barrier":"tank_trap","disused":"yes","image":"http://www.panoramio.com/photo/57994322?","name":"Höckerlinie (Westwall)"}},"geometry":{"type":"LineString","coordinates":[[6.23659,50.16508],[6.23592,50.16504],[6.23473,50.16492],[6.23397,50.16471],[6.23355,50.16465],[6.23259,50.16454],[6.23169,50.16433],[6.23091,50.16414],[6.23028,50.16407],[6.22969,50.16397],[6.22938,50.16381],[6.22905,50.16346],[6.22878,50.16326],[6.2281,50.16296],[6.2275,50.16247],[6.22691,50.16206],[6.22681,50.1619]]}},{"type":"Feature","properties":{"id":"siegfriedLine","osmWay":366845614,"tags":{"abandoned:military":"tank_trap","barrier":"tank_trap","disused":"yes","image":"http://www.panoramio.com/photo/57994322?","name":"Höckerlinie (Westwall)"}},"geometry":{"type":"LineString","coordinates":[[6.22678,50.16185],[6.22669,50.1614],[6.22666,50.16073],[6.2266,50.16032],[6.227,50.15993],[6.22741,50.15963],[6.22762,50.15908],[6.22781,50.15878],[6.22819,50.15835]]}},{"type":"Feature","properties":{"id":"siegfriedLine","osmWay":366849051,"tags":{"abandoned:military":"tank_trap","barrier":"tank_trap","disused":"yes","image":"http://www.panoramio.com/photo/57994322?","name":"Höckerlinie (Westwall)"}},"geometry":{"type":"LineString","coordinates":[[6.22172,50.15525],[6.2214,50.15488],[6.22104,50.15447],[6.22068,50.15418],[6.22,50.15371],[6.21965,50.1536],[6.21896,50.15348],[6.21816,50.15309],[6.21765,50.15285],[6.21736,50.15235],[6.21731,50.15216],[6.2176,50.15147]]}},{"type":"Feature","properties":{"id":"siegfriedLine","osmWay":383284272,"tags":{"abandoned:military":"tank_trap","accociated_with":"Westwall","barrier":"tank_trap","disused":"yes","heritage":"8","heritage:operator":"UntereDenkmalbehörde","name":"Höckerlinie"}},"geometry":{"type":"LineString","coordinates":[[6.25918,50.57702],[6.25815,50.57593],[6.25743,50.57576]]}},{"type":"Feature","properties":{"id":"siegfriedLine","osmWay":390606133,"tags":{"abandoned:military":"tank_trap","accociated_with":"Westwall","barrier":"tank_trap","is_in":"Eifel, Nordrhein-Westfalen, Bundesrepublik Deutschland","name":"Höckerlinie"}},"geometry":{"type":"LineString","coordinates":[[6.40216,50.43158],[6.40221,50.43152],[6.40258,50.43166],[6.40259,50.43166],[6.40255,50.43172],[6.40255,50.43172],[6.40216,50.43158]]}},{"type":"Feature","properties":{"id":"siegfriedLine","osmWay":405161465,"tags":{"abandoned:military":"tank_trap","barrier":"tank_trap","description:de":"Panzersperre aus Betonpyramiden im Zuge des Westwalls - hier nur Fundamente, die Höcke wurden entfernt","description:en":"Anti-tank barrier made of concrete pyramids in the course of the west wall - here only the foundations, the cusps have been removed","historic":"yes","name":"Höckerlinie","tourism":"attraction"}},"geometry":{"type":"LineString","coordinates":[[6.46222,49.50269],[6.46208,49.50264],[6.46342,49.50107],[6.46357,49.50112],[6.46222,49.50269]]}},{"type":"Feature","properties":{"id":"siegfriedLine","osmWay":405161466,"tags":{"abandoned:military":"tank_trap","barrier":"tank_trap","description":"Panzersperre aus Betonpyramiden im Zuge des Westwalls - hier nur Fundamente, die Höcke wurden entfernt","name":"Höckerlinie"}},"geometry":{"type":"LineString","coordinates":[[6.8966,49.35982],[6.89652,49.35974],[6.89853,49.35906],[6.89861,49.35916],[6.8966,49.35982]]}},{"type":"Feature","properties":{"id":"siegfriedLine","osmWay":405161467,"tags":{"abandoned:military":"tank_trap","barrier":"tank_trap","description":"Panzersperre aus Betonpyramiden im Zuge des Westwalls - hier Orscholzriegel","historic":"battlefield","image":"http://www.panoramio.com/photo_explorer#user=2764150&with_photo_id=87256401&order=date_desc","name":"Höckerlinie","tourism":"attraction","website":"https://www.saarbruecker-zeitung.de/saarland/merzig-wadern/mettlach/ehemalige-panzersperre-wird-als-weltkriegs-mahnmal-eingeweiht_aid-794327"}},"geometry":{"type":"LineString","coordinates":[[6.49865,49.50384],[6.49853,49.50377],[6.49928,49.50319],[6.49941,49.50326],[6.49865,49.50384]]}},{"type":"Feature","properties":{"id":"siegfriedLine","osmWay":405161468,"tags":{"abandoned:military":"tank_trap","barrier":"tank_trap","description":"Panzersperre aus Betonpyramiden im Zuge des Westwalls - hier nur Fundamente, die Höcke wurden entfernt","name":"Höckerlinie"}},"geometry":{"type":"LineString","coordinates":[[6.45664,49.50394],[6.45466,49.50475],[6.45453,49.50465],[6.45654,49.50384],[6.46064,49.50344],[6.46066,49.50355],[6.45664,49.50394]]}},{"type":"Feature","properties":{"id":"siegfriedLine","osmWay":426726975,"tags":{"abandoned:military":"tank_trap","area":"yes","barrier":"tank_trap","description":"Panzersperre, Höckerlinie","historic":"memorial","name":"Höckerlinie","old_name":"Westwall","tourism":"attraction","wheelchair":"yes"}},"geometry":{"type":"LineString","coordinates":[[8.03226,49.16216],[8.03234,49.16211],[8.03214,49.16198],[8.03206,49.16204],[8.03219,49.16212],[8.03226,49.16216]]}},{"type":"Feature","properties":{"id":"siegfriedLine","osmWay":501153750,"tags":{"abandoned:military":"tank_trap","barrier":"tank_trap","description":"Panzersperre aus Betonpyramiden im Zuge des Westwalls - hier Orscholzriegel","historic":"battlefield","name":"Höckerlinie","tourism":"attraction","website":"https://www.saarbruecker-zeitung.de/saarland/merzig-wadern/mettlach/ehemalige-panzersperre-wird-als-weltkriegs-mahnmal-eingeweiht_aid-794327"}},"geometry":{"type":"LineString","coordinates":[[6.50655,49.50125],[6.51086,49.50043],[6.51083,49.50036],[6.50652,49.50115],[6.50655,49.50125]]}},{"type":"Feature","properties":{"id":"siegfriedLine","osmWay":514713567,"tags":{"abandoned:military":"tank_trap","associated_with":"Westwall","barrier":"tank_trap","disused":"yes","is_in":"Eifel, Nordrhein-Westfalen, Bundesrepublik Deutschland","name":"Höckerlinie"}},"geometry":{"type":"LineString","coordinates":[[6.42052,50.32405],[6.42035,50.32362]]}},{"type":"Feature","properties":{"id":"siegfriedLine","osmWay":532797036,"tags":{"abandoned:military":"tank_trap","area":"yes","barrier":"tank_trap","heritage":"4","historic":"memorial","military":"obstacle","name":"Höckerlinie (Westwall)"}},"geometry":{"type":"LineString","coordinates":[[6.99196,49.59977],[6.99185,49.59969],[6.99332,49.59878],[6.99404,49.5986],[6.99411,49.59871],[6.99345,49.59889],[6.99196,49.59977]]}},{"type":"Feature","properties":{"id":"siegfriedLine","osmWay":532797039,"tags":{"abandoned:military":"tank_trap","area":"yes","barrier":"tank_trap","heritage":"4","historic":"memorial","military":"obstacle","name":"Höckerlinie (Westwall)"}},"geometry":{"type":"LineString","coordinates":[[6.99188,49.59984],[6.99134,49.60022],[6.9912,49.60017],[6.99176,49.59976],[6.99188,49.59984]]}},{"type":"Feature","properties":{"id":"siegfriedLine","osmWay":532797041,"tags":{"abandoned:military":"tank_trap","area":"yes","barrier":"tank_trap","heritage":"4","historic":"memorial","military":"obstacle","name":"Höckerlinie (Westwall)"}},"geometry":{"type":"LineString","coordinates":[[6.9879,49.60279],[6.98774,49.60273],[6.98941,49.60153],[6.99111,49.60024],[6.99115,49.60025],[6.9912,49.60026],[6.99128,49.60027],[6.99129,49.60028],[6.9879,49.60279]]}},{"type":"Feature","properties":{"id":"siegfriedLine","osmWay":532797043,"tags":{"abandoned:military":"tank_trap","area":"yes","barrier":"tank_trap","heritage":"4","historic":"yes","military":"obstacle","name":"Höckerlinie (Westwall)"}},"geometry":{"type":"LineString","coordinates":[[6.97686,49.60167],[6.9769,49.60159],[6.98121,49.60233],[6.98445,49.60298],[6.98688,49.603],[6.98686,49.60308],[6.98442,49.60307],[6.9812,49.60239],[6.97686,49.60167]]}},{"type":"Feature","properties":{"id":"siegfriedLine","osmWay":536628705,"tags":{"abandoned:military":"tank_trap","area":"yes","barrier":"tank_trap","heritage":"4","heritage:operator":"lda","heritage:operator:wikidata":"Q1231774","historic":"yes","military":"obstacle","name":"Höckerlinie (Westwall)","tank_trap":"dragons_teeth","wikimedia_commons":"File:20200823Höckerlinie_Saarbrücken1.jpg","year_of_construction":"1939"}},"geometry":{"type":"LineString","coordinates":[[7.02019,49.21194],[7.01901,49.212],[7.0188,49.21201],[7.01881,49.21211],[7.01881,49.21212],[7.01991,49.21205],[7.02021,49.21203],[7.02019,49.21194]]}},{"type":"Feature","properties":{"id":"siegfriedLine","osmWay":629070255,"tags":{"abandoned:military":"tank_trap","barrier":"tank_trap","description":"Panzersperre aus Betonpyramiden im Zuge des Westwalls","historic":"memorial","name":"Höckerlinie"}},"geometry":{"type":"LineString","coordinates":[[6.59013,49.66991],[6.59013,49.66984],[6.59095,49.66988],[6.59093,49.66996],[6.59013,49.66991]]}},{"type":"Feature","properties":{"id":"siegfriedLine","osmWay":994070561,"tags":{"abandoned:military":"tank_trap","area":"yes","barrier":"tank_trap","name":"Höckerlinie","old_name":"Westwall","tourism":"attraction"}},"geometry":{"type":"LineString","coordinates":[[8.11884,49.15666],[8.11881,49.15664],[8.11865,49.15664],[8.1164,49.15667],[8.11629,49.15681],[8.11867,49.15678],[8.11877,49.15735],[8.11897,49.15734],[8.11884,49.15666]]}}]}
