{"type":"FeatureCollection","properties":{"source":"OpenStreetMap, ways tagged seamark:type=separation_*","fetched":"2026-09-18","licence":"ODbL 1.0 — © OpenStreetMap contributors (https://www.openstreetmap.org/copyright)"},"features":[{"type":"Feature","properties":{"osm_id":220138725,"seamark":"separation_zone"},"geometry":{"type":"Polygon","coordinates":[[[50.1762,26.83103],[50.1769,26.83078],[50.17766,26.83051],[50.18869,26.8547],[50.20259,26.91055],[50.20816,26.92859],[50.2152,26.93396],[50.21031,26.93849],[50.20578,26.94278],[50.19837,26.93532],[50.1762,26.83103]]]}},{"type":"Feature","properties":{"osm_id":220138726,"seamark":"separation_lane"},"geometry":{"type":"LineString","coordinates":[[50.20374,26.68415],[50.20569,26.70114],[50.20485,26.70863],[50.19466,26.73918],[50.18032,26.79143],[50.1769,26.82352],[50.19118,26.85204],[50.20758,26.90854],[50.21439,26.92846],[50.25692,26.96493],[50.39509,27.08688],[50.70094,27.09906]]}},{"type":"Feature","properties":{"osm_id":220138728,"seamark":"separation_boundary"},"geometry":{"type":"LineString","coordinates":[[50.20524,26.6842],[50.2068,26.70102],[50.2069,26.70902],[50.19596,26.73967],[50.18331,26.79185],[50.17907,26.82323],[50.19398,26.84986],[50.19406,26.85008],[50.21777,26.91977],[50.21959,26.92775],[50.3987,27.08333],[50.70157,27.09473]]}},{"type":"Feature","properties":{"osm_id":220138743,"seamark":"separation_line"},"geometry":{"type":"LineString","coordinates":[[50.21031,26.93849],[50.23773,26.9649]]}},{"type":"Feature","properties":{"osm_id":220138750,"seamark":"separation_boundary"},"geometry":{"type":"LineString","coordinates":[[55.49968,26.3794],[55.12883,26.31292],[54.50271,26.38438]]}},{"type":"Feature","properties":{"osm_id":220138751,"seamark":"separation_boundary"},"geometry":{"type":"LineString","coordinates":[[53.02123,24.924],[53.34194,25.01776]]}},{"type":"Feature","properties":{"osm_id":220138752,"seamark":"separation_lane"},"geometry":{"type":"LineString","coordinates":[[54.50297,26.19423],[55.28961,26.10994],[55.50009,26.17305]]}},{"type":"Feature","properties":{"osm_id":220138754,"seamark":"separation_lane"},"geometry":{"type":"LineString","coordinates":[[55.50116,26.36374],[55.13038,26.29599],[54.50472,26.36987]]}},{"type":"Feature","properties":{"osm_id":220138756,"seamark":"separation_lane"},"geometry":{"type":"LineString","coordinates":[[53.01204,24.93149],[53.33601,25.027]]}},{"type":"Feature","properties":{"osm_id":220138757,"seamark":"separation_lane"},"geometry":{"type":"LineString","coordinates":[[50.15295,27.02452],[50.19561,27.19074],[50.59564,27.19169]]}},{"type":"Feature","properties":{"osm_id":220138758,"seamark":"separation_boundary"},"geometry":{"type":"LineString","coordinates":[[54.50274,26.3516],[55.12836,26.2781],[55.49975,26.34505]]}},{"type":"Feature","properties":{"osm_id":220138759,"seamark":"separation_boundary"},"geometry":{"type":"LineString","coordinates":[[50.1722,27.02195],[50.2111,27.1766],[50.59761,27.17686]]}},{"type":"Feature","properties":{"osm_id":220138764,"seamark":"separation_boundary"},"geometry":{"type":"LineString","coordinates":[[53.40145,25.13442],[53.3127,25.06686]]}},{"type":"Feature","properties":{"osm_id":220138766,"seamark":"separation_boundary"},"geometry":{"type":"LineString","coordinates":[[54.50271,26.21849],[55.29222,26.1353],[55.50015,26.19797]]}},{"type":"Feature","properties":{"osm_id":220138767,"seamark":"separation_boundary"},"geometry":{"type":"LineString","coordinates":[[54.50324,26.16811],[55.29155,26.08477],[55.50035,26.14824]]}},{"type":"Feature","properties":{"osm_id":220138768,"seamark":"separation_lane"},"geometry":{"type":"LineString","coordinates":[[53.40811,25.12651],[53.31883,25.0583]]}},{"type":"Feature","properties":{"osm_id":220138784,"seamark":"separation_boundary"},"geometry":{"type":"LineString","coordinates":[[50.69985,27.12279],[50.38407,27.11064],[50.22836,26.97276],[50.20223,26.99732]]}},{"type":"Feature","properties":{"osm_id":220138792,"seamark":"separation_lane"},"geometry":{"type":"LineString","coordinates":[[56.67343,26.5035],[56.5916,26.62385],[56.46497,26.62409],[56.34518,26.59506]]}},{"type":"Feature","properties":{"osm_id":220138794,"seamark":"separation_boundary"},"geometry":{"type":"LineString","coordinates":[[50.60047,27.21006],[50.18394,27.21024],[50.17992,27.20714],[50.13625,27.02942]]}},{"type":"Feature","properties":{"osm_id":220138843,"seamark":"separation_boundary"},"geometry":{"type":"LineString","coordinates":[[56.68966,26.51197],[56.60274,26.64136],[56.46192,26.64148],[56.37613,26.6213],[56.33599,26.61195]]}},{"type":"Feature","properties":{"osm_id":220138844,"seamark":"separation_line"},"geometry":{"type":"LineString","coordinates":[[50.1769,26.83078],[50.17473,26.82414],[50.17152,26.80798],[50.2045,26.70117],[50.20222,26.68464]]}},{"type":"Feature","properties":{"osm_id":220138862,"seamark":"separation_zone"},"geometry":{"type":"LineString","coordinates":[[53.33108,25.0366],[53.42459,25.10831],[53.41596,25.11807],[53.32413,25.048]]}},{"type":"Feature","properties":{"osm_id":220138863,"seamark":"separation_lane"},"geometry":{"type":"LineString","coordinates":[[50.70102,27.1192],[50.38814,27.10764],[50.19675,26.93906],[50.16818,26.8053],[50.19957,26.70195],[50.19901,26.68551]]}},{"type":"Feature","properties":{"osm_id":220138866,"seamark":"separation_boundary"},"geometry":{"type":"LineString","coordinates":[[50.19572,26.68532],[50.19572,26.70079],[50.19493,26.70399],[50.1654,26.80333],[50.19446,26.94323],[50.20159,26.94953],[50.17607,26.97367]]}},{"type":"Feature","properties":{"osm_id":220138873,"seamark":"separation_zone"},"geometry":{"type":"Polygon","coordinates":[[[50.70136,27.10332],[50.70121,27.1153],[50.38968,27.10432],[50.23391,26.96809],[50.23773,26.9649],[50.24387,26.95988],[50.3926,27.09045],[50.70136,27.10332]]]}},{"type":"Feature","properties":{"osm_id":589922776,"seamark":"separation_boundary"},"geometry":{"type":"LineString","coordinates":[[53.34194,25.01776],[53.4398,25.09232]]}},{"type":"Feature","properties":{"osm_id":589922816,"seamark":"separation_lane"},"geometry":{"type":"LineString","coordinates":[[53.33601,25.027],[53.43071,25.09949]]}},{"type":"Feature","properties":{"osm_id":589922899,"seamark":"separation_zone"},"geometry":{"type":"LineString","coordinates":[[53.32413,25.048],[52.99264,24.94996],[53.0029,24.94024],[53.33108,25.0366]]}},{"type":"Feature","properties":{"osm_id":589923020,"seamark":"separation_lane"},"geometry":{"type":"LineString","coordinates":[[53.31883,25.0583],[52.98387,24.95812]]}},{"type":"Feature","properties":{"osm_id":589923084,"seamark":"separation_boundary"},"geometry":{"type":"LineString","coordinates":[[53.3127,25.06686],[52.97398,24.96673]]}},{"type":"Feature","properties":{"osm_id":1305420790,"seamark":"separation_boundary"},"geometry":{"type":"LineString","coordinates":[[52.99548,25.23593],[53.042,25.27235],[53.10152,25.32],[53.18318,25.3696],[53.2517,25.41205]]}},{"type":"Feature","properties":{"osm_id":1305420791,"seamark":"separation_boundary"},"geometry":{"type":"LineString","coordinates":[[53.21083,25.42292],[53.15903,25.391],[53.08077,25.3432],[53.02057,25.29593],[52.94785,25.23957]]}},{"type":"Feature","properties":{"osm_id":1305420792,"seamark":"separation_lane"},"geometry":{"type":"LineString","coordinates":[[52.97622,25.23146],[53.04646,25.2862],[53.09824,25.32655],[53.15376,25.36075],[53.23344,25.40981]]}},{"type":"Feature","properties":{"osm_id":1305420793,"seamark":"separation_lane"},"geometry":{"type":"LineString","coordinates":[[53.22412,25.42215],[53.1361,25.36796],[53.08815,25.33842],[53.04584,25.30546],[52.96543,25.24279]]}},{"type":"Feature","properties":{"osm_id":1305420794,"seamark":"separation_line"},"geometry":{"type":"LineString","coordinates":[[52.97112,25.23682],[53.04194,25.29202],[53.09347,25.33217],[53.14709,25.36519],[53.22903,25.41565]]}},{"type":"Feature","properties":{"osm_id":182075712,"seamark":"separation_boundary"},"geometry":{"type":"LineString","coordinates":[[103.86303,1.22133],[103.85186,1.21328],[103.83993,1.20912],[103.80709,1.21316],[103.81287,1.20699],[103.81963,1.20156],[103.83829,1.19927],[103.8566,1.20662],[103.86721,1.21236],[103.86476,1.21763],[103.86303,1.22133]]}},{"type":"Feature","properties":{"osm_id":182075716,"seamark":"separation_boundary"},"geometry":{"type":"LineString","coordinates":[[101.65549,2.35639],[101.67968,2.38707],[101.68831,2.39776],[101.71318,2.42993],[101.64511,2.48271],[101.62002,2.45108],[101.61198,2.44134],[101.58667,2.40974],[101.60069,2.39863],[101.65549,2.35639]]}},{"type":"Feature","properties":{"osm_id":182075721,"seamark":"separation_boundary"},"geometry":{"type":"LineString","coordinates":[[103.53666,1.09897],[103.54764,1.11764],[103.57999,1.17246],[103.60232,1.2103],[103.49364,1.23812],[103.49358,1.23796],[103.47329,1.20196],[103.45706,1.17474],[103.44458,1.15313],[103.53666,1.09897]]}},{"type":"Feature","properties":{"osm_id":182075728,"seamark":"separation_boundary"},"geometry":{"type":"LineString","coordinates":[[103.53666,1.09897],[103.65916,1.02667],[103.72641,1.08354],[103.76911,1.12998],[103.80991,1.15779],[103.82578,1.16533],[103.84408,1.17411],[103.87759,1.19008],[103.90494,1.20179],[103.9594,1.22494],[104.05789,1.23412]]}},{"type":"Feature","properties":{"osm_id":182075730,"seamark":"separation_boundary"},"geometry":{"type":"LineString","coordinates":[[104.0535,1.27656],[103.99825,1.26695],[103.91799,1.23451],[103.89577,1.22295],[103.86909,1.20846],[103.85167,1.19924],[103.83677,1.19312],[103.81772,1.18528],[103.78987,1.1741],[103.73832,1.14413],[103.67411,1.19163],[103.60232,1.2103]]}},{"type":"Feature","properties":{"osm_id":182075742,"seamark":"separation_boundary"},"geometry":{"type":"LineString","coordinates":[[101.90213,2.04938],[101.99509,1.99947],[102.02357,2.0311],[102.03659,2.04569],[102.06508,2.07846],[102.07553,2.09011],[102.1022,2.11984],[102.01546,2.19287],[101.99059,2.1616],[101.9816,2.15022],[101.95674,2.11835],[101.93013,2.08468],[101.90213,2.04938]]}},{"type":"Feature","properties":{"osm_id":182075748,"seamark":"separation_boundary"},"geometry":{"type":"LineString","coordinates":[[103.63925,1.20528],[103.66151,1.19954],[103.72662,1.23692],[103.76345,1.24206],[103.76128,1.25652],[103.75954,1.25472],[103.75154,1.25346],[103.73407,1.25592],[103.71879,1.24467],[103.7083,1.2341],[103.70675,1.24961],[103.67695,1.2192],[103.63925,1.20528]]}},{"type":"Feature","properties":{"osm_id":182075759,"seamark":"separation_zone"},"geometry":{"type":"Polygon","coordinates":[[[102.7985,1.65181],[102.91487,1.57659],[103.02088,1.50807],[103.20263,1.38829],[103.20568,1.3862],[103.39096,1.21787],[103.45706,1.17474],[103.47329,1.20196],[103.39462,1.23145],[103.20618,1.38588],[103.20562,1.38636],[103.02468,1.51335],[102.92165,1.58468],[102.80321,1.66668],[102.51503,1.80458],[102.2549,1.92865],[102.07553,2.09011],[102.06508,2.07846],[102.24572,1.91339],[102.7985,1.65181]]]}},{"type":"Feature","properties":{"osm_id":182075762,"seamark":"separation_lane"},"geometry":{"type":"LineString","coordinates":[[101.66922,2.37117],[101.96883,2.13618]]}},{"type":"Feature","properties":{"osm_id":182075765,"seamark":"separation_lane"},"geometry":{"type":"LineString","coordinates":[[103.74773,1.26926],[103.70843,1.24266]]}},{"type":"Feature","properties":{"osm_id":182075767,"seamark":"separation_boundary"},"geometry":{"type":"LineString","coordinates":[[101.65549,2.35639],[101.95674,2.11835]]}},{"type":"Feature","properties":{"osm_id":182075769,"seamark":"separation_boundary"},"geometry":{"type":"LineString","coordinates":[[102.01546,2.19287],[101.71318,2.42993]]}},{"type":"Feature","properties":{"osm_id":182075770,"seamark":"separation_boundary"},"geometry":{"type":"LineString","coordinates":[[103.87476,1.19633],[103.84108,1.18195]]}},{"type":"Feature","properties":{"osm_id":182075772,"seamark":"separation_lane"},"geometry":{"type":"LineString","coordinates":[[103.87006,1.20558],[103.83801,1.19031]]}},{"type":"Feature","properties":{"osm_id":182075774,"seamark":"separation_boundary"},"geometry":{"type":"LineString","coordinates":[[100.71712,2.91106],[101.14496,2.68632]]}},{"type":"Feature","properties":{"osm_id":182075775,"seamark":"separation_lane"},"geometry":{"type":"LineString","coordinates":[[103.84276,1.17808],[103.87583,1.1933]]}},{"type":"Feature","properties":{"osm_id":182075777,"seamark":"separation_lane"},"geometry":{"type":"LineString","coordinates":[[102.00071,2.17721],[101.70074,2.41146]]}},{"type":"Feature","properties":{"osm_id":182075798,"seamark":"separation_line"},"geometry":{"type":"LineString","coordinates":[[103.89867,1.21619],[103.92236,1.22637],[103.98179,1.24815]]}},{"type":"Feature","properties":{"osm_id":182075799,"seamark":"separation_lane"},"geometry":{"type":"LineString","coordinates":[[104.44218,1.41636],[104.32376,1.31127],[104.24918,1.29922]]}},{"type":"Feature","properties":{"osm_id":182075800,"seamark":"separation_boundary"},"geometry":{"type":"LineString","coordinates":[[101.58667,2.40974],[101.38593,2.56676],[101.20513,2.6562]]}},{"type":"Feature","properties":{"osm_id":182075801,"seamark":"separation_boundary"},"geometry":{"type":"LineString","coordinates":[[103.83879,1.18783],[103.86156,1.19871],[103.87154,1.20327]]}},{"type":"Feature","properties":{"osm_id":182075803,"seamark":"separation_lane"},"geometry":{"type":"LineString","coordinates":[[104.24941,1.27049],[104.32853,1.28384],[104.45655,1.39616]]}},{"type":"Feature","properties":{"osm_id":182075804,"seamark":"separation_lane"},"geometry":{"type":"LineString","coordinates":[[103.70634,1.22908],[103.72409,1.24224],[103.76173,1.24734]]}},{"type":"Feature","properties":{"osm_id":182075806,"seamark":"separation_lane"},"geometry":{"type":"LineString","coordinates":[[101.62927,2.46768],[101.45055,2.60807],[101.23994,2.71715]]}},{"type":"Feature","properties":{"osm_id":182075811,"seamark":"separation_boundary"},"geometry":{"type":"LineString","coordinates":[[104.43666,1.42257],[104.32286,1.32229],[104.24861,1.30935]]}},{"type":"Feature","properties":{"osm_id":182075812,"seamark":"separation_lane"},"geometry":{"type":"LineString","coordinates":[[103.90213,1.20949],[103.9698,1.236],[104.05545,1.24517]]}},{"type":"Feature","properties":{"osm_id":182075814,"seamark":"separation_lane"},"geometry":{"type":"LineString","coordinates":[[101.21676,2.67418],[101.41217,2.57473],[101.59479,2.42933]]}},{"type":"Feature","properties":{"osm_id":182075815,"seamark":"separation_boundary"},"geometry":{"type":"LineString","coordinates":[[101.64511,2.48271],[101.46576,2.62321],[101.24836,2.7378]]}},{"type":"Feature","properties":{"osm_id":182075816,"seamark":"separation_boundary"},"geometry":{"type":"LineString","coordinates":[[104.46172,1.38753],[104.32853,1.27045],[104.24902,1.25571]]}},{"type":"Feature","properties":{"osm_id":182075817,"seamark":"separation_boundary"},"geometry":{"type":"LineString","coordinates":[[103.82,1.18015],[103.79677,1.17096],[103.7555,1.14333]]}},{"type":"Feature","properties":{"osm_id":182075818,"seamark":"separation_boundary"},"geometry":{"type":"LineString","coordinates":[[101.1898,2.77128],[100.99777,2.87467],[100.80765,3.0477]]}},{"type":"Feature","properties":{"osm_id":182075819,"seamark":"separation_zone"},"geometry":{"type":"Polygon","coordinates":[[[104.05538,1.25696],[104.05496,1.26115],[103.98179,1.24815],[104.05538,1.25696]]]}},{"type":"Feature","properties":{"osm_id":182075824,"seamark":"separation_line"},"geometry":{"type":"LineString","coordinates":[[103.7083,1.2341],[103.71879,1.24467],[103.73407,1.25592]]}},{"type":"Feature","properties":{"osm_id":182075871,"seamark":"separation_lane"},"geometry":{"type":"LineString","coordinates":[[101.17431,2.75048],[101.00448,2.84289],[100.94293,2.90343],[100.79981,3.02804]]}},{"type":"Feature","properties":{"osm_id":182075975,"seamark":"separation_lane"},"geometry":{"type":"LineString","coordinates":[[104.05379,1.26834],[103.98575,1.2569],[103.91849,1.22988],[103.89777,1.21997]]}},{"type":"Feature","properties":{"osm_id":182075994,"seamark":"separation_lane"},"geometry":{"type":"LineString","coordinates":[[103.8637,1.21946],[103.85275,1.21188],[103.83765,1.20626],[103.8105,1.20995]]}},{"type":"Feature","properties":{"osm_id":182076018,"seamark":"separation_line"},"geometry":{"type":"LineString","coordinates":[[103.86476,1.21763],[103.8541,1.21019],[103.83765,1.20392],[103.81287,1.20699]]}},{"type":"Feature","properties":{"osm_id":182076065,"seamark":"separation_lane"},"geometry":{"type":"LineString","coordinates":[[100.7555,2.96194],[100.9142,2.8564],[100.98502,2.79122],[101.15225,2.70613]]}},{"type":"Feature","properties":{"osm_id":182076146,"seamark":"separation_lane"},"geometry":{"type":"LineString","coordinates":[[103.81661,1.20429],[103.83825,1.20153],[103.85494,1.2083],[103.86571,1.21467]]}},{"type":"Feature","properties":{"osm_id":182076162,"seamark":"separation_zone"},"geometry":{"type":"Polygon","coordinates":[[[101.67968,2.38707],[101.9816,2.15022],[101.99059,2.1616],[101.68831,2.39776],[101.67968,2.38707]]]}},{"type":"Feature","properties":{"osm_id":182076204,"seamark":"separation_lane"},"geometry":{"type":"LineString","coordinates":[[103.83879,1.18783],[103.84108,1.18195],[103.87476,1.19633],[103.87154,1.20327],[103.86156,1.19871],[103.83879,1.18783]]}},{"type":"Feature","properties":{"osm_id":182076245,"seamark":"separation_boundary"},"geometry":{"type":"LineString","coordinates":[[103.73407,1.25592],[103.75078,1.26468],[103.74628,1.27327],[103.7303,1.26062],[103.70675,1.24961]]}},{"type":"Feature","properties":{"osm_id":182076258,"seamark":"separation_lane"},"geometry":{"type":"LineString","coordinates":[[103.8182,1.18274],[103.7926,1.17243],[103.73621,1.13205],[103.66857,1.18131],[103.65749,1.1836],[103.59635,1.19623]]}},{"type":"Feature","properties":{"osm_id":182076265,"seamark":"separation_zone"},"geometry":{"type":"Polygon","coordinates":[[[104.45111,1.40378],[104.44819,1.40708],[104.32633,1.29959],[104.24882,1.28818],[104.24882,1.28375],[104.32852,1.29573],[104.45111,1.40378]]]}},{"type":"Feature","properties":{"osm_id":182076276,"seamark":"separation_lane"},"geometry":{"type":"LineString","coordinates":[[103.54301,1.10772],[103.65387,1.03978],[103.71496,1.07899],[103.76706,1.13233],[103.80627,1.16189],[103.82314,1.17074]]}},{"type":"Feature","properties":{"osm_id":182076287,"seamark":"separation_zone"},"geometry":{"type":"Polygon","coordinates":[[[101.4286,2.58628],[101.22477,2.69348],[101.22825,2.69991],[101.44964,2.58312],[101.62002,2.45108],[101.61198,2.44134],[101.4286,2.58628]]]}},{"type":"Feature","properties":{"osm_id":182076288,"seamark":"separation_boundary"},"geometry":{"type":"LineString","coordinates":[[103.6475,1.06001],[103.65001,1.04952],[103.71281,1.0825],[103.77858,1.14828],[103.80293,1.16579],[103.82231,1.17406]]}},{"type":"Feature","properties":{"osm_id":182076311,"seamark":"separation_boundary"},"geometry":{"type":"LineString","coordinates":[[103.72662,1.23692],[103.76345,1.24206],[103.76128,1.25652],[103.75954,1.25472],[103.75154,1.25346],[103.73407,1.25592]]}},{"type":"Feature","properties":{"osm_id":182076315,"seamark":"separation_lane"},"geometry":{"type":"LineString","coordinates":[[102.05158,2.06188],[102.23336,1.89522],[102.49352,1.77271],[102.78733,1.63523],[102.9071,1.5599],[103.01838,1.48991],[103.19669,1.37706],[103.38458,1.20608],[103.4492,1.16539]]}},{"type":"Feature","properties":{"osm_id":182076325,"seamark":"separation_boundary"},"geometry":{"type":"LineString","coordinates":[[103.82231,1.17406],[103.82578,1.16533],[103.84408,1.17411],[103.84108,1.18195],[103.83879,1.18783],[103.83677,1.19312],[103.81772,1.18528],[103.82,1.18015],[103.82231,1.17406]]}},{"type":"Feature","properties":{"osm_id":182076336,"seamark":"separation_lane"},"geometry":{"type":"LineString","coordinates":[[103.48183,1.22118],[103.44426,1.23215],[103.40377,1.24398],[103.21764,1.41469],[103.04026,1.53541],[102.93351,1.60818],[102.82274,1.68369],[102.53412,1.82089],[102.26673,1.94738],[102.0895,2.10417]]}},{"type":"Feature","properties":{"osm_id":182076337,"seamark":"separation_zone"},"geometry":{"type":"Polygon","coordinates":[[[101.16437,2.72329],[101.16895,2.73173],[100.99002,2.82459],[100.92946,2.89417],[100.78916,3.0112],[100.78367,3.00459],[100.9207,2.89086],[100.99014,2.81619],[101.16437,2.72329]]]}},{"type":"Feature","properties":{"osm_id":182076343,"seamark":"separation_boundary"},"geometry":{"type":"LineString","coordinates":[[103.90494,1.20179],[103.89867,1.21619],[103.89577,1.22295],[103.86909,1.20846],[103.87154,1.20327],[103.87476,1.19633],[103.87759,1.19008],[103.90494,1.20179]]}},{"type":"Feature","properties":{"osm_id":182076349,"seamark":"separation_boundary"},"geometry":{"type":"LineString","coordinates":[[102.03659,2.04569],[102.09263,1.99429],[102.21941,1.87688],[102.48277,1.75233],[102.77887,1.61316],[102.89331,1.543],[103.00892,1.47212],[103.18364,1.3669],[103.37787,1.19285],[103.44458,1.15313]]}},{"type":"Feature","properties":{"osm_id":182076351,"seamark":"separation_boundary"},"geometry":{"type":"LineString","coordinates":[[104.05789,1.23412],[104.24902,1.25571],[104.24882,1.28375],[104.24882,1.28818],[104.24861,1.30935],[104.0535,1.27656],[104.05496,1.26115],[104.05538,1.25696],[104.05789,1.23412]]}},{"type":"Feature","properties":{"osm_id":182076356,"seamark":"separation_boundary"},"geometry":{"type":"LineString","coordinates":[[102.1022,2.11984],[102.27501,1.96633],[102.54506,1.84424],[102.84207,1.71103],[102.99699,1.64131],[103.07247,1.57683],[103.24236,1.43012],[103.41979,1.25326],[103.49358,1.23796]]}},{"type":"Feature","properties":{"osm_id":182076357,"seamark":"separation_boundary"},"geometry":{"type":"LineString","coordinates":[[101.20513,2.6562],[101.22477,2.69348],[101.22825,2.69991],[101.24836,2.7378],[101.1898,2.77128],[101.16895,2.73173],[101.16437,2.72329],[101.14496,2.68632],[101.20513,2.6562]]}},{"type":"Feature","properties":{"osm_id":252726562,"seamark":"separation_lane"},"geometry":{"type":"LineString","coordinates":[[103.84576,1.21157],[103.83167,1.2297]]}},{"type":"Feature","properties":{"osm_id":971908444,"seamark":"separation_lane"},"geometry":{"type":"LineString","coordinates":[[43.03825,13.20842],[43.32667,12.605],[43.45692,12.5315]]}},{"type":"Feature","properties":{"osm_id":971908445,"seamark":"separation_lane"},"geometry":{"type":"LineString","coordinates":[[43.47775,12.56717],[43.36008,12.63333],[43.06917,13.24025]]}},{"type":"Feature","properties":{"osm_id":971908446,"seamark":"separation_boundary"},"geometry":{"type":"LineString","coordinates":[[43.48383,12.57817],[43.37017,12.64167],[43.07833,13.25]]}},{"type":"Feature","properties":{"osm_id":971908447,"seamark":"separation_boundary"},"geometry":{"type":"LineString","coordinates":[[43.02867,13.199],[43.31633,12.59633],[43.45067,12.52083]]}},{"type":"Feature","properties":{"osm_id":971908448,"seamark":"separation_zone"},"geometry":{"type":"Polygon","coordinates":[[[43.06,13.2305],[43.04783,13.21783],[43.337,12.61367],[43.46317,12.54217],[43.47167,12.55617],[43.35,12.625],[43.06,13.2305]]]}},{"type":"Feature","properties":{"osm_id":1031697591,"seamark":"separation_boundary"},"geometry":{"type":"LineString","coordinates":[[42.753,13.50417],[42.673,13.56767],[42.615,13.68033]]}},{"type":"Feature","properties":{"osm_id":1031697592,"seamark":"separation_boundary"},"geometry":{"type":"LineString","coordinates":[[42.49883,13.62333],[42.56467,13.497],[42.68417,13.42033]]}},{"type":"Feature","properties":{"osm_id":1031697593,"seamark":"separation_zone"},"geometry":{"type":"Polygon","coordinates":[[[42.737,13.48533],[42.65133,13.55333],[42.59167,13.66917],[42.52967,13.63883],[42.59333,13.51583],[42.703,13.4435],[42.737,13.48533]]]}},{"type":"Feature","properties":{"osm_id":180062275,"seamark":"separation_lane"},"geometry":{"type":"LineString","coordinates":[[-9.691,38.65794],[-9.71206,38.86517]]}},{"type":"Feature","properties":{"osm_id":180062277,"seamark":"separation_boundary"},"geometry":{"type":"LineString","coordinates":[[-9.68717,38.86517],[-9.45106,38.86514]]}},{"type":"Feature","properties":{"osm_id":180062279,"seamark":"separation_lane"},"geometry":{"type":"LineString","coordinates":[[-9.72628,38.86517],[-9.70483,38.65539]]}},{"type":"Feature","properties":{"osm_id":180062281,"seamark":"separation_boundary"},"geometry":{"type":"LineString","coordinates":[[-9.6665,38.66233],[-9.48567,38.70933]]}},{"type":"Feature","properties":{"osm_id":180062283,"seamark":"separation_lane"},"geometry":{"type":"LineString","coordinates":[[-10.10592,38.86517],[-10.10592,38.694],[-10.07433,38.58742]]}},{"type":"Feature","properties":{"osm_id":180062284,"seamark":"separation_lane"},"geometry":{"type":"LineString","coordinates":[[-10.19675,38.86517],[-10.19667,38.68567],[-10.16275,38.57117]]}},{"type":"Feature","properties":{"osm_id":180062286,"seamark":"separation_lane"},"geometry":{"type":"LineString","coordinates":[[-9.92208,38.61542],[-9.94967,38.7085],[-9.94967,38.86517]]}},{"type":"Feature","properties":{"osm_id":180062288,"seamark":"separation_boundary"},"geometry":{"type":"LineString","coordinates":[[-10.19483,38.56533],[-10.2295,38.68267],[-10.22967,38.86517]]}},{"type":"Feature","properties":{"osm_id":180062290,"seamark":"separation_lane"},"geometry":{"type":"LineString","coordinates":[[-9.83233,38.63192],[-9.85758,38.71708],[-9.85758,38.86517]]}},{"type":"Feature","properties":{"osm_id":180062291,"seamark":"separation_zone"},"geometry":{"type":"Polygon","coordinates":[[[-9.67717,38.6605],[-9.69783,38.86517],[-9.68717,38.86517],[-9.6665,38.66233],[-9.67717,38.6605]]]}},{"type":"Feature","properties":{"osm_id":180062292,"seamark":"separation_zone"},"geometry":{"type":"Polygon","coordinates":[[[-9.71867,38.65283],[-9.7405,38.86517],[-9.82467,38.86517],[-9.82467,38.72],[-9.80033,38.63783],[-9.71867,38.65283]]]}},{"type":"Feature","properties":{"osm_id":180062294,"seamark":"separation_zone"},"geometry":{"type":"Polygon","coordinates":[[[-10.10717,38.58133],[-10.13967,38.69083],[-10.13967,38.86517],[-10.16383,38.86517],[-10.16383,38.68867],[-10.13067,38.577],[-10.10717,38.58133]]]}},{"type":"Feature","properties":{"osm_id":180062296,"seamark":"separation_zone"},"geometry":{"type":"Polygon","coordinates":[[[-9.86433,38.626],[-9.8905,38.71417],[-9.8905,38.86517],[-9.91467,38.86517],[-9.91467,38.71183],[-9.888,38.62167],[-9.86433,38.626]]]}},{"type":"Feature","properties":{"osm_id":180062298,"seamark":"separation_zone"},"geometry":{"type":"Polygon","coordinates":[[[-9.95617,38.60917],[-9.98467,38.70517],[-9.98467,38.86517],[-10.07217,38.86517],[-10.07217,38.69717],[-10.0415,38.5935],[-9.95617,38.60917]]]}},{"type":"Feature","properties":{"osm_id":180551657,"seamark":"separation_boundary"},"geometry":{"type":"LineString","coordinates":[[-5.428,36.02017],[-5.483,36.00583]]}},{"type":"Feature","properties":{"osm_id":180551661,"seamark":"separation_lane"},"geometry":{"type":"LineString","coordinates":[[-5.428,36.00402],[-5.4772,35.99123]]}},{"type":"Feature","properties":{"osm_id":180551663,"seamark":"separation_boundary"},"geometry":{"type":"LineString","coordinates":[[-5.45667,35.93917],[-5.428,35.94733]]}},{"type":"Feature","properties":{"osm_id":180551664,"seamark":"separation_lane"},"geometry":{"type":"LineString","coordinates":[[-5.46247,35.95394],[-5.428,35.96323]]}},{"type":"Feature","properties":{"osm_id":180551665,"seamark":"separation_lane"},"geometry":{"type":"LineString","coordinates":[[-5.74967,35.90393],[-5.6076,35.91476],[-5.54364,35.93177]]}},{"type":"Feature","properties":{"osm_id":180551666,"seamark":"separation_lane"},"geometry":{"type":"LineString","coordinates":[[-5.55869,35.9699],[-5.6084,35.95725],[-5.74967,35.95725]]}},{"type":"Feature","properties":{"osm_id":180551667,"seamark":"separation_boundary"},"geometry":{"type":"LineString","coordinates":[[-5.5645,35.9845],[-5.608,35.9735],[-5.74967,35.9735]]}},{"type":"Feature","properties":{"osm_id":180551668,"seamark":"separation_boundary"},"geometry":{"type":"LineString","coordinates":[[-5.74967,35.87517],[-5.608,35.89683],[-5.5375,35.91617]]}},{"type":"Feature","properties":{"osm_id":180551673,"seamark":"separation_boundary"},"geometry":{"type":"LineString","coordinates":[[-5.483,36.00583],[-5.5645,35.9845],[-5.5375,35.91617],[-5.45667,35.93917],[-5.483,36.00583]]}},{"type":"Feature","properties":{"osm_id":180551674,"seamark":"separation_boundary"},"geometry":{"type":"LineString","coordinates":[[-5.328,36.04667],[-5.428,36.02017],[-5.428,35.94733],[-5.30917,35.97967],[-5.328,36.04667]]}},{"type":"Feature","properties":{"osm_id":180551676,"seamark":"separation_zone"},"geometry":{"type":"Polygon","coordinates":[[[-5.74967,35.94099],[-5.72195,35.94099],[-5.69347,35.94099],[-5.60879,35.94099],[-5.55288,35.9553],[-5.54979,35.94737],[-5.60721,35.93267],[-5.74967,35.93267],[-5.74967,35.94099]]]}},{"type":"Feature","properties":{"osm_id":180750431,"seamark":"separation_zone"},"geometry":{"type":"Polygon","coordinates":[[[-9.07483,36.488],[-9.31017,36.54117],[-9.44458,36.65734],[-9.579,36.77333],[-9.633,36.96033],[-9.65667,36.956],[-9.60117,36.76383],[-9.46225,36.64384],[-9.32333,36.52367],[-9.08133,36.469],[-9.07483,36.488]]]}},{"type":"Feature","properties":{"osm_id":180750432,"seamark":"separation_zone"},"geometry":{"type":"Polygon","coordinates":[[[-9.03333,36.60817],[-9.22667,36.65183],[-9.33217,36.74297],[-9.43767,36.834],[-9.48233,36.9885],[-9.56783,36.9725],[-9.51783,36.79967],[-9.39592,36.69441],[-9.274,36.589],[-9.05683,36.54],[-9.03333,36.60817]]]}},{"type":"Feature","properties":{"osm_id":180750433,"seamark":"separation_zone"},"geometry":{"type":"Polygon","coordinates":[[[-9.00783,36.6815],[-9.1755,36.71933],[-9.26333,36.79512],[-9.35117,36.87083],[-9.39017,37.00567],[-9.41367,37.00133],[-9.37333,36.86133],[-9.281,36.78179],[-9.18867,36.70217],[-9.01433,36.66283],[-9.00783,36.6815]]]}},{"type":"Feature","properties":{"osm_id":180750434,"seamark":"separation_boundary"},"geometry":{"type":"LineString","coordinates":[[-9.19533,37.04167],[-8.99655,37.02292]]}},{"type":"Feature","properties":{"osm_id":180750435,"seamark":"separation_boundary"},"geometry":{"type":"LineString","coordinates":[[-8.95417,36.83567],[-8.94917,36.9945]]}},{"type":"Feature","properties":{"osm_id":180750436,"seamark":"separation_lane"},"geometry":{"type":"LineString","coordinates":[[-8.99892,36.70709],[-9.15775,36.74284],[-9.32108,36.88367],[-9.35808,37.01167]]}},{"type":"Feature","properties":{"osm_id":180750437,"seamark":"separation_lane"},"geometry":{"type":"LineString","coordinates":[[-9.226,37.03608],[-9.20025,36.93408],[-9.08867,36.83675],[-8.96267,36.8115]]}},{"type":"Feature","properties":{"osm_id":180750438,"seamark":"separation_lane"},"geometry":{"type":"LineString","coordinates":[[-9.60042,36.96642],[-9.54842,36.7865],[-9.42025,36.67587],[-9.29208,36.56509],[-9.06583,36.514]]}},{"type":"Feature","properties":{"osm_id":180750439,"seamark":"separation_boundary"},"geometry":{"type":"LineString","coordinates":[[-9.09917,36.41783],[-9.35883,36.47667],[-9.51,36.60753],[-9.66117,36.73817],[-9.72067,36.944]]}},{"type":"Feature","properties":{"osm_id":180750440,"seamark":"separation_lane"},"geometry":{"type":"LineString","coordinates":[[-9.02383,36.6355],[-9.20767,36.677],[-9.30658,36.76238],[-9.4055,36.84767],[-9.448,36.99492]]}},{"type":"Feature","properties":{"osm_id":180750441,"seamark":"separation_lane"},"geometry":{"type":"LineString","coordinates":[[-9.68867,36.95],[-9.63117,36.751],[-9.48612,36.62569],[-9.34108,36.50017],[-9.09025,36.44342]]}},{"type":"Feature","properties":{"osm_id":180750442,"seamark":"separation_zone"},"geometry":{"type":"Polygon","coordinates":[[[-8.95717,36.8275],[-9.078,36.85083],[-9.18183,36.94183],[-9.20567,37.03983],[-9.19533,37.04167],[-9.17267,36.94567],[-9.07233,36.8585],[-8.95417,36.83567],[-8.95717,36.8275]]]}},{"type":"Feature","properties":{"osm_id":180750443,"seamark":"separation_zone"},"geometry":{"type":"Polygon","coordinates":[[[-8.96817,36.7955],[-9.09933,36.82267],[-9.21867,36.92633],[-9.24633,37.03233],[-9.326,37.01767],[-9.291,36.8965],[-9.14,36.76633],[-8.99,36.73267],[-8.96817,36.7955]]]}},{"type":"Feature","properties":{"osm_id":369833376,"seamark":"separation_zone"},"geometry":{"type":"Polygon","coordinates":[[[-0.53666,37.57335],[-0.57667,37.54666],[-0.55833,37.53334],[-0.52334,37.55833],[-0.50501,37.58084],[-0.52333,37.58666],[-0.53666,37.57335]]]}},{"type":"Feature","properties":{"osm_id":369835520,"seamark":"separation_boundary"},"geometry":{"type":"LineString","coordinates":[[-0.72411,37.91076],[-0.55666,37.595]]}},{"type":"Feature","properties":{"osm_id":369835521,"seamark":"separation_boundary"},"geometry":{"type":"LineString","coordinates":[[-0.91907,37.55407],[-0.59583,37.5625]]}},{"type":"Feature","properties":{"osm_id":369835522,"seamark":"separation_line"},"geometry":{"type":"LineString","coordinates":[[-0.53833,37.52],[-0.5,37.54167],[-0.47834,37.57167]]}},{"type":"Feature","properties":{"osm_id":369835523,"seamark":"separation_line"},"geometry":{"type":"LineString","coordinates":[[-0.55666,37.595],[-0.56334,37.58333],[-0.59583,37.5625]]}},{"type":"Feature","properties":{"osm_id":369837640,"seamark":"separation_zone"},"geometry":{"type":"Polygon","coordinates":[[[0.385,38.63167],[0.44667,38.70333],[0.41667,38.71666],[0.34333,38.63167],[0.385,38.63167]]]}},{"type":"Feature","properties":{"osm_id":369838815,"seamark":"separation_boundary"},"geometry":{"type":"LineString","coordinates":[[0.19862,38.80151],[0.37667,38.73333]]}},{"type":"Feature","properties":{"osm_id":369838816,"seamark":"separation_boundary"},"geometry":{"type":"LineString","coordinates":[[0.08383,38.63124],[0.225,38.63166]]}},{"type":"Feature","properties":{"osm_id":369838817,"seamark":"separation_line"},"geometry":{"type":"LineString","coordinates":[[0.43334,38.62834],[0.47999,38.69]]}},{"type":"Feature","properties":{"osm_id":369838818,"seamark":"separation_line"},"geometry":{"type":"LineString","coordinates":[[0.37667,38.73333],[0.33667,38.68334],[0.225,38.63166]]}},{"type":"Feature","properties":{"osm_id":369842726,"seamark":"separation_lane"},"geometry":{"type":"LineString","coordinates":[[0.41044,38.63193],[0.46272,38.69562]]}},{"type":"Feature","properties":{"osm_id":369842728,"seamark":"separation_lane"},"geometry":{"type":"LineString","coordinates":[[0.39468,38.72578],[0.31994,38.63495]]}},{"type":"Feature","properties":{"osm_id":369843714,"seamark":"separation_lane"},"geometry":{"type":"LineString","coordinates":[[-0.54754,37.52663],[-0.51086,37.55108],[-0.49187,37.5767]]}},{"type":"Feature","properties":{"osm_id":369843715,"seamark":"separation_lane"},"geometry":{"type":"LineString","coordinates":[[-0.54077,37.59114],[-0.55495,37.57736],[-0.5859,37.55342]]}},{"type":"Feature","properties":{"osm_id":369847857,"seamark":"separation_zone"},"geometry":{"type":"Polygon","coordinates":[[[-2.15616,36.42834],[-2.19117,36.4045],[-2.266,36.39501],[-2.27066,36.37416],[-2.19116,36.38433],[-2.15384,36.40917],[-2.15616,36.42834]]]}},{"type":"Feature","properties":{"osm_id":369853260,"seamark":"separation_boundary"},"geometry":{"type":"LineString","coordinates":[[-2.00552,36.83554],[-2.16083,36.46884]]}},{"type":"Feature","properties":{"osm_id":369853261,"seamark":"separation_boundary"},"geometry":{"type":"LineString","coordinates":[[-2.29807,36.82306],[-2.25384,36.44817]]}},{"type":"Feature","properties":{"osm_id":369853263,"seamark":"separation_lane"},"geometry":{"type":"LineString","coordinates":[[-2.16033,36.44498],[-2.19086,36.42543],[-2.26092,36.42288]]}},{"type":"Feature","properties":{"osm_id":369853265,"seamark":"separation_line"},"geometry":{"type":"LineString","coordinates":[[-2.25384,36.44817],[-2.19117,36.44816],[-2.16083,36.46884]]}},{"type":"Feature","properties":{"osm_id":369853266,"seamark":"separation_lane"},"geometry":{"type":"LineString","coordinates":[[-2.27286,36.35818],[-2.1897,36.36732],[-2.14998,36.38143]]}},{"type":"Feature","properties":{"osm_id":369853267,"seamark":"separation_zone"},"geometry":{"type":"Polygon","coordinates":[[[-2.14751,36.35601],[-2.27867,36.33934],[-2.28066,36.33066],[-2.14667,36.34784],[-2.14751,36.35601]]]}},{"type":"Feature","properties":{"osm_id":369969175,"seamark":"separation_lane"},"geometry":{"type":"LineString","coordinates":[[-6.19992,35.88968],[-6.09845,35.88943]]}},{"type":"Feature","properties":{"osm_id":369969176,"seamark":"separation_lane"},"geometry":{"type":"LineString","coordinates":[[-6.10051,35.95527],[-6.20095,35.95552]]}},{"type":"Feature","properties":{"osm_id":369969177,"seamark":"separation_line"},"geometry":{"type":"LineString","coordinates":[[-6.2,35.97],[-6.1,35.97001]]}},{"type":"Feature","properties":{"osm_id":369969178,"seamark":"separation_line"},"geometry":{"type":"LineString","coordinates":[[-6.1,35.87167],[-6.19999,35.87167]]}},{"type":"Feature","properties":{"osm_id":369969179,"seamark":"separation_zone"},"geometry":{"type":"Polygon","coordinates":[[[-6.1,35.94166],[-6.1,35.90833],[-6.19999,35.90833],[-6.2,35.94166],[-6.1,35.94166]]]}},{"type":"Feature","properties":{"osm_id":402127722,"seamark":"separation_zone"},"geometry":{"type":"Polygon","coordinates":[[[-5.46827,35.96871],[-5.428,35.97913],[-5.428,35.98787],[-5.4714,35.97663],[-5.46827,35.96871]]]}},{"type":"Feature","properties":{"osm_id":1181263520,"seamark":"separation_boundary"},"geometry":{"type":"LineString","coordinates":[[-3.66914,36.73596],[-3.67017,36.73674]]}},{"type":"Feature","properties":{"osm_id":1181263521,"seamark":"separation_boundary"},"geometry":{"type":"LineString","coordinates":[[-3.66872,36.73625],[-3.66996,36.73696]]}},{"type":"Feature","properties":{"osm_id":1181263522,"seamark":"separation_boundary"},"geometry":{"type":"LineString","coordinates":[[-3.66696,36.73782],[-3.66835,36.73865]]}},{"type":"Feature","properties":{"osm_id":1181263523,"seamark":"separation_boundary"},"geometry":{"type":"LineString","coordinates":[[-3.66687,36.73791],[-3.66824,36.73876]]}},{"type":"Feature","properties":{"osm_id":1181263524,"seamark":"separation_boundary"},"geometry":{"type":"LineString","coordinates":[[-3.66559,36.73876],[-3.66732,36.73966]]}},{"type":"Feature","properties":{"osm_id":1181263525,"seamark":"separation_boundary"},"geometry":{"type":"LineString","coordinates":[[-3.66541,36.73895],[-3.66623,36.73938],[-3.66711,36.73987]]}},{"type":"Feature","properties":{"osm_id":153641172,"seamark":"separation_boundary"},"geometry":{"type":"LineString","coordinates":[[28.02278,43.14724],[28.02573,43.14814],[28.02789,43.14923],[28.03053,43.15051],[28.0331,43.1519],[28.03578,43.15357],[28.03789,43.15509],[28.04038,43.1571],[28.04251,43.15895],[28.04453,43.16103],[28.04628,43.16311],[28.04789,43.16528],[28.04935,43.16763],[28.05051,43.16989],[28.05159,43.17219],[28.05231,43.17442],[28.05283,43.17641],[28.05303,43.17777]]}},{"type":"Feature","properties":{"osm_id":153641179,"seamark":"separation_boundary"},"geometry":{"type":"LineString","coordinates":[[28.06206,43.22377],[28.03201,43.21476]]}},{"type":"Feature","properties":{"osm_id":153641180,"seamark":"separation_roundabout"},"geometry":{"type":"LineString","coordinates":[[27.99746,43.18633],[27.99852,43.18646],[27.99952,43.18641],[28.00124,43.18592],[28.00201,43.18547],[28.00252,43.18502],[28.00293,43.1845],[28.00322,43.18387],[28.00334,43.18317],[28.00328,43.18255],[28.00275,43.18146],[28.00169,43.18053],[28.00047,43.17999],[27.99943,43.17979],[27.99824,43.17977],[27.99706,43.17998],[27.99623,43.18029],[27.99531,43.18086],[27.99479,43.18139],[27.99444,43.1819],[27.99417,43.1827],[27.99417,43.18352],[27.99441,43.18425],[27.99477,43.1848],[27.99536,43.18538],[27.99611,43.18586],[27.99746,43.18633]]}},{"type":"Feature","properties":{"osm_id":153641185,"seamark":"separation_boundary"},"geometry":{"type":"LineString","coordinates":[[27.96821,43.1501],[27.96602,43.15131],[27.96265,43.15322],[27.95956,43.15534],[27.95647,43.1578],[27.95423,43.15991],[27.95214,43.1622],[27.9501,43.16501],[27.94839,43.16764],[27.94701,43.16997],[27.94573,43.17288],[27.94487,43.17617],[27.9442,43.17915],[27.94387,43.18206],[27.94392,43.18466],[27.94425,43.18722],[27.94482,43.19068],[27.94605,43.19432],[27.94758,43.19758],[27.94933,43.20056],[27.95157,43.20371],[27.95394,43.20634],[27.95646,43.2088],[27.95941,43.21098],[27.96236,43.2131],[27.96597,43.21518],[27.96881,43.21667],[27.97161,43.21821]]}},{"type":"Feature","properties":{"osm_id":153641189,"seamark":"separation_boundary"},"geometry":{"type":"LineString","coordinates":[[28.0509,43.19514],[28.04993,43.19733],[28.04897,43.19896],[28.0474,43.20136]]}},{"type":"Feature","properties":{"osm_id":153641191,"seamark":"separation_boundary"},"geometry":{"type":"LineString","coordinates":[[28.03201,43.21476],[28.02925,43.21622],[28.02645,43.21746],[28.02324,43.21875],[28.01965,43.21998],[28.01647,43.22084],[28.01328,43.22155],[28.0108,43.22223]]}},{"type":"Feature","properties":{"osm_id":180056488,"seamark":"separation_boundary"},"geometry":{"type":"LineString","coordinates":[[34.2485,44.29983],[34.12183,44.29983]]}},{"type":"Feature","properties":{"osm_id":180056491,"seamark":"separation_lane"},"geometry":{"type":"LineString","coordinates":[[33.21,44.47342],[33.21892,44.49042]]}},{"type":"Feature","properties":{"osm_id":180056492,"seamark":"separation_lane"},"geometry":{"type":"LineString","coordinates":[[33.46933,44.29983],[33.34958,44.39671],[33.22983,44.49342]]}},{"type":"Feature","properties":{"osm_id":180056493,"seamark":"separation_lane"},"geometry":{"type":"LineString","coordinates":[[33.47767,44.25817],[33.50767,44.25817]]}},{"type":"Feature","properties":{"osm_id":180056495,"seamark":"separation_boundary"},"geometry":{"type":"LineString","coordinates":[[33.20767,44.4515],[33.30142,44.37572],[33.39517,44.29983]]}},{"type":"Feature","properties":{"osm_id":180056497,"seamark":"separation_boundary"},"geometry":{"type":"LineString","coordinates":[[34.0685,44.29983],[33.87406,44.29983],[33.67961,44.29983],[33.48517,44.29983]]}},{"type":"Feature","properties":{"osm_id":180056498,"seamark":"separation_lane"},"geometry":{"type":"LineString","coordinates":[[34.0735,44.28317],[34.06517,44.2665]]}},{"type":"Feature","properties":{"osm_id":180056500,"seamark":"separation_boundary"},"geometry":{"type":"LineString","coordinates":[[33.4885,44.24983],[33.5185,44.24983]]}},{"type":"Feature","properties":{"osm_id":180056501,"seamark":"separation_lane"},"geometry":{"type":"LineString","coordinates":[[34.2485,44.2915],[34.11767,44.2915]]}},{"type":"Feature","properties":{"osm_id":180056506,"seamark":"separation_boundary"},"geometry":{"type":"LineString","coordinates":[[34.09683,44.24983],[34.2485,44.24983]]}},{"type":"Feature","properties":{"osm_id":180056508,"seamark":"separation_boundary"},"geometry":{"type":"LineString","coordinates":[[33.5485,44.24983],[33.7135,44.24983],[33.8785,44.24983],[34.0435,44.24983]]}},{"type":"Feature","properties":{"osm_id":180056509,"seamark":"separation_lane"},"geometry":{"type":"LineString","coordinates":[[33.18025,44.485],[33.19867,44.4705]]}},{"type":"Feature","properties":{"osm_id":180056511,"seamark":"separation_boundary"},"geometry":{"type":"LineString","coordinates":[[33.41517,44.28317],[33.43683,44.2665]]}},{"type":"Feature","properties":{"osm_id":180056512,"seamark":"separation_lane"},"geometry":{"type":"LineString","coordinates":[[33.53767,44.25817],[33.70767,44.25817],[33.87767,44.25817],[34.04767,44.25817]]}},{"type":"Feature","properties":{"osm_id":180056513,"seamark":"separation_lane"},"geometry":{"type":"LineString","coordinates":[[34.06433,44.2915],[33.87461,44.2915],[33.68489,44.2915],[33.49517,44.2915]]}},{"type":"Feature","properties":{"osm_id":180056514,"seamark":"separation_boundary"},"geometry":{"type":"LineString","coordinates":[[33.17583,44.4765],[33.19383,44.46233]]}},{"type":"Feature","properties":{"osm_id":180056515,"seamark":"separation_boundary"},"geometry":{"type":"LineString","coordinates":[[33.48517,44.29983],[33.35975,44.40075],[33.23433,44.5015]]}},{"type":"Feature","properties":{"osm_id":180056518,"seamark":"separation_lane"},"geometry":{"type":"LineString","coordinates":[[33.21208,44.45983],[33.31092,44.37989],[33.40975,44.29983]]}},{"type":"Feature","properties":{"osm_id":180056523,"seamark":"separation_boundary"},"geometry":{"type":"LineString","coordinates":[[34.08683,44.28317],[34.0785,44.2665]]}},{"type":"Feature","properties":{"osm_id":180056524,"seamark":"separation_lane"},"geometry":{"type":"LineString","coordinates":[[34.09183,44.2665],[34.10017,44.28317]]}},{"type":"Feature","properties":{"osm_id":180056526,"seamark":"separation_lane"},"geometry":{"type":"LineString","coordinates":[[33.43017,44.28317],[33.45183,44.2665]]}},{"type":"Feature","properties":{"osm_id":180056528,"seamark":"separation_lane"},"geometry":{"type":"LineString","coordinates":[[34.101,44.25817],[34.2485,44.25817]]}},{"type":"Feature","properties":{"osm_id":180056529,"seamark":"separation_lane"},"geometry":{"type":"LineString","coordinates":[[33.51183,44.2665],[33.49017,44.28317]]}},{"type":"Feature","properties":{"osm_id":180056534,"seamark":"separation_zone"},"geometry":{"type":"Polygon","coordinates":[[[33.50517,44.28317],[33.69017,44.28317],[33.87517,44.28317],[34.06017,44.28317],[34.05183,44.2665],[33.87683,44.2665],[33.70183,44.2665],[33.52683,44.2665],[33.50517,44.28317]]]}},{"type":"Feature","properties":{"osm_id":180056539,"seamark":"separation_zone"},"geometry":{"type":"Polygon","coordinates":[[[33.194,44.51033],[33.2125,44.4955],[33.2035,44.47867],[33.18467,44.4935],[33.194,44.51033]]]}},{"type":"Feature","properties":{"osm_id":180056540,"seamark":"separation_zone"},"geometry":{"type":"Polygon","coordinates":[[[34.1135,44.28317],[34.2485,44.28317],[34.2485,44.2665],[34.10517,44.2665],[34.1135,44.28317]]]}},{"type":"Feature","properties":{"osm_id":180056542,"seamark":"separation_zone"},"geometry":{"type":"Polygon","coordinates":[[[33.22533,44.48533],[33.33942,44.39266],[33.4535,44.29983],[33.42433,44.29983],[33.32042,44.38406],[33.2165,44.46817],[33.22533,44.48533]]]}},{"type":"Feature","properties":{"osm_id":180056543,"seamark":"separation_zone"},"geometry":{"type":"Polygon","coordinates":[[[33.44517,44.28317],[33.47517,44.28317],[33.49683,44.2665],[33.46683,44.2665],[33.44517,44.28317]]]}},{"type":"Feature","properties":{"osm_id":263195511,"seamark":"separation_lane"},"geometry":{"type":"LineString","coordinates":[[33.46433,44.2915],[33.43475,44.2915]]}},{"type":"Feature","properties":{"osm_id":854987076,"seamark":"separation_lane"},"geometry":{"type":"LineString","coordinates":[[29.05886,41.10162],[29.05903,41.10142],[29.0592,41.10123],[29.05938,41.10103],[29.05955,41.10083],[29.05973,41.10063],[29.0599,41.10044],[29.06007,41.10024],[29.06025,41.10004],[29.06042,41.09985],[29.0606,41.09965],[29.06078,41.09944],[29.06096,41.09924]]}},{"type":"Feature","properties":{"osm_id":964569473,"seamark":"separation_zone"},"geometry":{"type":"Polygon","coordinates":[[[26.688,40.39383],[26.66333,40.36778],[26.63717,40.33933],[26.4635,40.22183],[26.46083,40.22283],[26.63567,40.34017],[26.66333,40.37111],[26.68583,40.396],[26.688,40.39383]]]}},{"type":"Feature","properties":{"osm_id":964569474,"seamark":"separation_boundary"},"geometry":{"type":"LineString","coordinates":[[26.70017,40.39317],[26.66333,40.35556],[26.64417,40.33583],[26.572,40.28067]]}},{"type":"Feature","properties":{"osm_id":964569475,"seamark":"separation_boundary"},"geometry":{"type":"LineString","coordinates":[[26.67617,40.39883],[26.66333,40.38389],[26.6285,40.34367],[26.59033,40.31733]]}},{"type":"Feature","properties":{"osm_id":1034443802,"seamark":"separation_lane"},"geometry":{"type":"LineString","coordinates":[[29.13131,41.22629],[29.11246,41.20296],[29.08326,41.18122],[29.05696,41.15572],[29.05696,41.14734],[29.08141,41.12169],[29.08148,41.11973],[29.06179,41.10599],[29.05927,41.09919],[29.05894,41.08249],[29.05109,41.07508],[29.04156,41.05135],[28.99702,41.02566],[28.99482,41.02268],[28.99362,40.99141],[28.98882,40.97931]]}},{"type":"Feature","properties":{"osm_id":1034443803,"seamark":"separation_lane"},"geometry":{"type":"LineString","coordinates":[[28.99159,40.97869],[28.9965,40.99106],[28.99769,41.02208],[28.99926,41.0242],[29.04406,41.05004],[29.05369,41.07405],[29.06181,41.08171],[29.06215,41.09887],[29.06436,41.10481],[29.0844,41.1188],[29.08427,41.12242],[29.05985,41.14804],[29.05985,41.15498],[29.08542,41.17977],[29.11475,41.2016],[29.13378,41.22517]]}},{"type":"Feature","properties":{"osm_id":1034443804,"seamark":"separation_boundary"},"geometry":{"type":"LineString","coordinates":[[29.16628,41.23407],[29.14205,41.2217]]}},{"type":"Feature","properties":{"osm_id":1034443805,"seamark":"separation_boundary"},"geometry":{"type":"LineString","coordinates":[[29.14205,41.2217],[29.11957,41.20407],[29.1125,41.19352],[29.0863,41.17912],[29.06353,41.15702],[29.06437,41.14653],[29.08872,41.12235],[29.08958,41.119],[29.06627,41.10487],[29.06375,41.09987],[29.06492,41.08188],[29.05512,41.07403],[29.04895,41.0507],[29.0029,41.02407],[29.00072,41.01735],[29.00078,40.9464],[28.97672,40.95787]]}},{"type":"Feature","properties":{"osm_id":1034443806,"seamark":"separation_boundary"},"geometry":{"type":"LineString","coordinates":[[28.96807,40.96202],[28.95323,40.9692],[28.9894,40.99072],[28.99038,41.02055],[28.99508,41.02792],[29.03403,41.04853],[29.0471,41.06787],[29.04863,41.07518],[29.05625,41.08103],[29.05845,41.08455],[29.05792,41.1032],[29.07655,41.12367],[29.05403,41.14952],[29.05437,41.1577],[29.07443,41.17413],[29.10108,41.19793],[29.11003,41.20407],[29.12453,41.22905],[29.11955,41.24405]]}},{"type":"Feature","properties":{"osm_id":1034443807,"seamark":"separation_zone"},"geometry":{"type":"Polygon","coordinates":[[[28.9902,40.979],[28.97672,40.95787],[28.96807,40.96202],[28.9902,40.979]]]}},{"type":"Feature","properties":{"osm_id":1034443808,"seamark":"separation_line"},"geometry":{"type":"LineString","coordinates":[[28.9902,40.979],[28.99505,40.99123],[28.99625,41.02238],[28.99813,41.02493],[29.0428,41.0507],[29.05238,41.07457],[29.06037,41.0821],[29.0607,41.09903],[29.06307,41.1054],[29.08293,41.11927],[29.08283,41.12205],[29.0584,41.14768],[29.0584,41.15535],[29.08433,41.1805],[29.1136,41.20228],[29.13253,41.22573]]}},{"type":"Feature","properties":{"osm_id":1034443809,"seamark":"separation_zone"},"geometry":{"type":"Polygon","coordinates":[[[29.16458,41.34077],[29.13253,41.22573],[29.20793,41.3325],[29.16458,41.34077]]]}}]}
