{"type":"FeatureCollection","properties":{"licence":"ODbL 1.0 — © OpenStreetMap contributors","fetched":"2026-09-26","queries":{"tugela":"[out:json][timeout:60];node(id:1174043787)[\"waterway\"=\"waterfall\"](-28.8,28.84,-28.7,28.94);out body;","victoria_f":"[out:json][timeout:60];node(id:13269511601)[\"waterway\"=\"waterfall\"](-17.96,25.8,-17.89,25.9);out body;","khone":"[out:json][timeout:60];node(id:427599195)[\"waterway\"=\"waterfall\"](13.9,105.93,14.02,106.04);out body;","niagara":"[out:json][timeout:60];node(id:708267915)[\"waterway\"=\"waterfall\"](43.05,-79.1,43.1,-79.04);out body;","angel":"[out:json][timeout:60];node(id:366604035)[\"waterway\"=\"waterfall\"](5.93,-62.58,6.01,-62.49);out body;","iguazu":"[out:json][timeout:60];node(id:361426109)[\"waterway\"=\"waterfall\"](-25.72,-54.47,-25.66,-54.4);out body;"}},"features":[{"type":"Feature","properties":{"record":"tugela","osmNode":1174043787,"name":"Thukela Falls","nameEn":"Tugela Falls","wikidata":"Q223649"},"geometry":{"type":"Point","coordinates":[28.89462,-28.75227]}},{"type":"Feature","properties":{"record":"victoria_f","osmNode":13269511601,"name":null,"nameEn":"Victoria Falls","wikidata":null},"geometry":{"type":"Point","coordinates":[25.84743,-17.92301]}},{"type":"Feature","properties":{"record":"khone","osmNode":427599195,"name":"ນ້ຳຕົກຕາດຄອນພະເພັງ","nameEn":"Khone Phapheng Falls","wikidata":null},"geometry":{"type":"Point","coordinates":[105.98653,13.95977]}},{"type":"Feature","properties":{"record":"niagara","osmNode":708267915,"name":"Horseshoe Falls","nameEn":null,"wikidata":"Q1373778"},"geometry":{"type":"Point","coordinates":[-79.07506,43.07725]}},{"type":"Feature","properties":{"record":"angel","osmNode":366604035,"name":"Salto Ángel","nameEn":"Angel Falls","wikidata":"Q80299"},"geometry":{"type":"Point","coordinates":[-62.53615,5.96883]}},{"type":"Feature","properties":{"record":"iguazu","osmNode":361426109,"name":"Iguazú Falls","nameEn":"Iguazu Falls","wikidata":"Q36332"},"geometry":{"type":"Point","coordinates":[-54.43654,-25.69391]}}]}
