{"type":"FeatureCollection","properties":{"licence":"ODbL 1.0 — © OpenStreetMap contributors","fetched":"2026-09-25","queries":{"Gland|CHE":"[out:json][timeout:60];node[\"place\"][\"name\"=\"Gland\"](46.38,6.22,46.46,6.32);out body;","Nyon|CHE":"[out:json][timeout:60];node[\"place\"][\"name\"=\"Nyon\"](46.35,6.2,46.42,6.28);out body;","Cologny|CHE":"[out:json][timeout:60];node[\"place\"][\"name\"=\"Cologny\"](46.2,6.16,46.24,6.21);out body;","Ebene|MUS":"[out:json][timeout:60];node[\"place\"][\"name\"~\"^[EÉ]b[eè]ne$\"](-20.3,57.45,-20.2,57.53);out body;","Langley, Virginia|USA":"[out:json][timeout:60];node[\"place\"][\"name\"=\"Langley\"](38.9,-77.22,39,-77.1);out body;","Fort Meade, Maryland|USA":"[out:json][timeout:60];node[\"place\"][\"name\"=\"Fort Meade\"](39.05,-76.8,39.15,-76.68);out body;","Santa Clara, California|USA":"[out:json][timeout:60];node[\"place\"][\"name\"=\"Santa Clara\"](37.32,-122,37.4,-121.92);out body;","Cupertino, California|USA":"[out:json][timeout:60];node[\"place\"][\"name\"=\"Cupertino\"](37.29,-122.08,37.35,-121.99);out body;","Mountain View, California|USA":"[out:json][timeout:60];node[\"place\"][\"name\"=\"Mountain View\"](37.36,-122.12,37.42,-122.04);out body;","Menlo Park, California|USA":"[out:json][timeout:60];node[\"place\"][\"name\"=\"Menlo Park\"](37.42,-122.22,37.48,-122.14);out body;","Los Gatos, California|USA":"[out:json][timeout:60];node[\"place\"][\"name\"=\"Los Gatos\"](37.2,-122.01,37.26,-121.94);out body;","Redmond, Washington|USA":"[out:json][timeout:60];node[\"place\"][\"name\"=\"Redmond\"](47.63,-122.17,47.72,-122.07);out body;","Armonk, New York|USA":"[out:json][timeout:60];node[\"place\"][\"name\"=\"Armonk\"](41.1,-73.75,41.15,-73.68);out body;","Starbase, Texas|USA":"[out:json][timeout:60];node[\"place\"][\"name\"=\"Starbase\"](25.95,-97.2,26.05,-97.1);out body;","Bastrop, Texas|USA":"[out:json][timeout:60];node[\"place\"][\"name\"=\"Bastrop\"](30.07,-97.36,30.15,-97.27);out body;","Espoo|FIN":"[out:json][timeout:60];node[\"place\"][\"name\"=\"Espoo\"](60.15,24.55,60.25,24.75);out body;"}},"features":[{"type":"Feature","properties":{"key":"Gland|CHE","osmNode":1932397580,"name":"Gland","place":"town"},"geometry":{"type":"Point","coordinates":[6.26551,46.42394]}},{"type":"Feature","properties":{"key":"Nyon|CHE","osmNode":240039598,"name":"Nyon","place":"town"},"geometry":{"type":"Point","coordinates":[6.24028,46.38206]}},{"type":"Feature","properties":{"key":"Cologny|CHE","osmNode":60401402,"name":"Cologny","place":"village"},"geometry":{"type":"Point","coordinates":[6.18176,46.2164]}},{"type":"Feature","properties":{"key":"Ebene|MUS","osmNode":9280540367,"name":"Ébène","place":"suburb"},"geometry":{"type":"Point","coordinates":[57.4823,-20.24182]}},{"type":"Feature","properties":{"key":"Langley, Virginia|USA","osmNode":158642381,"name":"Langley","place":"suburb"},"geometry":{"type":"Point","coordinates":[-77.15887,38.9465]}},{"type":"Feature","properties":{"key":"Fort Meade, Maryland|USA","osmNode":9208851449,"name":"Fort Meade","place":"village"},"geometry":{"type":"Point","coordinates":[-76.74125,39.1027]}},{"type":"Feature","properties":{"key":"Santa Clara, California|USA","osmNode":150938195,"name":"Santa Clara","place":"city"},"geometry":{"type":"Point","coordinates":[-121.95517,37.35411]}},{"type":"Feature","properties":{"key":"Cupertino, California|USA","osmNode":150966332,"name":"Cupertino","place":"city"},"geometry":{"type":"Point","coordinates":[-122.03229,37.32289]}},{"type":"Feature","properties":{"key":"Mountain View, California|USA","osmNode":81013838,"name":"Mountain View","place":"city"},"geometry":{"type":"Point","coordinates":[-122.08321,37.38939]}},{"type":"Feature","properties":{"key":"Menlo Park, California|USA","osmNode":150981209,"name":"Menlo Park","place":"town"},"geometry":{"type":"Point","coordinates":[-122.17799,37.45197]}},{"type":"Feature","properties":{"key":"Los Gatos, California|USA","osmNode":150951857,"name":"Los Gatos","place":"town"},"geometry":{"type":"Point","coordinates":[-121.97468,37.22661]}},{"type":"Feature","properties":{"key":"Redmond, Washington|USA","osmNode":48717784,"name":"Redmond","place":"town"},"geometry":{"type":"Point","coordinates":[-122.12388,47.66941]}},{"type":"Feature","properties":{"key":"Armonk, New York|USA","osmNode":158898373,"name":"Armonk","place":"town"},"geometry":{"type":"Point","coordinates":[-73.71398,41.12648]}},{"type":"Feature","properties":{"key":"Starbase, Texas|USA","osmNode":151500265,"name":"Starbase","place":"village"},"geometry":{"type":"Point","coordinates":[-97.18298,25.99146]}},{"type":"Feature","properties":{"key":"Bastrop, Texas|USA","osmNode":151324760,"name":"Bastrop","place":"town"},"geometry":{"type":"Point","coordinates":[-97.31527,30.11049]}},{"type":"Feature","properties":{"key":"Espoo|FIN","osmNode":25963545,"name":"Espoo","place":"city"},"geometry":{"type":"Point","coordinates":[24.65598,60.20497]}}]}
