{"type":"FeatureCollection","properties":{"licence":"ODbL 1.0 — © OpenStreetMap contributors","system":"jamuna","batch":"s4","fetched":"2026-10-05","snapshot":"2026-10-05T13:29:06Z"},"features":[{"type":"Feature","properties":{"osm_id":192599614,"group":"lachenChu","version":13,"timestamp":"2025-06-28T22:26:56Z","tags":{"name":"Lachen Chu","alt_name":"Teesta","wikidata":"Q907883","waterway":"river"},"nodes":[2031546526,2034224457,2034224318,2034224306,2034224517,2034224383,2034224359,2034224377,2034224312,2034224308,2034224522,2034224507,2031484187,2034224456,2034224496,2034224378,2031484094,2031484082,2031484046,2031484121,2034224396,2034224371,2034224502,2034224437,2031484092,2031484076,2034224314,2034224340,2031484088,2034224485,2034224438,2031484186,2034224391,2034224315,2031484051,2031484027,2031484093,2034224439,2034224400,2031484222,2031484119,2031484208,2031484224,2031484023,2031484043,2034224427,2034224379,2031484085,2031484050,2034224511,2034224338,2031484055,2031484116,2034224484,2034224451,2031484150,2031484143,2034224355,2034224471,2031484215,6544490906,5700005737,6544490908,6544490907,2031484106,2031484162,2031484179,2034224446,2034224521,2031484029,2034224336,2031484171,2034224368,2034224360,2034224450,2031484030,2031484131,2034224455,2034224299,2034224423,2034224413,2034224426,2031484067,2034224333,2031484228,2034224300,2034224460,2034224325,2031484176,2034224443,2031484080,2034224350,2034224324,2034224433,2031484095,2034224363,2034224365,2034224410,2034224394,2031484105,2031484145,2031484108,2034224493,2031484096,2034224309,2034224514,2031484115,2034224515,2031484148,2034224357,2034224510,2031484133,2034224376,2031484125]},"geometry":{"type":"LineString","coordinates":[[88.8035315,27.9946608],[88.8032962,27.9943861],[88.8030817,27.9943767],[88.8029315,27.9944714],[88.8028564,27.9943672],[88.8026632,27.9942346],[88.8002492,27.9947461],[88.7997986,27.9948219],[88.7992515,27.9950587],[88.7989832,27.9953524],[88.7991227,27.9956082],[88.7994982,27.9958829],[88.7996565,27.9962041],[88.7995036,27.9967043],[88.7988963,27.9972054],[88.7979254,27.9978145],[88.7977859,27.9983517],[88.7952386,27.9992227],[88.7926637,28.0005868],[88.7901792,28.0015014],[88.7890988,28.0018169],[88.7888359,28.0014399],[88.7884341,28.0017809],[88.7876944,28.0018993],[88.7873768,28.0024648],[88.7859689,28.0014962],[88.7841109,28.0010837],[88.7829565,28.0011926],[88.7823568,28.0007796],[88.7805082,28.0014721],[88.7782744,28.0021039],[88.7749825,28.0039212],[88.7737866,28.0043309],[88.7727588,28.0043622],[88.7719391,28.0049722],[88.7708018,28.0074739],[88.7698201,28.0080962],[88.7694081,28.0090653],[88.7684361,28.0099651],[88.7681754,28.0106196],[88.7688223,28.0126751],[88.7679444,28.0151363],[88.7674294,28.0174095],[88.7651978,28.0193795],[88.7630631,28.0231694],[88.7620074,28.0248969],[88.7618228,28.0259794],[88.7609967,28.0273981],[88.7590559,28.0278299],[88.758159,28.0286169],[88.7578274,28.0295403],[88.7565099,28.0312166],[88.7559338,28.0356325],[88.7555336,28.036783],[88.7547322,28.0374611],[88.7542107,28.0382328],[88.7541828,28.039194],[88.7537623,28.0404847],[88.7529834,28.0408209],[88.7523232,28.0415022],[88.752036,28.0420351],[88.7519206,28.0421664],[88.7516765,28.0423497],[88.7512999,28.0424247],[88.7493903,28.0446502],[88.7471061,28.0472409],[88.7449314,28.0483535],[88.7445215,28.0488913],[88.7433853,28.0491214],[88.7432909,28.049646],[88.7419981,28.0494812],[88.7413876,28.0495257],[88.7414617,28.0498467],[88.740789,28.0503959],[88.7397654,28.0507027],[88.739347,28.0509877],[88.7395627,28.0520169],[88.7395852,28.0524392],[88.7391346,28.0529846],[88.7384769,28.0534088],[88.7378793,28.053404],[88.7374587,28.0537657],[88.7370103,28.0535924],[88.7347615,28.0537051],[88.7331908,28.0535498],[88.7330224,28.0540488],[88.732251,28.0543404],[88.7314613,28.0543385],[88.7309356,28.0536739],[88.7288113,28.0553374],[88.728439,28.0552428],[88.7281289,28.0555722],[88.7282373,28.0562123],[88.7280442,28.0564869],[88.7270561,28.0566024],[88.7264413,28.056395],[88.7263394,28.0555675],[88.7258952,28.0556963],[88.7253834,28.0559349],[88.7248051,28.0554747],[88.7240863,28.0539503],[88.7235166,28.0541908],[88.7230048,28.0546368],[88.7215962,28.0543499],[88.7199568,28.0540876],[88.7193924,28.0534078],[88.718135,28.0527962],[88.7167585,28.052888],[88.7162253,28.0527053],[88.7153037,28.0524259],[88.7140538,28.0522906],[88.7134937,28.0516969],[88.712511,28.0521466],[88.7119879,28.0526868]]}},{"type":"Feature","properties":{"osm_id":293185705,"group":"lachenChu","version":27,"timestamp":"2025-08-22T16:24:41Z","tags":{"name":"Lachen Chu","alt_name":"Teesta","wikidata":"Q907883","waterway":"river"},"nodes":[2031484125,2034224323,2034224390,2034224352,2031484196,2034224301,2034224470,2034224513,2031484210,2034224409,2034224440,2034224491,2034224354,2031484077,2034224317,2031484217,2031484069,2031484109,2034224388,2034224498,2034224474,2034224421,2031484072,2034224295,2034224297,2034224453,2034224477,2031484122,2034224335,2031484112,2034224431,2031484235,2034224466,2034224494,2034224435,2034224442,2031484200,2034224327,2034224488,2031484199,2034224519,2034224399,2031484172,2034224307,2528167808,2034224405,2034224483,11314068118,2031484142,2034224482,2034224393,11314068119,2034224351,2031484064,2034224385,2031484035,11314068120,2031484213,2031484198,2034224334,2031484239,2031484104,2034224448,2034224454,2031484170,2031484223,2031484120,2031484233,2031484220,2031484024,2031484191,2034224475,2031484160,2034224332,2034224386,2031484161,2034224476,2031484156,2034224492,2034224434,2031484190,2034224501,2034224505,2034224330,2031484209,2034224320,2034224406,11254733299,2034224416,2031484221,11254733300,2034224424,2034224370,2034224366,2034224447,2031484138,2034224481,2031484071,2034224432,2528167778,2034224407,2034224342,2034224512,2034224375,2034224472,2031484173,2034224339,2034224398,2034224473,2034224348,2034224486,2034224313,2031484144,2034224478,2034224346,2034224347,2034224369,2034224490,2034224304,2034224408,2031484090,2034224298,2034224518,2034224458,2034224509,2034224310,2034224380,2031484063,2034224524,2034224358,2034224495,2034224428,10088014225,2031484039,2031484058,10088014333,10088014334,10088014335,2031484194,2034224445,2031484083,2034224356,2034224305,2034224441,2034224465,2031484049,2034224344,2034224417,2034224319,2034224452,2034224430,2034224331,2031484073,2034224436,2031484068,2034224384,2034224401,2034224526,2031484136,2031484089,2031484031,2031484101,2031484149,2034224387,5696359273,5696359272,5696359271,2034224464,5696359268,5696359269,5696359267,2031484178,5696359258,5696359257,2031484078,2034224503,5696359246,5696359245,5696359244,2034224382,5696359236,2031484066,5696359235,5696359234,5696359233,2031484117,5696359227,2031484033,5696359224,5696359225,5696359223,5696359222,2034224516,2031484086,5696359095,5696359094,2034224411,5696359093,5696359092,2031484147,5696359091,5696359090,5696359089,2031484164,5696359073,5696359072,2034224499,5696359071,5696359070,2034224395,2034224322,5696359060,2031484074,5696359059,5696359058,2034224374,5696359056,5696359055,2031484135,5696359054,2034224419,2034224362,2034224487,2031484167,5696359052,5696359051,2034224520,5696359043,5696359045,5696359044,2034224497,2031484139,5696359037,5696359036,5696359035,5696359034,5696359033,2034224328,5696359032,5696359031,2034224404,2031484124,2034224302,5696359023,2034224361,2034224329,5696359022,5696359021,5696358920,2031484159,2034224418,2034224429,2034224468,2034224461,2034224381,2034224422,2034224294,2031484020,2034224367,2034224321,2034224364,2034224311,2034224326,2034224349,2034224463,2034224412,2034224500,2031484157,2034224397,2034224508,2034224337,2034224506,2034224467,2031484103,2034224341,2034224425,2034224343,2034224372,2034224303,2034224402,2034224459,2034224353,2031484188,2034224462,2034224420,2034224479,2034224523,2034224373,2034224414,2034224415,2031484032,2034224449,2034224525,2034224469,2034224389,2031484048,2034224316,2034224296,2034224345,2034224403,2034224489,2034224480,2034224392,2031484044,11313823229,11313823230,11313823231,11313823232,11313823233,11313823234,2034224504,2034224444,2031484037,11313823224,11313823225,11313823226,11313823227,11313823228,2031484155,11251156166,11251156167,11251156165,11251156161,11251156164,11251156163,11251156162,2031484113,11251156171,11251156170,11251156169,11251156168,11251156172,11251156173,11251156174,11251156175,2031484152,11251156176,11251156177,11251156178,11251156179,11251156180,11251156181,11251156182,11251156183,11251156184,2031484234,11251156186,11251156185,11251156188,11251156187,11251156189,11251156190,11251156191,11251156192,11251156193,11251156195,11251156194,11251156196,2031484070,11251156197,2031484175,11251156198,11251156199,2031484091,2031484146,11251156201,11251156200,2031484034,11251156202,11251156203,2031484111,10725656870,10725656833,10725656819,10725656823,10725656800,10725656790,2031484207,2031484107,10725656540,11251156149,10725656569,2031484061,2031484026,11251156150,11251156151,11251156152,11251156153,11251156154,11251156158,11251156157,11251156156,11251156155,2031484203,2031484236,2031484204,11251156160,11251156159,11251156130,2031484040,11251156118,11251156119,11251156120,5696359294,5696359292,5696359291,5696359293,5696359290,5696359289,5696359288,2031484219,5696359295,5696359299,5696359298,5696359297,5696359296,2031484174,5696359300,5696359301,5696359302,5696359303,11313823171,5696359304,2031484237,5696359305,5696359306,2031484110,5696359311,5696359310,5696359309,5696359308,5696359307,5696359314,5696359312,5696359313,2031484169,5696359315,5696359316,5696359317,5696359423,5696359422,5696359421,5696359320,5696359319,5696359318,2031484038,10725732292,5696359424,5696359428,5696359425,5696359426,5696359427,2031484060,11313823172,5696359431,5696359429,5696359430,2031484022,5696359432,11258100977,2031484062,5696359433,5696359437,5696359436,5696359435,5696359434,2031484102,5696359438,5696359442,5696359441,5696359440,5696359439,2031484230,5696359443,5696359450,5696359449,5696359448,5696359447,5696359446,5696359445,5696359444,2031484168,5696359451,5696359452,2031484126,5696359453,5696359454,5696359458,5696359457,5696359455,5696359456,5696359459,5696359460,5696359461,5696359462,2031484097,11258133846,5696359463,2031484193,5696359464,5696359465,5696359466,5696359470,5696359469,5696359468,5696359467,5696359471,2031484238,5696359480,5696359479,5696359478,5696359477,5696359684,5696359683,5696359682,5696359677,2031484212,5700225183,5696359676,5696359675,5696359672,2031484231,10087937602,5696359671,5696359670,5696359668,5696359667,5696359666,5696359663,5696359669,5696359662,11258133746,5696359661,5696359660,2031484128,5696359649,5696359648,5696359647,5696359650,5696359646,5696359645,5696359651,5696359643,5696359642,5696359644,10088044022,10088044023,11252495295,5696359641,5696359640,5696359639,2031484081,5696359627,11252495294,5696359626,2031484206,5696359621,5696359622,11252495293,5696359520,5696359519,5696361792,11252495292,5696359514,5696359513,5696361791,5696359512,5696361793,5696359503,5696359502,5696359504,5696359501,11252495291,5696359500,5696361797,5696361796,5696361795,11252495290,5696359493,5696361794,11252495289,2031484075,5696361798,5696361799,11252495288,5696361800,2031484118,5696362029,5696362028,5696362027,2031484158,5696362026,5696359481,2031484184,5696362024,5696362023,5696362022,5696362025,5696362021,5696361820,5696361819,2031484192,5696361818,5696361817,5696361816,5696361815,5700217927,5696361814,5696361813,5696361812,5696361811,5696361810,11252534273,5696361809,5696361808,5696361807,2031484140,11252534274,11252534275,5696361806,5696361805,5696361804,11252534276,5696093068,5696361803,2031484181,5696361802,5696093069,5696361801,5696093070,11252534277,5696093076,5696093071,5696093072,11252534278,5696093073,5696093075,5696093074,2031484205,5696093078,5696093079,11252842037,11252779135,11252779123,2031484189,11252534279,11252534281,11252534280,5696093080,11252779134,5696093084,5696093082,5696093083,5696093081,2031484099,5696093085,11252779820,5696093086,11252360393,5696093090,5696093089,5696093087,5696093088,5696093091,2031484180,11252360392,5696093092,5696095651,5696095650,5696095649,5696095648,2031484132,5696093100,5696093099,5696093097,5696093096,5696093098,5696093095,5696093094,5696093101,5696093093,5696093104,5696093102,5696093103,2031484177,5696093105,5696093106,11252360391,11252360390,5696093107,5696093108,5696093112,5696093110,5696093111,5696093109,5696095622,5696095621,11252360389,5696093119,5696093118,5696093117,5696093120,5696093116,5696093115,5696093114,2031484036,5696093113,5696095629,5696095628,5696095627,5696095630,5696095626,5696095625,5696095624,2031484185,5696095623,5696095776,5696095775,5696095777,5696095780,5696095779,5696095778,5696095781,2031484211,5696095782,5696095787,5696095786,5696095785,5696095784,5696095783,5696095790,5696095789,5696095788,2031484025,5696095791,5696144583,5696144582,5696095920,5696095792,5696095919,5696144592,5696144591,5696095921,5696144590,5696095922,5696144589,5696095924,5696144588,5696095923,5696144587,5696144586,5696095927,5696144585,5696095926,5696095925,5696095932,5696095928,5696095931,5696095930,5696095929,2031484154,5696095935,11252360369,5696095934,11252360370,5696095933,5696095940,11252360371,5696095938,5696095939,5696095942,5696095941,11252360372,2031484056,11252360373,5696095947,11252360374,5696095948,2031484021,5696095949,5696095950,5696095951,11252360377,11252360378,11252360376,11252360375,5696095952,5696095953,2031484045,5696095956,5696095955,11252360379,2031484123,11252360380,11252360381,11252360382,11252360383,11252360384,5696095954,11252360385,2031484137,11252360386,11252360387,2031484232,11252360388,11254534031,2031484201,11254533992,11254533993,11254533994,11254533995,11254533998,11254533999,11254534000,11254534001,11254534002,2031484165,11254534003,11254534004,11254534005,11254534006,11254534007,2031484054,2031484163,11254534008,2031484151,5696095958,11254534009,2031484130,11254534010,11254534011,5696095957,11254534012,11254534013,11254534014,2031484195,11254534016,2031484182,11254534015,2031484084,11254534017,2031484059,11254534018,11254534019,2031484098,2031484229,11254534020,2031484134,2031484216,11254534021,11254534022,2031484047,2031484225,11254534023,11254534024,2031484057,2031484052,11254534025,11254534026,2031484226,2031484218,11254534028,11254534027,2031484127]},"geometry":{"type":"LineString","coordinates":[[88.7119879,28.0526868],[88.7108067,28.0521547],[88.7108797,28.0514852],[88.7106275,28.0510753],[88.7101447,28.0509039],[88.7097875,28.0512097],[88.7096373,28.0516112],[88.7082994,28.0513063],[88.7081009,28.0504768],[88.7082736,28.0500413],[88.707558,28.0500006],[88.7068724,28.0503765],[88.7061718,28.0498926],[88.7055549,28.0497932],[88.7038458,28.0501824],[88.7026635,28.0501596],[88.7022537,28.0492876],[88.6990361,28.0500309],[88.6982486,28.049832],[88.6970083,28.0499542],[88.6967938,28.0495963],[88.6963553,28.0496523],[88.6958314,28.0501341],[88.6977774,28.0512331],[88.6945761,28.0505024],[88.694133,28.0499845],[88.694295,28.0495224],[88.6934767,28.0494215],[88.6915402,28.0485421],[88.6905814,28.0482524],[88.6889993,28.047837],[88.6878974,28.0474658],[88.6879521,28.0466041],[88.6874779,28.045839],[88.6880455,28.0454395],[88.6882772,28.0451488],[88.6878513,28.0444338],[88.6861969,28.0444501],[88.6851755,28.0448855],[88.6843033,28.0444604],[88.6836123,28.0446772],[88.6826553,28.0447577],[88.6814279,28.0441753],[88.680148,28.0433581],[88.6794227,28.0431631],[88.6787418,28.042816],[88.6783223,28.0430454],[88.6780135,28.0427887],[88.6776775,28.0424637],[88.6769284,28.0425063],[88.6765707,28.0428846],[88.676466,28.0432127],[88.6758798,28.0438132],[88.6754907,28.0438493],[88.6737741,28.0440584],[88.6731483,28.0440316],[88.6723696,28.0437321],[88.6717662,28.0434925],[88.6706533,28.0444512],[88.6701088,28.0445216],[88.6681328,28.0442577],[88.6647339,28.0441763],[88.6630784,28.0428354],[88.6617309,28.0422199],[88.6608951,28.0412228],[88.6608361,28.0398346],[88.6591012,28.0374843],[88.6554363,28.0364634],[88.6537904,28.0368223],[88.6522938,28.0376623],[88.6481117,28.0377522],[88.6456923,28.0389994],[88.6450443,28.0392248],[88.6433835,28.0393204],[88.6430992,28.0390467],[88.6421282,28.0386358],[88.6422076,28.0378952],[88.6419179,28.0370856],[88.6410349,28.0372541],[88.6403901,28.0370761],[88.6392025,28.0373725],[88.6380759,28.0369549],[88.6381221,28.036328],[88.6377208,28.0359928],[88.637222,28.0360602],[88.6357436,28.0366386],[88.6347584,28.0366116],[88.6343303,28.036735],[88.6338845,28.0370895],[88.6332505,28.0372932],[88.6327738,28.037093],[88.6319537,28.0369677],[88.6308651,28.0374587],[88.6300844,28.0373642],[88.6293083,28.037775],[88.6285198,28.0376985],[88.6270332,28.0390924],[88.6261611,28.0395191],[88.6249114,28.0393786],[88.624593,28.039541],[88.6237379,28.0394625],[88.6228056,28.0392731],[88.6222262,28.039735],[88.6216447,28.0398119],[88.621134,28.0395089],[88.620884,28.0395297],[88.6205826,28.0396765],[88.6204366,28.0399814],[88.6199646,28.0402134],[88.6188853,28.0400448],[88.6185484,28.0404463],[88.6176697,28.0403194],[88.617409,28.0399956],[88.6170377,28.0398999],[88.6168543,28.0402219],[88.6164402,28.039988],[88.6163104,28.0395839],[88.6156602,28.039399],[88.6151173,28.0395638],[88.6137933,28.0393715],[88.6126035,28.0390306],[88.6120842,28.0385903],[88.6118557,28.0377248],[88.611168,28.037667],[88.6115478,28.0372409],[88.6116079,28.0369369],[88.611168,28.0361698],[88.6113268,28.0355628],[88.6109019,28.0348213],[88.6103543,28.0350858],[88.6099599,28.0348924],[88.610152,28.0343289],[88.608912,28.0337317],[88.6088227,28.0336887],[88.6066498,28.0316086],[88.606189,28.0309172],[88.6063579,28.0307401],[88.6062844,28.0304486],[88.6049332,28.0290327],[88.6035226,28.0277641],[88.602012,28.027015],[88.6012428,28.0272101],[88.60082,28.0266276],[88.6000561,28.0264657],[88.599759,28.0258274],[88.5988974,28.0256095],[88.5983567,28.0259041],[88.5975306,28.0253728],[88.5971261,28.0255745],[88.5964641,28.0256342],[88.596653,28.0251862],[88.5965854,28.0248604],[88.5958408,28.0246217],[88.5963032,28.0226054],[88.5947314,28.0221669],[88.5943473,28.0210256],[88.5936779,28.0207074],[88.5935834,28.0200112],[88.593027,28.0189026],[88.5935588,28.0171604],[88.5927452,28.0140304],[88.5935974,28.012219],[88.5953201,28.0109994],[88.5958102,28.010048],[88.5960594,28.0097497],[88.5965717,28.0094679],[88.5967031,28.009359],[88.5967463,28.0092741],[88.5967353,28.0087504],[88.5966656,28.0083715],[88.5967889,28.0079358],[88.5966183,28.0073101],[88.595877,28.005473],[88.5951206,28.004701],[88.5949374,28.0042689],[88.5946864,28.0028309],[88.5949677,28.0024536],[88.5950589,28.001826],[88.5951099,28.0015679],[88.5953494,28.001266],[88.5952842,28.0008621],[88.5951297,28.000601],[88.5948846,28.0004406],[88.5945198,27.9990575],[88.5942999,27.9980273],[88.5942325,27.997679],[88.5946378,27.9969379],[88.5952126,27.9959961],[88.5953137,27.9956424],[88.595354,27.9953298],[88.5955095,27.9951782],[88.5955042,27.9948111],[88.5956798,27.9945396],[88.595414,27.9935126],[88.5950857,27.9924949],[88.5947236,27.9919667],[88.5943918,27.9914616],[88.5936347,27.9906664],[88.5932136,27.9901785],[88.5928517,27.9894049],[88.5925108,27.9879119],[88.592366,27.9869668],[88.5922694,27.9866731],[88.5921501,27.9864911],[88.5917893,27.9862255],[88.5914594,27.9860668],[88.5913395,27.9859397],[88.5910732,27.9856618],[88.5910249,27.9854865],[88.5909763,27.9852296],[88.5901341,27.9844485],[88.5901532,27.984108],[88.5900201,27.9838255],[88.5895389,27.9837219],[88.5891768,27.9835419],[88.5888445,27.9834532],[88.5882703,27.9828834],[88.5879028,27.9825968],[88.5876901,27.9823546],[88.5875139,27.9818649],[88.5872953,27.9814043],[88.5864885,27.980607],[88.5863216,27.9797069],[88.5860191,27.979373],[88.5859421,27.9788543],[88.5857624,27.9784113],[88.5856817,27.9781203],[88.5855585,27.9778073],[88.5853118,27.9774496],[88.5853305,27.977298],[88.5850572,27.9768772],[88.5842461,27.9764992],[88.5841396,27.9762866],[88.5841101,27.9760663],[88.5841477,27.9758247],[88.584078,27.9757133],[88.5839063,27.9755854],[88.5838293,27.9754153],[88.5837588,27.975159],[88.583445,27.9750051],[88.5831293,27.9749268],[88.5828825,27.9744838],[88.5825311,27.9741246],[88.5823211,27.9739723],[88.5821454,27.9738589],[88.5820156,27.9736618],[88.5819778,27.9734606],[88.5820368,27.9732356],[88.5819429,27.9729774],[88.5817882,27.9727015],[88.5817796,27.9719586],[88.5811656,27.9716165],[88.5805597,27.9710461],[88.5802572,27.9701526],[88.5805865,27.9697859],[88.5802475,27.9687426],[88.5804503,27.9681646],[88.5806713,27.9675553],[88.5803226,27.9672284],[88.5797786,27.9669327],[88.5797347,27.9663073],[88.5800211,27.9660448],[88.5801756,27.9656582],[88.5796885,27.9645969],[88.5799535,27.9643903],[88.5798269,27.9638331],[88.5794965,27.9635583],[88.5793044,27.9629888],[88.5786832,27.9612726],[88.5787015,27.9607732],[88.5785373,27.9597327],[88.5784311,27.9585898],[88.5773582,27.9578033],[88.5773754,27.9573503],[88.5770117,27.9570337],[88.5765407,27.9567665],[88.5761849,27.9559631],[88.5757757,27.9555411],[88.5759152,27.9551147],[88.5756427,27.9546408],[88.5757028,27.9529321],[88.575323,27.9523967],[88.5748863,27.952136],[88.5749732,27.9512338],[88.5746106,27.9508092],[88.5741374,27.9503704],[88.5738703,27.949906],[88.5735548,27.9498122],[88.5732147,27.9500065],[88.5728403,27.9499269],[88.5725581,27.9493127],[88.572218,27.9491403],[88.5723275,27.9487545],[88.5720088,27.9483773],[88.5715625,27.9484484],[88.5707965,27.9476276],[88.5699092,27.9468637],[88.5698395,27.9463643],[88.5695948,27.9460619],[88.5697847,27.9458525],[88.569847,27.9455738],[88.569523,27.9452184],[88.5690176,27.9451833],[88.568405,27.9446801],[88.5677165,27.9443034],[88.5674831,27.9442513],[88.5672551,27.9441328],[88.5670406,27.9438817],[88.5669413,27.9438461],[88.5666919,27.9439148],[88.5665993,27.9439413],[88.5663944,27.9438408],[88.5655378,27.9433224],[88.5652542,27.942967],[88.5649645,27.942787],[88.5647231,27.9425547],[88.5644791,27.9423936],[88.5642967,27.9421969],[88.5630685,27.941031],[88.5622419,27.9401857],[88.561892,27.9399878],[88.5616815,27.9399227],[88.561025,27.9393981],[88.5602933,27.9394272],[88.5590894,27.9390299],[88.5586975,27.9387059],[88.5586597,27.9384334],[88.5582797,27.9383016],[88.5579635,27.9383199],[88.5577021,27.9382773],[88.5574947,27.9383278],[88.5574099,27.9382807],[88.5572811,27.9380465],[88.5568714,27.9379966],[88.5563547,27.9380373],[88.5560273,27.9382359],[88.5552662,27.9381948],[88.5550527,27.9381168],[88.5545803,27.9381556],[88.5543002,27.938302],[88.5541715,27.9383326],[88.5538464,27.9381592],[88.5535289,27.937955],[88.5534408,27.9377651],[88.5532931,27.9376848],[88.5526644,27.9374307],[88.5524763,27.9373708],[88.552331,27.9373535],[88.5522391,27.9374269],[88.5521686,27.9375382],[88.5519538,27.9375843],[88.551809,27.9375292],[88.5517162,27.9374301],[88.5515437,27.9371663],[88.551408,27.9370722],[88.55089,27.9369958],[88.5503238,27.9367299],[88.5501838,27.9367687],[88.5501244,27.9368217],[88.5487782,27.9365067],[88.5476305,27.9367084],[88.5467652,27.9363847],[88.5465284,27.9360593],[88.5464712,27.9356653],[88.544886,27.9343169],[88.544534,27.9340959],[88.5438922,27.9339935],[88.5433867,27.9336748],[88.5428478,27.933412],[88.5423571,27.9329417],[88.5411959,27.9327179],[88.5409141,27.9325849],[88.5406897,27.9324071],[88.5405054,27.9322474],[88.5402905,27.9320602],[88.5400614,27.9318719],[88.539797,27.9318333],[88.5394468,27.931821],[88.5391771,27.931857],[88.5385795,27.93149],[88.5383362,27.9316303],[88.5381214,27.9316772],[88.5374733,27.9312561],[88.5370447,27.931293],[88.536611,27.9311322],[88.5365758,27.9308722],[88.5360326,27.9306522],[88.5354907,27.9306401],[88.5350484,27.9301989],[88.5348002,27.9300659],[88.5345521,27.929873],[88.53429,27.9296179],[88.5341972,27.9290967],[88.5342087,27.928675],[88.5330115,27.9271057],[88.5319969,27.9256455],[88.5317503,27.924918],[88.5318612,27.924659],[88.5318302,27.9241189],[88.5307187,27.9225054],[88.5304594,27.9220291],[88.5304234,27.9214529],[88.5301439,27.9210844],[88.5300839,27.9209469],[88.5302428,27.9204901],[88.5301954,27.9201945],[88.5301008,27.9199436],[88.5298879,27.9197615],[88.5296683,27.9193703],[88.5296784,27.9191583],[88.5298043,27.9189607],[88.5298507,27.9186566],[88.5294047,27.9181878],[88.5293236,27.9179012],[88.5292019,27.9175518],[88.5289349,27.917295],[88.5286169,27.9170653],[88.5282827,27.9169426],[88.5281104,27.9167605],[88.5281138,27.9163514],[88.5279679,27.9159132],[88.5279903,27.9156539],[88.5278366,27.9154466],[88.5275781,27.9149374],[88.5272757,27.9144552],[88.5268093,27.9139983],[88.5263562,27.9133292],[88.5261165,27.9129531],[88.5261098,27.9126008],[88.5260016,27.9124365],[88.5258192,27.912335],[88.5255522,27.9120901],[88.525397,27.9119968],[88.525194,27.911887],[88.524856,27.9116571],[88.5247443,27.9113899],[88.5247344,27.9108568],[88.5248189,27.9101849],[88.525052,27.9099519],[88.5253494,27.9095189],[88.5252007,27.9093009],[88.5251703,27.9090799],[88.5251872,27.9086798],[88.5254035,27.9083841],[88.5256603,27.9079362],[88.5260773,27.907508],[88.5261855,27.9072992],[88.5266541,27.9069008],[88.5271011,27.9064192],[88.5271854,27.9059469],[88.527104,27.9054944],[88.5272446,27.9052913],[88.5275832,27.905024],[88.528237,27.9047378],[88.528721,27.9044287],[88.5289798,27.9040954],[88.5293912,27.903803],[88.5296082,27.9033738],[88.5305976,27.9020887],[88.5310787,27.9017236],[88.5311227,27.9016902],[88.5317702,27.9013033],[88.5323481,27.9009061],[88.5326151,27.9003894],[88.532686,27.9001027],[88.5326151,27.8998697],[88.5326359,27.8997006],[88.5325779,27.8995084],[88.5323887,27.8992903],[88.5321994,27.8992067],[88.5320372,27.8990514],[88.5319764,27.8988961],[88.5320075,27.8987176],[88.5321555,27.8982092],[88.5322129,27.8978179],[88.5321859,27.8976537],[88.5321014,27.8974834],[88.5321217,27.8973102],[88.532071,27.8971459],[88.5321048,27.8969608],[88.5321825,27.8967995],[88.5323189,27.8966868],[88.5329125,27.8963873],[88.533541,27.8960678],[88.533597,27.89597],[88.533612,27.8957661],[88.5335309,27.8953928],[88.5333045,27.8950702],[88.5332436,27.8949268],[88.5332436,27.8947058],[88.5333078,27.8944938],[88.5334836,27.894446],[88.5335951,27.8943534],[88.5335714,27.8941354],[88.5334937,27.8938277],[88.5334131,27.8934642],[88.5334489,27.8933439],[88.5335005,27.8931706],[88.5337485,27.8928915],[88.5339736,27.8926987],[88.5338587,27.8919252],[88.5339026,27.8916205],[88.533781,27.8913397],[88.5337674,27.8910052],[88.5338925,27.8906976],[88.5341662,27.8904975],[88.5342372,27.890369],[88.5342829,27.8899209],[88.5348488,27.8893595],[88.5350584,27.8891205],[88.5353355,27.8887412],[88.5353794,27.8884515],[88.535447,27.8882633],[88.5355991,27.8881109],[88.5358525,27.8879078],[88.53616,27.8873075],[88.5362686,27.8868065],[88.5364262,27.8857433],[88.5364405,27.8856467],[88.5366602,27.8849926],[88.5368224,27.8845386],[88.5369831,27.8842663],[88.536996,27.8831659],[88.5366196,27.8823879],[88.5366264,27.8822087],[88.5367785,27.8818681],[88.5368798,27.8816053],[88.5367278,27.8813424],[88.5366331,27.8810646],[88.5366196,27.8808047],[88.5366602,27.8805508],[88.536692,27.880393],[88.5367311,27.8802641],[88.5366737,27.8799833],[88.5365922,27.8797977],[88.5366273,27.8796973],[88.5367764,27.879642],[88.5371477,27.8795121],[88.5372602,27.8794364],[88.5373066,27.8792992],[88.5372773,27.8788433],[88.5372955,27.8786839],[88.5374172,27.8786361],[88.5376909,27.8785465],[88.5377923,27.8784837],[88.5378638,27.8784299],[88.5379154,27.8783218],[88.5381328,27.8780643],[88.5382384,27.8777995],[88.5383988,27.8773439],[88.5384636,27.8772038],[88.5386482,27.8770715],[88.5387308,27.8768138],[88.5386974,27.8765121],[88.538805,27.8762731],[88.5391582,27.8759433],[88.5393561,27.8757899],[88.5396059,27.8754349],[88.5397355,27.8752481],[88.5399898,27.8751395],[88.5401474,27.8748659],[88.5403112,27.8747525],[88.5405228,27.8744983],[88.5407976,27.8744136],[88.5410762,27.8742134],[88.5412282,27.8739015],[88.5412767,27.8735292],[88.5414055,27.8733202],[88.5416269,27.8731974],[88.5419113,27.8727786],[88.5424302,27.872477],[88.5426308,27.8721538],[88.5428804,27.8718156],[88.5429649,27.8717463],[88.5432183,27.8714648],[88.543187,27.8711075],[88.5429304,27.870853],[88.5428841,27.8707092],[88.5429476,27.8706129],[88.5431237,27.8704513],[88.5437034,27.8702279],[88.5441127,27.8698869],[88.544255,27.8697698],[88.5444391,27.8696698],[88.5445009,27.8694454],[88.5443782,27.869089],[88.5440694,27.8687922],[88.5438211,27.8685341],[88.5436724,27.8681035],[88.5436211,27.8678038],[88.5436778,27.8676262],[88.5437835,27.8674737],[88.54395,27.8673411],[88.5442033,27.8671959],[88.5445505,27.867046],[88.5449232,27.8670046],[88.5455555,27.866961],[88.5457394,27.8668469],[88.5458489,27.8666745],[88.5459157,27.8662428],[88.5460335,27.8657583],[88.5459609,27.8655086],[88.5459616,27.8652749],[88.5459961,27.8648945],[88.5462516,27.8643872],[88.5461403,27.8637652],[88.5461756,27.8635007],[88.5461733,27.8632654],[88.5462007,27.8629941],[88.5461254,27.8628327],[88.5457507,27.8626954],[88.5455037,27.862373],[88.545378,27.8622404],[88.5453091,27.8620754],[88.5452254,27.8616773],[88.5450859,27.8614786],[88.5450125,27.8612381],[88.544869,27.8610651],[88.5447281,27.8610235],[88.5444734,27.8607627],[88.5440402,27.8602978],[88.5439888,27.8600477],[88.5437314,27.8599139],[88.5434089,27.8595393],[88.5430172,27.8589558],[88.5428934,27.8584089],[88.5427849,27.8579772],[88.5427851,27.8577958],[88.5429419,27.8575669],[88.5429089,27.8573265],[88.5428709,27.8569714],[88.5428694,27.8566631],[88.5430611,27.856411],[88.5430315,27.8560088],[88.5429451,27.8557963],[88.5429359,27.8556467],[88.5430787,27.8555221],[88.5431723,27.8553291],[88.5433982,27.8550768],[88.5438168,27.8549277],[88.5443003,27.8544372],[88.5446552,27.8541731],[88.5446686,27.8541632],[88.544998,27.8540933],[88.5450819,27.8540519],[88.5456567,27.8535877],[88.5461075,27.8527839],[88.5467169,27.8524186],[88.5469271,27.8519626],[88.5470799,27.8518413],[88.5473271,27.8516452],[88.5483297,27.8514178],[88.5485762,27.8512714],[88.5487949,27.8509984],[88.5491137,27.8503241],[88.5488342,27.8496044],[88.548977,27.8492597],[88.549258,27.8490121],[88.5492161,27.8487386],[88.5491058,27.8485877],[88.5489652,27.8483036],[88.5489833,27.8481436],[88.5492334,27.8478869],[88.5496823,27.8471222],[88.5497308,27.8468526],[88.549397,27.8462515],[88.549356,27.8459163],[88.5493294,27.8456205],[88.5494002,27.8453088],[88.5492203,27.8448648],[88.5491771,27.8445665],[88.5491018,27.8442463],[88.5492164,27.8441679],[88.5493957,27.8440581],[88.5493839,27.8439197],[88.5492867,27.8438092],[88.5492646,27.8437106],[88.5494343,27.8436303],[88.5494594,27.8433305],[88.5493137,27.8431301],[88.5491434,27.8424991],[88.5490053,27.8420721],[88.548729,27.8418703],[88.5482117,27.8414016],[88.5480421,27.8411185],[88.5481381,27.840929],[88.5481617,27.8407051],[88.5481301,27.8404772],[88.5482018,27.8403039],[88.5481414,27.8402253],[88.5479966,27.8401856],[88.5479431,27.8400925],[88.5480115,27.8399998],[88.5480018,27.8398226],[88.5480076,27.8396421],[88.5481657,27.8393183],[88.5482919,27.839238],[88.5485725,27.8392222],[88.5486654,27.8391293],[88.5486405,27.8389911],[88.5485033,27.8388754],[88.5485927,27.8387812],[88.5488077,27.8387379],[88.5489695,27.8385967],[88.5491122,27.8383633],[88.5491175,27.8382366],[88.5490781,27.8380546],[88.5489142,27.8379191],[88.5487716,27.8376103],[88.5487992,27.8372809],[88.5487311,27.8371378],[88.5484288,27.8366653],[88.548712,27.8364935],[88.5488928,27.8361005],[88.5488077,27.8359184],[88.5488109,27.8356028],[88.5487256,27.8353078],[88.5487263,27.8350499],[88.5488913,27.8342828],[88.5489373,27.8336896],[88.5491709,27.8329303],[88.5491093,27.832589],[88.5489954,27.8322577],[88.5492166,27.8315638],[88.5494193,27.8310525],[88.5495037,27.830511],[88.5492477,27.8302907],[88.5491645,27.8298967],[88.5492191,27.8296496],[88.54931,27.8294596],[88.549193,27.8291878],[88.5485531,27.828127],[88.5485222,27.8278962],[88.5488623,27.8275035],[88.5488768,27.8270281],[88.5487834,27.8268116],[88.548768,27.82653],[88.5486772,27.8263048],[88.5484437,27.8260982],[88.5483404,27.825953],[88.5483337,27.8256959],[88.5484529,27.8253485],[88.5485841,27.824954],[88.54873,27.8246436],[88.5488773,27.8245125],[88.5490738,27.8244397],[88.5491417,27.824172],[88.5490687,27.823874],[88.5489591,27.8237226],[88.5489073,27.8235656],[88.5490124,27.8234101],[88.5491783,27.8233067],[88.5494029,27.8231812],[88.5495462,27.8230338],[88.5496604,27.8226861],[88.549914,27.8224455],[88.5501395,27.8221746],[88.5502582,27.8217605],[88.5504794,27.82123],[88.5503591,27.8209407],[88.5504172,27.8206215],[88.5506863,27.8200777],[88.5505821,27.8195586],[88.5504068,27.8192499],[88.5502781,27.8191332],[88.5502531,27.8188439],[88.5502584,27.8187003],[88.5498263,27.8183638],[88.5497641,27.8182286],[88.5493802,27.8179604],[88.5494091,27.8171298],[88.5496409,27.8166929],[88.5500471,27.8162985],[88.550185,27.81546],[88.5503655,27.815136],[88.550678,27.8150258],[88.5508853,27.8147367],[88.5509341,27.81432],[88.5510263,27.8136881],[88.5511641,27.8135412],[88.5519546,27.8132651],[88.5521947,27.8130866],[88.5523015,27.8127529],[88.5525419,27.8125914],[88.5525221,27.812207],[88.5527397,27.8119243],[88.5527522,27.8110497],[88.5525348,27.8106186],[88.5526538,27.8098843],[88.5527436,27.809726],[88.5534612,27.8092123],[88.5535381,27.8085386],[88.5540008,27.807987],[88.5545959,27.8075582],[88.5546527,27.8072909],[88.5545036,27.8070114],[88.5545832,27.8068449],[88.5548402,27.8065076],[88.5547702,27.8060897],[88.5543764,27.8056981],[88.5543,27.8054532],[88.5544268,27.8037922],[88.5548702,27.8026529],[88.5546076,27.8019688],[88.5549567,27.8007529],[88.5548333,27.7994301],[88.554839,27.7986559],[88.5547538,27.798422],[88.5543503,27.7980912],[88.5543131,27.7979203],[88.5545021,27.7973095],[88.5543922,27.7969304],[88.5543737,27.7966497],[88.5545576,27.7963342],[88.5545199,27.7960453],[88.554099,27.7956969],[88.5535941,27.7947169],[88.5533052,27.7944534],[88.5526979,27.7940781],[88.5524628,27.7936987],[88.5524484,27.7933096],[88.5525049,27.7925507],[88.5520261,27.7918955],[88.551304,27.7904651],[88.5510492,27.7892122],[88.5503623,27.7882088],[88.549523,27.7872567],[88.5491579,27.786757],[88.5485615,27.7861363],[88.5485184,27.7858196],[88.5486438,27.7855018],[88.5487662,27.7851719],[88.5487375,27.7848879],[88.5489276,27.784591],[88.5489859,27.7843282],[88.5489743,27.7840791],[88.5482889,27.7831415],[88.5475439,27.7823708],[88.546884,27.7821415],[88.5466499,27.7814795],[88.5470499,27.7802506],[88.5470833,27.7797862],[88.5471882,27.7791756],[88.547501,27.7787903],[88.5471882,27.7771871],[88.5477668,27.7761156],[88.547514,27.7757701],[88.5469116,27.7734072],[88.5461188,27.7714203],[88.5457058,27.7709336],[88.545454,27.7700528],[88.5451352,27.7690652],[88.5439934,27.7662683],[88.5442487,27.7660089],[88.544117,27.7656238],[88.5443367,27.7639899],[88.5443367,27.7618633],[88.5443086,27.7608641],[88.5441038,27.760414],[88.5441483,27.7593037],[88.5437953,27.7568263],[88.5439384,27.7556154],[88.5442586,27.7545773],[88.5440485,27.7542674]]}},{"type":"Feature","properties":{"osm_id":126757767,"group":"lachenChu","version":16,"timestamp":"2025-06-28T22:26:56Z","tags":{"name":"Lachen Chu","alt_name":"Teesta","wikidata":"Q907883","waterway":"river"},"nodes":[2031484127,1404342623,4571036072,4571036071,1404342622,4571036069,4571036070,1404342620,4571036068,4571036067,1404342619,4571036065,4571036066,4571036063,4571036064,1404342617,4571036062,1404342616,4571036060,4571036061,4571036059,1404342614,4571036058,4571036057,4571036056,4571036055,1404342613,4571036054,4571036053,4571036052,1404342612,1404342611,4571036051,1404342610,4571036050,4571036049,4571036047,4571036046,4571036048,4571036043,4571036044,4571036045,1404342605,1404342604,12498173304,4571036042,4571036041,4571036040,4571036039,4571036038,4571036037,4571036036,1404342603,4571036035,1404342602,4571036034,4571036033,1404342600,4571036032,1404342598,4571036031,11253201730,1404342596,1404342595,1404342594,4571036030,4571036029,1404342592,4571036028,11256828824,4571036027,1404342591,4571036026,4571036025,1404342589,4571036023,4571036024,1404342588,1404342587,4571036022,4571036021,4571036020,4571036019,1404342586,4571036018,4571036015,4571036016,4571036017,11252923428,1404342584,11252923429,4571036014,4571036013,4571036012,4571036011,1404342582,4571036010,4571036009,1404342581,4571036008,4571036007,1404342580,1404342578,4571036006,4571036005,4571036004,4571035632,4571036003,11252686238,1404342576,4571036002,1404342575,4571036001,4571036000,4571035999,1404342573,4571035998,1404342572,4571035997,4571035996,4571035995,1404342568,4571035994,4571035993,1404342566,4571035992,4571035991,4571035990,1404342564,4571035989,4571035988,4571035987,4571035986,4571035985,1404342562,4571035984,4571035983,4571035982,1404342561,4571035869,4571035981,4571035980,1404342558,4571035979,4571035977,4571035978,4571035976,1404342556,4571035975,5718264816,1404342554,4571035974,5718264817,1404342549,1404342545,1404342543]},"geometry":{"type":"LineString","coordinates":[[88.5440485,27.7542674],[88.5440036,27.7536778],[88.5444364,27.7531628],[88.5444954,27.752764],[88.5440595,27.7517613],[88.5442969,27.7512449],[88.5451069,27.7502574],[88.5457947,27.7499838],[88.5459921,27.7492794],[88.5465822,27.7488427],[88.5468229,27.7478927],[88.5473707,27.7474754],[88.5478267,27.7469721],[88.547934,27.745733],[88.547816,27.7448025],[88.5494002,27.7426998],[88.5492697,27.7417497],[88.5495803,27.7405791],[88.5498545,27.739841],[88.55023,27.7394897],[88.550584,27.7383882],[88.5503065,27.7378844],[88.5507986,27.7372249],[88.5509005,27.7366362],[88.5515121,27.7363038],[88.5517159,27.7360284],[88.5517259,27.7357484],[88.5520914,27.7350076],[88.5521772,27.734528],[88.5526332,27.7339345],[88.5534646,27.7332953],[88.5538995,27.7324236],[88.5547361,27.73204],[88.5556582,27.7304701],[88.5562596,27.7300979],[88.5572144,27.7286307],[88.5579333,27.7281749],[88.5578153,27.727852],[88.558636,27.72619],[88.5590973,27.7255395],[88.5591134,27.7247322],[88.5586843,27.7236068],[88.559854,27.7215024],[88.5605862,27.7210964],[88.5606904,27.720867],[88.5614738,27.719143],[88.5617796,27.7190148],[88.562021,27.719238],[88.5624286,27.7193995],[88.5627881,27.7193045],[88.5630241,27.719276],[88.5636699,27.7192577],[88.5644113,27.7192545],[88.5649356,27.7187885],[88.5653692,27.7174371],[88.5658619,27.7164932],[88.5660979,27.7161608],[88.5661599,27.7156066],[88.5661029,27.7146063],[88.5641218,27.7131655],[88.5631356,27.7124818],[88.5627095,27.7108354],[88.5626888,27.7104551],[88.5637809,27.7076648],[88.5638616,27.7064294],[88.5645737,27.7053674],[88.565078,27.7044776],[88.5654327,27.7039698],[88.5662292,27.7028057],[88.5665616,27.7024338],[88.566977,27.7022094],[88.5674083,27.7020845],[88.5678145,27.7017183],[88.5683778,27.7014714],[88.5693852,27.7004851],[88.5696331,27.7002365],[88.570191,27.7000037],[88.5710803,27.6991155],[88.5710341,27.6981797],[88.5715911,27.6979519],[88.5728571,27.6979851],[88.5735008,27.6977666],[88.574225,27.6972964],[88.5748391,27.6971065],[88.5757535,27.6965823],[88.5760096,27.6961647],[88.5760133,27.6956148],[88.5760975,27.695147],[88.5763371,27.6945046],[88.5769212,27.6942505],[88.5770899,27.6936022],[88.5772036,27.6931356],[88.577566,27.6925121],[88.577746,27.6919018],[88.5779371,27.6916009],[88.5781044,27.6911455],[88.5785648,27.6906703],[88.5791013,27.6901763],[88.5802976,27.6894826],[88.5815957,27.6892786],[88.5822668,27.6890653],[88.5832188,27.6884236],[88.5853772,27.6880481],[88.5863218,27.6877443],[88.5867295,27.6872835],[88.5869297,27.6869178],[88.5871247,27.6865737],[88.5872552,27.6863177],[88.5878117,27.6855985],[88.5888044,27.685253],[88.5889986,27.6839536],[88.5901354,27.6827063],[88.5904148,27.6819584],[88.5911122,27.6815974],[88.5919866,27.6807946],[88.5927841,27.6798708],[88.5932419,27.6797067],[88.5937464,27.6788271],[88.5946313,27.6774265],[88.5959938,27.6747756],[88.5961762,27.6734976],[88.59657,27.6727003],[88.5965517,27.6709369],[88.5963693,27.6701958],[88.5966814,27.6681754],[88.596502,27.6676026],[88.596718,27.6664425],[88.5966837,27.6659786],[88.5969625,27.6650035],[88.5975086,27.6643395],[88.5979163,27.663071],[88.5982274,27.6626766],[88.5990857,27.6622015],[88.5998644,27.6615819],[88.6008027,27.6611063],[88.6012141,27.6605231],[88.601721,27.6599387],[88.601993,27.6590018],[88.6029061,27.658611],[88.6029899,27.6581654],[88.6033008,27.6565105],[88.6047546,27.6553274],[88.6052307,27.6543112],[88.6058865,27.6537879],[88.6063534,27.6530648],[88.6069927,27.651943],[88.606706,27.6505775],[88.6063653,27.6496636],[88.6061155,27.6487802],[88.6061365,27.6477764],[88.6065163,27.6467233],[88.6061493,27.6457906],[88.6059337,27.6445912],[88.6061611,27.6438087],[88.607257,27.6431143],[88.6086127,27.6426171]]}},{"type":"Feature","properties":{"osm_id":126757760,"group":"lachenChu","version":10,"timestamp":"2025-06-28T22:26:56Z","tags":{"name":"Lachen Chu","alt_name":"Teesta","wikidata":"Q907883","waterway":"river"},"nodes":[1404342543,2967524446,1404342541,1404342540,1404342539,2967524445,2967524444,1404342531,2967524443,1404342529,2967524442,1404342525,1404342523,2967524441,1404342514,1404342512,1404342511,1404342504,1404342498,5718264967,1404342493,1404342487,1404342477,1404342473,1404342471,1404342469,2967524440,1404342468,1404342467,2967524439,1404342458,1404342456,2967524438,1404342455,2967524437,2967524436,1404342453,2967524435,1404342452,2967524434,1404342451,1404342443,1404342442,2967524433,1404342439,2967523732,1404342437,2967523731,2967523729,5718265019,1404342435,2967523730,1404342433,2967523728,1404342426,2967523727,2967523726,1404342396,2967523725,2967523724,1404342392,2967523723,1404342390,2967523722,8361179246,1404342389,1477924489,1477924486,1477924484,1404342384]},"geometry":{"type":"LineString","coordinates":[[88.6086127,27.6426171],[88.609519,27.6422576],[88.6100697,27.6419882],[88.6110341,27.6407142],[88.6114376,27.6402997],[88.6125555,27.6396646],[88.6129269,27.6390216],[88.6130184,27.638156],[88.613687,27.637027],[88.6143837,27.636571],[88.6154409,27.6365051],[88.6161209,27.635442],[88.6167438,27.6343586],[88.6171267,27.6327335],[88.6181637,27.6307178],[88.6187537,27.6300878],[88.6191174,27.6290102],[88.6188507,27.6279362],[88.6193841,27.62654],[88.6193264,27.6259768],[88.6192547,27.6252762],[88.6191052,27.62407],[88.6193681,27.6229359],[88.6190252,27.6217561],[88.6193395,27.6206169],[88.6197852,27.6196296],[88.6202538,27.6194827],[88.6215567,27.6196498],[88.6224539,27.6192448],[88.6227339,27.6186929],[88.6230738,27.6184331],[88.624173,27.6178999],[88.6250636,27.6175758],[88.6251929,27.6171533],[88.6254556,27.6169278],[88.6256548,27.6165751],[88.6264286,27.6162368],[88.626516,27.6159505],[88.6265463,27.6156444],[88.6271102,27.6148693],[88.6281331,27.6143123],[88.6287131,27.6140034],[88.6287931,27.6137579],[88.6285475,27.6132254],[88.6285934,27.6126189],[88.6290743,27.6118419],[88.6292521,27.6112798],[88.6297046,27.6108537],[88.631725,27.6105315],[88.6326183,27.6106697],[88.6331595,27.6107535],[88.6343879,27.6107785],[88.6360956,27.6104306],[88.6371356,27.6099765],[88.6383438,27.6095933],[88.6390994,27.6088486],[88.6399965,27.6084583],[88.6408386,27.607519],[88.6416312,27.6062642],[88.6417386,27.6053532],[88.6420978,27.6043032],[88.6427336,27.6036373],[88.6434271,27.6032239],[88.6442198,27.6030117],[88.6451075,27.6028354],[88.6451816,27.6028207],[88.6465216,27.6015841],[88.6473613,27.6012827],[88.6484075,27.6011391],[88.6489271,27.6010977]]}}]}