{"type":"FeatureCollection","properties":{"licence":"ODbL 1.0 — © OpenStreetMap contributors","system":"meghna","batch":"b9","fetched":"2026-09-29","snapshot":"2026-09-29T14:16:51Z"},"features":[{"type":"Feature","properties":{"osm_id":648635415,"group":"tetuliaBarishal","version":4,"timestamp":"2022-04-12T06:29:37Z","tags":{"name":"Tetulia River","wikidata":"Q21745974","waterway":"river"},"nodes":[6089308604,6089308603,6089308602,6089308601,6089308600,6089308599,6089308598,6089308597,8345267652,8345267651,8345267650,6089308596]},"geometry":{"type":"LineString","coordinates":[[90.4852865,22.1247647],[90.4952429,22.142097],[90.5070875,22.1622887],[90.5266569,22.1859746],[90.53627,22.2037761],[90.5475996,22.2196684],[90.5573843,22.2287262],[90.5757521,22.2439801],[90.580171,22.2463676],[90.5832128,22.2476651],[90.5866793,22.248776],[90.5913619,22.2498908]]}},{"type":"Feature","properties":{"osm_id":332673593,"group":"burishwar","version":22,"timestamp":"2026-01-28T09:02:06Z","tags":{"name":"বুড়িশ্বর নদী","name:bn":"বুড়িশ্বর নদী","name:en":"Burishwar River","waterway":"river"},"nodes":[3634958690,3634958691,3634958689,3634958688,3634958685,3398180048,3634958681,3634958680,3634958677,3398180047,3398180046,3398180045,13447626035,3398180041,3398180042,3398180043,10011798857,3398180044,10011798903,3398180040,3398180039,3398180038,3398180037,3398180036,3398180035,3398180385,3398180384,3398180383,3398180380,5921960118,3398180360,3487202325,3487202322,3487202316,3398180350,3487202321,3487202320,3487202319,3487202318,3487202317,3487202315,3398180352,3487202314,3487202313,3487202312,3398180348,6188102900,6188102903,6188102902,3398180346,3398180308,6188102904,3398180246,3398180233,9226689215,3398179986,5921995162,3398179968,3398180141,3398171763,3398171739,5677232995,3398180097,3398179940,3398179562,3510638790,3510638788,3510638785,3510638784,3510638782,3510638780,3398179551,3510638781,3510638783,3510638787,3510638789,3398179564,5679164908,3510638786,3398179546,3510638779,3398179543,5829191759,3510638778,5873206986,3398179542,8411500902,3510638777,3510638776,9094576951,9094576946,8411500903,3510638775,3398179537,3510638774,3510638773,11973519623,3510638772,3398179534,3510638771,3510638770,11967148199,3510638769,3510638768,3510638767,3398179531,3510638766,3510638765,3510638764,3398179526]},"geometry":{"type":"LineString","coordinates":[[90.3621349,22.4954217],[90.3613084,22.495472],[90.3606166,22.4953848],[90.359537,22.4951621],[90.3583074,22.494767],[90.3577871,22.4944843],[90.3571394,22.4939646],[90.3567614,22.4933962],[90.3561388,22.4923211],[90.3552701,22.4902171],[90.3551868,22.4787202],[90.3489571,22.4688752],[90.3449675,22.4662448],[90.3432153,22.4650895],[90.3354091,22.4655963],[90.3164096,22.467981],[90.3124022,22.4680002],[90.3039906,22.4680406],[90.3025619,22.4629501],[90.3010875,22.4576966],[90.3021842,22.448127],[90.3003133,22.4396301],[90.2932813,22.428956],[90.2837009,22.4222172],[90.2726044,22.4131521],[90.266411,22.4036689],[90.265024,22.3909341],[90.2637659,22.3812704],[90.2630563,22.3660577],[90.2605242,22.3533476],[90.259369,22.3475488],[90.2569763,22.3443087],[90.2541568,22.3422668],[90.2494284,22.339646],[90.2441324,22.3376755],[90.2279075,22.341517],[90.2241336,22.3414915],[90.2202219,22.3411603],[90.2175883,22.3407432],[90.2153093,22.3400766],[90.2131861,22.339446],[90.2118438,22.3388408],[90.210537,22.3378966],[90.2092514,22.3366714],[90.2064465,22.3338066],[90.2015247,22.3220624],[90.202529,22.3104872],[90.2033373,22.3011713],[90.203531,22.2989387],[90.2037144,22.2968245],[90.2125644,22.2740304],[90.2132953,22.2556468],[90.21366,22.2464742],[90.2139087,22.2308263],[90.2200671,22.2184417],[90.2222944,22.2139623],[90.22364,22.2121767],[90.227689,22.206804],[90.2333567,22.1949199],[90.2312452,22.1826746],[90.2256772,22.1744156],[90.2201078,22.1672968],[90.2174649,22.1612686],[90.2152048,22.1407912],[90.2118756,22.1231894],[90.2111426,22.1215957],[90.209833,22.1199578],[90.2075411,22.1183806],[90.2039395,22.117046],[90.1990938,22.115772],[90.1928729,22.114862],[90.1880895,22.1147648],[90.1840327,22.1153474],[90.179056,22.116318],[90.1716564,22.1188659],[90.1659594,22.1201398],[90.1621741,22.1200439],[90.1599025,22.1201529],[90.1572502,22.1184412],[90.1543991,22.1162206],[90.15044,22.1115861],[90.1465796,22.1058507],[90.1440692,22.100991],[90.1426475,22.0982388],[90.1404185,22.0953652],[90.1374893,22.0915888],[90.1356202,22.0897304],[90.1283723,22.0825237],[90.1180914,22.0736035],[90.1147669,22.0714613],[90.1090741,22.0677928],[90.1061405,22.0659024],[90.0998217,22.0618305],[90.096235,22.0592128],[90.0921602,22.0551546],[90.089017,22.0509669],[90.0858651,22.0463208],[90.083582,22.0429552],[90.0742854,22.0237358],[90.071795,22.0188568],[90.0699615,22.0138787],[90.0677458,22.0027283],[90.0676775,22.0023845],[90.06742,21.9970128],[90.0675487,21.990845],[90.0673342,21.9857315],[90.0669479,21.9822892],[90.0659179,21.979225],[90.0639868,21.976081],[90.0620505,21.9731002]]}},{"type":"Feature","properties":{"osm_id":619736821,"group":"mogra","version":3,"timestamp":"2026-03-18T18:56:13Z","tags":{"name":"Mogra River","waterway":"river"},"nodes":[5856149921,5009924107,5009924108,5009924109,5839707911,5009924110,5839707912,5009924111,5009924112,5839707915,5839707916,5009924113,5009924114,5009924115,5009924116,5009924117,5009924118,5839713893,5839713894,5009924119,5839713897,5839713896,5839713895,5009924120,5009928921,5009928922,5009928923,5839705471,5832041289,5832041288,5009928925,5832041286,5832041285,5009928926,5832041287,5109369684,5009928927,5791302535,5009928928,5009928929,5791302534,5009928930,5791302533,5009928931,5009928932,5791302532,5009928933,5009928934,5786686321,5009928935,5786686322,5009928936,5786686323,5786686324,5009928937,5784099113,2410808421]},"geometry":{"type":"LineString","coordinates":[[90.6492435,24.902935],[90.6491683,24.9026085],[90.6492112,24.9017521],[90.6481598,24.9006233],[90.6478339,24.9002365],[90.6476448,24.8997474],[90.6481022,24.8992099],[90.648943,24.8984142],[90.6499461,24.8971126],[90.649969,24.8968645],[90.6499019,24.8966042],[90.6496404,24.8963024],[90.6479452,24.8948621],[90.6466792,24.8936943],[90.646529,24.8926432],[90.6473873,24.8914364],[90.6480579,24.8901323],[90.6480163,24.8897261],[90.6480002,24.8893222],[90.647795,24.8880106],[90.6478178,24.8870521],[90.6477132,24.886799],[90.6477588,24.8863562],[90.6481383,24.8862004],[90.6490449,24.8855094],[90.6512524,24.8843025],[90.6523511,24.8825725],[90.6536436,24.8801491],[90.6553959,24.877592],[90.6561072,24.8766737],[90.6570846,24.8759023],[90.657852,24.8755501],[90.6582624,24.875426],[90.6586296,24.8753961],[90.6592655,24.8757399],[90.6596898,24.8760435],[90.6601619,24.8766923],[90.6606603,24.8774092],[90.6614673,24.8777808],[90.6630498,24.8779268],[90.664351,24.8775308],[90.6655658,24.8772163],[90.6665343,24.8773167],[90.6674325,24.8778003],[90.6681139,24.879815],[90.6689648,24.8807147],[90.669809,24.8810025],[90.673117,24.8811102],[90.6742714,24.8811411],[90.6753665,24.8809635],[90.6760216,24.88056],[90.676654,24.880107],[90.6768877,24.8797456],[90.6770366,24.8792955],[90.6771046,24.8783356],[90.6771451,24.876942],[90.6771457,24.8755741]]}},{"type":"Feature","properties":{"osm_id":611056888,"group":"mogra","version":13,"timestamp":"2026-03-18T18:56:13Z","tags":{"name":"Mogra River","waterway":"river"},"nodes":[2410808421,5832026916,2410808420,5832026915,5832026914,2410808419,5739434380,2410808418,5739434378,5739434379,2410808417,2410808416,5739434376,5739434377,5739434375,2410808415,5739434373,5739434374,5739434372,2410808414,5739434370,5739434371,2410808413,5739434369,5739434368,2410808412,5739434367,5739434366,5739434365,2410808411,5739434363,5739434364,5739434362,2410808410,5739434360,5739434361,2410808409,2410808408,2410808407,5739434359,5739434352,5739434353,5739434358,5739434356,5739434355,5739434354,5739434357,5739434351,2410808406,2410808405,5739434350,2410808404,2410808403,5739434348,5739434349,5739434347,2410808402,5739435852,5739434346,5739435851,2410808401,2410808400,5739435850,5739435849,2410808399,5739435848,2410808398,5739435847,2410808397,5739435846,5739435845,2410808396,5739435844,2410808395,5739435843,2410808394,5739435841,5739435842,5739435840,2410808393,5739435838,5739435839,5739435837,2410808392,5739435835,5739435836,5739435834,2410808391,5739435833,5739435832,2410808390,2410808389,5739435830,5739435831,5739435829,5739435828,2410808388,5739435826,5739435827,5739435825,2410808387,5739435824,2410808386,5739435822,5739435823,5739435821,5739435420,2410808385,5739435418,5739435419,5739435417,2410808384,5739435416,5739435415,2410808383,5739435409,5739435411,5739435410,5739435413,5739435412,5739435414,5739435405,5739435407,5739435406,5739435408,5739435403,5739435404,5739435598,2410808382,5739435597,5739435596,2410808381,2410808380,5739435595,2410808379,5739435593,5739435594,5739435592,2410808378,5739435591,2410808376,5739435590,2410808374,5739435588,5739435589,5739435587,2410808372,5739435586,2410808370,5739435585,5739435584,2410808369,5739435582,5739435583,5739435581,2410808368,5739435579,5739435580,5739435578,2410808367,5739435576,5739435577,5739435575,2410808366,5739435573,5739435574,5739435572,2410808365,5739435570,5739435571,5739435569,2410808364,5739435568,2410808363,2410808362,5739435566,5739435567,5739435565,2410808361,5739435564,2410808360,5739435562,5739435563,2410808358,5739435561,2410808355,5739435560,2410808353,5739435559,5739437996,5739437995,2410808351,5739435558,2410808349,5739435557,2410808347,2410808345,2410808343,5739435556,2410808342,5739435555,2410808340,5795480391,5739435554,5795480390,2410808338,5739435553,2410808337,2410808336,5739435552,5797854518,3586494080,5797854517,3586494079,2410808335,5797854516,3586494078,2410808334,5797854515,3586494077,2410808333,3446025887,2410808332,2410808331,3446045934,2410808330,2410808329,5732396368,2410808328,5732396366,5732396367,2410808327,3446165399,2410808326,5732396365,2410808325,5732396364,2410808324,3446165409,5732396363,2410808323,3446165433,2410808322,5790198586,5795803134,5795803133,2410808321,5732396362,5790198587,2411625112,5797931286,5732396361,5797931285,5732396360,2411625113,2411625114,5732396359,2411625115,5732396358,2411625116,5732396357,5732396355,5790140407,5790140408,2411625117,9999738664,5732396356,9999738663,2411625118,2411625119,2411625120,2411625121,5732396352,5732396354,5732396353,2411625122,2411625123,2411625124,5732396351,2411625125,5732396350,2411625126,2411625127,2411625128,5774452717,2411625129,2411625130,2411625131,2411625132,2411625133,2411625134,5739435540,2411625135,2411625136,5739435541,2411625137,5739435542,5739435543,2411625138,2411625139,2411625140,2411625141,2411625142,2411625143,5739435544,2411625144,2411625145,2411625146,5739435551,2411625147,5739435550,2411625148,5739435549,2411625149,2411625150,5739435548,2411625151,5739435547,2411625152,5739435545,5739435546,2411625153,2411625154,2411625155,2411625156,5756937859,2411625157,5756937858,5756937857,2411625158,2411625159,5787129625,2411625160,2411625161,5756937856,2411625162,2411625163,5756937855,2411625164,2411625165,5756937854,2411625166,5756937853,2411625167,5756937852,2411625168,5756937851,2411625169,5756937850,2411625170,2411625171,5756937849,5756937848,2411625172,5756937847,2411625173,2411625174,5756937846,2411625175,5756937845,2411625176,5756937844,2411625177,2411625178,2411625179,2411625180,2411625181,2411625182,2411625673,2411625674,5756969459,2411625675,5756969460,2411625676,5756969458,2411625677,2411625678,2411625679,2411625680,5756937843,2411625681,2411625682,2411625683,2411625684,2411625685,2411625686,2411625687,3586815820,2411625688,3586815823,3586815826,3586815827,2411625689,2411625690,3586815832,3586815831,2411625691,3586815830,2411625692,3586815824,2411625693,3586815819,2411625694,3586815814,2411625695,2411625696,2411625697,3586815806,2411625699,3488576627,2411625700,3488576632,3488576621,2411625701,5787719481,5787719482,5787719480,3488576630,2411625702,5786243758,3488576645,3488576651,2411625703,3488576650,3488576652,3488576619,3488576623,3446202460,3446202457,3488576656,3488576625,3488576618,3488576640,3488576617,3446200488,3446200487,3446200485]},"geometry":{"type":"LineString","coordinates":[[90.6771457,24.8755741],[90.6768876,24.874494],[90.6770545,24.8733549],[90.6774884,24.8724329],[90.6778465,24.8719742],[90.6782561,24.8715639],[90.679197,24.8707149],[90.6802302,24.8699481],[90.6804603,24.8697805],[90.6808493,24.8696539],[90.681721,24.869559],[90.6825364,24.869778],[90.6830835,24.8700822],[90.6835851,24.8704521],[90.6841457,24.870878],[90.6846532,24.8715007],[90.6847814,24.8717297],[90.6848618,24.871973],[90.6848618,24.8722285],[90.6848008,24.8725129],[90.6846338,24.8728588],[90.6843495,24.8731873],[90.6837734,24.8738149],[90.6833464,24.8745208],[90.6832069,24.8748882],[90.6831243,24.8752554],[90.6831506,24.8758275],[90.6832391,24.876083],[90.6833383,24.8762339],[90.6835053,24.8763772],[90.6837729,24.8765405],[90.684084,24.8766427],[90.6844461,24.8767035],[90.6848007,24.8766838],[90.6851837,24.8766597],[90.6856182,24.8765526],[90.6865469,24.8762579],[90.6881696,24.8757688],[90.6894222,24.8751142],[90.6897891,24.8749174],[90.6898963,24.8747933],[90.689958,24.8746473],[90.6900439,24.8743578],[90.6900787,24.8741412],[90.6901163,24.8740098],[90.6902343,24.8739416],[90.6903926,24.8739319],[90.6906661,24.8739806],[90.690943,24.8740801],[90.6916243,24.874484],[90.6919375,24.8748396],[90.6921607,24.8752432],[90.6926328,24.877112],[90.6927851,24.8773946],[90.6930104,24.8776768],[90.6932759,24.8778861],[90.6935769,24.8780854],[90.6939974,24.8781951],[90.6944159,24.8782389],[90.6947967,24.8782706],[90.6951648,24.8782313],[90.6981689,24.8775014],[90.6993484,24.8771999],[90.6998983,24.8769663],[90.7004299,24.8766692],[90.7008719,24.8762047],[90.7011515,24.875691],[90.7015157,24.874971],[90.7017523,24.8742236],[90.7017517,24.8736472],[90.7016256,24.8733917],[90.7014814,24.8731554],[90.7011723,24.8729074],[90.7007547,24.8727001],[90.6999144,24.8725716],[90.6990513,24.8725681],[90.6987798,24.8725643],[90.6985116,24.8725108],[90.6982246,24.8723624],[90.6979955,24.8721994],[90.6977499,24.8719925],[90.6975245,24.8717589],[90.6973341,24.8714766],[90.697235,24.8711386],[90.6972188,24.8709242],[90.697259,24.8706906],[90.6974226,24.870418],[90.6975895,24.8702401],[90.6988335,24.8694836],[90.6994772,24.8691648],[90.7001274,24.8687775],[90.7017278,24.8674925],[90.702087,24.8672691],[90.7024571,24.8671937],[90.7028756,24.8671937],[90.7030928,24.8672813],[90.7033589,24.867388],[90.7036453,24.8676536],[90.7038143,24.8679943],[90.7039189,24.868369],[90.7039785,24.8687338],[90.7039833,24.8694641],[90.703898,24.8701574],[90.7039055,24.8705324],[90.7039592,24.8709266],[90.7041147,24.8713452],[90.704214,24.8715399],[90.7045418,24.8718608],[90.7048175,24.872063],[90.7051125,24.8721945],[90.7054156,24.8723161],[90.7057219,24.8723523],[90.7077491,24.8725011],[90.7081032,24.8725716],[90.7084256,24.8726444],[90.7085417,24.8726556],[90.7086571,24.8726532],[90.7087643,24.8726483],[90.708873,24.87263],[90.7090862,24.8725801],[90.7092994,24.8725011],[90.7094255,24.8724317],[90.7095905,24.8723709],[90.7097366,24.8723478],[90.7098801,24.8723441],[90.7100102,24.8723368],[90.7101014,24.8723636],[90.7102905,24.8724414],[90.7105311,24.8725166],[90.7114184,24.8729269],[90.7118797,24.8730632],[90.7122934,24.8731286],[90.7143801,24.8730872],[90.7150742,24.8729415],[90.7156783,24.8729072],[90.7159486,24.8729196],[90.7162095,24.8730005],[90.7164717,24.8732214],[90.7165528,24.8734912],[90.7164207,24.8738589],[90.7162657,24.8741263],[90.7156938,24.8746181],[90.7151875,24.8749415],[90.714401,24.8753165],[90.7136473,24.875645],[90.7128373,24.875881],[90.7120359,24.8760316],[90.7109007,24.8761365],[90.7097587,24.8763455],[90.7088435,24.876611],[90.7083794,24.8768422],[90.7079938,24.877129],[90.7077116,24.8774627],[90.7076123,24.8777158],[90.7075426,24.8780345],[90.7075673,24.8783384],[90.7076177,24.8786356],[90.7077143,24.8789495],[90.707851,24.8792634],[90.7080072,24.8794943],[90.7083499,24.8798814],[90.7086772,24.8801685],[90.7089803,24.8804338],[90.7093858,24.8806793],[90.7097608,24.8807598],[90.7101417,24.880772],[90.7104635,24.8807428],[90.7109415,24.8806404],[90.7114693,24.8805287],[90.7120541,24.8803875],[90.712679,24.8803194],[90.7132348,24.8802948],[90.7140925,24.8804119],[90.7152733,24.880818],[90.7173037,24.8815942],[90.7175821,24.8816261],[90.7178745,24.8815774],[90.7181132,24.881536],[90.7183257,24.8814457],[90.7187703,24.8811224],[90.7190901,24.8807133],[90.7191995,24.8804435],[90.7192638,24.8801466],[90.7193905,24.8795843],[90.7195857,24.8787548],[90.7199081,24.878027],[90.7202321,24.8775162],[90.7206994,24.8770536],[90.7209697,24.8768641],[90.7212916,24.8767789],[90.7216537,24.8767497],[90.7219923,24.8768079],[90.7223457,24.8769249],[90.7226306,24.877112],[90.7232402,24.8777827],[90.723788,24.8784845],[90.7243687,24.8805965],[90.7247335,24.8823874],[90.7252049,24.8834924],[90.7258144,24.8844775],[90.7263368,24.8850691],[90.7269222,24.8854386],[90.727284,24.8855568],[90.7276511,24.8856384],[90.7279825,24.8856909],[90.7283008,24.8856965],[90.7290673,24.8856336],[90.7298082,24.8854678],[90.7306182,24.8852877],[90.7311219,24.8851177],[90.7313016,24.8850204],[90.7315198,24.8848572],[90.7317388,24.8846408],[90.731924,24.8844288],[90.7320575,24.8840984],[90.7320794,24.8838573],[90.7320649,24.8836525],[90.7319137,24.883092],[90.7318032,24.8827064],[90.7316053,24.8823199],[90.7312137,24.8819202],[90.7304505,24.8812576],[90.7297546,24.8805576],[90.7293254,24.8798568],[90.7291718,24.8795407],[90.7284456,24.8780464],[90.7270938,24.8758272],[90.7270047,24.8753408],[90.7270804,24.8748685],[90.7272461,24.8746303],[90.72745,24.874477],[90.7281371,24.8742528],[90.729246,24.8739858],[90.7296982,24.8739584],[90.7303146,24.8740536],[90.7308971,24.8742455],[90.7315645,24.8745743],[90.7321336,24.8749926],[90.7325093,24.8753711],[90.7326964,24.8757083],[90.7328337,24.8760876],[90.7329404,24.8764956],[90.7331663,24.8782216],[90.7332516,24.8789616],[90.7332703,24.879323],[90.7333092,24.8794909],[90.7333782,24.8796573],[90.7336003,24.8801101],[90.7337987,24.88039],[90.7340145,24.8806239],[90.7342882,24.880828],[90.7345497,24.8809898],[90.7347107,24.8810433],[90.7348823,24.881064],[90.7353195,24.8810626],[90.7364206,24.8808568],[90.7369423,24.8807574],[90.737413,24.8807415],[90.7381386,24.8809034],[90.738619,24.8809972],[90.739198,24.881002],[90.7396071,24.8809703],[90.7397304,24.880946],[90.7398552,24.8809034],[90.7400561,24.8808038],[90.7403484,24.8805894],[90.7405333,24.8804258],[90.7407102,24.8802739],[90.7408778,24.8800543],[90.7414919,24.8786504],[90.7424119,24.8774226],[90.7428206,24.876724],[90.7428378,24.8765076],[90.742819,24.8762886],[90.7427292,24.8760757],[90.7425601,24.8758731],[90.7410881,24.8745613],[90.7399417,24.8736158],[90.7397318,24.8733211],[90.739616,24.8730012],[90.7395172,24.8726544],[90.7394988,24.8723158],[90.7397723,24.8718312],[90.7409164,24.8699673],[90.7411668,24.8696199],[90.7415451,24.8691678],[90.7427946,24.8682383],[90.7443318,24.8676237],[90.7450222,24.8675409],[90.7456214,24.8676473],[90.7462728,24.8680728],[90.7467377,24.86861],[90.7471571,24.8691692],[90.7477969,24.8697865],[90.7481056,24.8699143],[90.7484352,24.8699638],[90.7486153,24.8699581],[90.7487976,24.8698705],[90.7490866,24.8696329],[90.7495706,24.8686655],[90.7505731,24.8678309],[90.7519425,24.8671356],[90.7526384,24.866594],[90.7529977,24.8661504],[90.7530945,24.8658747],[90.7531732,24.8654086],[90.7528774,24.8644561],[90.7522261,24.8634987],[90.7520324,24.8630177],[90.7521479,24.8625886],[90.7523864,24.8622535],[90.7529318,24.8619823],[90.7535881,24.8619274],[90.7543234,24.8620804],[90.7554828,24.8624468],[90.7559216,24.8625017],[90.7563686,24.8624586],[90.7567048,24.8622924],[90.7569548,24.862104],[90.7571393,24.8618641],[90.7572734,24.8615623],[90.7573817,24.8609408],[90.757502,24.8595273],[90.7574108,24.8586527],[90.7571725,24.8576703],[90.7567906,24.857245],[90.7563035,24.8569506],[90.7556856,24.8567339],[90.755192,24.8564175],[90.7548131,24.8560154],[90.7545594,24.8554105],[90.7545258,24.8551621],[90.7544927,24.8549175],[90.7546422,24.8543355],[90.7549345,24.8538718],[90.755236,24.8535553],[90.755718,24.8533037],[90.7561845,24.8532098],[90.7567518,24.8534142],[90.7576138,24.8541249],[90.7580727,24.8544389],[90.7585544,24.8546185],[90.7588506,24.8546798],[90.7591916,24.8546401],[90.759556,24.8544535],[90.7598419,24.8541478],[90.76002,24.8538037],[90.7601238,24.8534331],[90.7600415,24.8528934],[90.7598766,24.8524324],[90.7588828,24.8514187],[90.7584563,24.8509488],[90.7582337,24.8506738],[90.7580706,24.8503881],[90.7579038,24.8499898],[90.7577882,24.849575],[90.7578544,24.8490653],[90.7580727,24.8485344],[90.7584529,24.8481443],[90.7589686,24.8477726],[90.7595694,24.8474719],[90.7602507,24.8473296],[90.7610484,24.8473454],[90.7625694,24.8476833],[90.7632729,24.8476951],[90.7638982,24.8470804],[90.7642369,24.846052],[90.7640545,24.8450708],[90.7635595,24.8440897],[90.76283,24.8430612],[90.7626379,24.8426783],[90.7625215,24.8422859],[90.7625198,24.8418507],[90.7626691,24.8413937],[90.7629007,24.8409331],[90.7632721,24.8405057],[90.7645235,24.839633],[90.7651878,24.8391364],[90.7658001,24.838167],[90.7660282,24.837097],[90.7658392,24.8360746],[90.7653441,24.8347268],[90.7651173,24.8333714],[90.7654392,24.8318135],[90.7654392,24.8306061],[90.7651451,24.8299243],[90.7648368,24.8296796],[90.7644693,24.8298246],[90.7642221,24.8301586],[90.7641232,24.8304279],[90.7641534,24.8306049],[90.7642358,24.8308018],[90.7642056,24.8311084],[90.7640079,24.8313104],[90.7637222,24.8314126],[90.7633678,24.8314126],[90.7629036,24.8312879],[90.7625437,24.831071],[90.7623185,24.8307868],[90.7622691,24.8304927],[90.7623404,24.8300377],[90.7625491,24.829766],[90.7634968,24.8287862],[90.7638114,24.8280818],[90.7638541,24.8276305],[90.7637869,24.8272371],[90.7635509,24.8268086],[90.7631122,24.8265517],[90.7625424,24.8264581],[90.7618565,24.8264533],[90.7611906,24.8266334],[90.76095,24.826743],[90.7607813,24.8270418],[90.7605419,24.8275226],[90.7604901,24.8275883],[90.7603969,24.8276565],[90.7603137,24.8276948],[90.7602081,24.8277264],[90.7597097,24.8277961],[90.7589954,24.8278275],[90.7583928,24.8278608],[90.7576841,24.8281023],[90.7565128,24.8286198],[90.7561118,24.8287555],[90.7556357,24.8288467],[90.7548554,24.828967],[90.7541082,24.8289426],[90.7535782,24.8288695],[90.7530896,24.8287446],[90.7527242,24.8287381],[90.7522414,24.8288842],[90.7516835,24.8287966],[90.7513831,24.8286408],[90.7513187,24.8283584],[90.7512558,24.8280462],[90.7512378,24.8278006],[90.751266,24.827566]]}},{"type":"Feature","properties":{"osm_id":232673996,"group":"mogra","version":33,"timestamp":"2021-09-25T20:34:24Z","tags":{"name":"Magra River","waterway":"river"},"nodes":[5770261257,2410097273,2410097272,5856012760,2410097271,2410097270,2410097269,5841367905,2410097268,2410097267,2410097266,2410098349,9123087729,2410098350,9123087730,2410098351,9123087731,2410098352,2410098354,2410098355,2410098356,2410098358,2410098359,2410098360,2410098361,2410098363,2410098364,2410098365,2410098366,2410098367,2410098368,2410098369,2410098370,2410098371,2410098372,2410098373,2410098374,2410098375,2410098376,5903277799,2410098377,5903277796,2410098378,5903277797,5903277798,2410098379,2410098380,2410098381,2410098382,9123087859,2410098383,9123087860,2410098384,8366140008,2410098385,6453726686,6453726685,6453725984,6453725980,2410098386,6453725979,6453725981,6453725983,6453725982,2410098387,6453726687,6453726688,2410098388,6453726690,6453726689,2410098389,6453726691,2410098390,6453725977,6453725978,6453725976,2410098391,6453725975,2410098392,6453725974,6453725973,2410098393,6453724973,2410098394,6453724972,6453724971,2410098395,6453724969,6453724970,6453724967,6453724968,6453724966,2410098396,6453724964,6453724965,6453724963,2410098397,6453724961,6453724962,6453724960,6453724959,2410098398,6453724958,2410098399,6453724957,2410098400,6453724956,6453724955,2410098401,6453937060,6453937061,2410098402,6453724952,2410098403,2410098404,6453724953,6453724954,2410098405,6453724951,6453724949,6453724950,2410098406,6454019746,6454019745,2410098407,2410098408,6454019744,2410098409,6454019743,6454019742,2410098410,6454019741,2410098411,6454019740,6454019738,6454019739,2410098412,2410098413,2410098414,6454019737,6573760745,6454019736,6573761604,6573761603,2410098415,6454019735,2410098416,6454019734,2410098417,2410098418,2410098419,2410098420,2410098421,6454400465,6454400466,2410098422,2410098423,6454245208,6454245209,2410098424,6573791094,6454245210,6573791095,6454245212,6454245211,2410098425,6454245213,6454245214,2410098426,6454245216,6454245219,6454245215,6454245218,6454245217,6454245220,6454245221,2410098427,6454245222,2410098428,6454245223,2410098429,6454245224,6454245225,6454245226,2410098430,6454245227,6454245229,6454245228,6454245230,2410098431,6454245231,5884416360,6454245232,2410098432,6454245233,6454245234,6454245235,2410098433,6454245236,6454245237,6454245238,2410098434,6454245239,6454245241,6454245240,2410098435,6454245242,6454245244,6454245243,2410098436,6454244791,5911192746,6454244792,2410098437,6454244793,6454244794,2410098438,6454244795,6454244797,6454244796,2410098439,5885199184,5885199183,2410098440,5885199181,5885199180,5885199182,5885199179,2410098441,5885199177,5885199176,5885199178,5885199175,2410098442,5885199172,5885199174,5885199170,5885199173,5885199171,2410098443,5885199168,5885199169,5885198584,2410098444,5885199985,5885199986,5884555684,5885199987,5885199988,5885199989,5885199990,2410098500,5885199992,5885199991,2410098501,5885199993,5885199994,5885199996,5885199995,2410098502,5885199997,5885199998,2410098503,5885199999,5885200000,5885200001,2410098504,5885200002,5885200003,2410098505,5885200006,5885200005,5885200004,2410098506,5885200007,5884603608,5885200008,5885200009,5885200010,2410098507,5885200011,5885200012,2410098508,5885200013,5885200014,5884603609,5885200015,5885200016,2410098509,5884603607,2410098510,5885200017,5885200019,5885200018,5885200021,5885200020,2410098511,5885200022,5885200023,5885200024,2410098512,2410098513,4112074686,2410098514,2410098515]},"geometry":{"type":"LineString","coordinates":[[90.8277387,24.909425],[90.8284795,24.9086966],[90.8304482,24.9070764],[90.8310074,24.9065083],[90.8314567,24.9052933],[90.8314406,24.9036365],[90.8318698,24.9019822],[90.8323002,24.901307],[90.8329856,24.9008923],[90.8349811,24.8998996],[90.8359682,24.8986151],[90.835818,24.8969802],[90.8352884,24.8956018],[90.835067,24.8944693],[90.8357937,24.8931415],[90.8377921,24.892192],[90.8393913,24.8913478],[90.8405387,24.8902067],[90.8407747,24.8875594],[90.841633,24.885029],[90.842148,24.8826152],[90.8419764,24.8795201],[90.8415472,24.8776514],[90.8404314,24.8763082],[90.8390366,24.8760356],[90.8378565,24.8752959],[90.8368909,24.8737385],[90.8369553,24.8715582],[90.8385002,24.8708768],[90.8408391,24.8696114],[90.8421695,24.8671584],[90.843414,24.8669443],[90.8444869,24.8670806],[90.8451789,24.866331],[90.8456242,24.8651337],[90.8470189,24.8649196],[90.8478343,24.8637125],[90.8497655,24.8625833],[90.8495938,24.8612789],[90.8493755,24.8607849],[90.8496022,24.860051],[90.8501813,24.8595284],[90.8508926,24.8590344],[90.8514987,24.8586254],[90.8520792,24.8581421],[90.8529149,24.8568895],[90.854057,24.8543477],[90.855087,24.8518555],[90.8564388,24.8503757],[90.8577369,24.8500736],[90.8587023,24.8494584],[90.8592421,24.8488148],[90.8595551,24.8479757],[90.8597709,24.8469901],[90.8601725,24.8457561],[90.8605438,24.8451439],[90.8607584,24.8448567],[90.860914,24.8446961],[90.860981,24.8446474],[90.8611139,24.8445975],[90.8612064,24.8446133],[90.8612922,24.8446425],[90.8615148,24.844735],[90.8617187,24.8448421],[90.8618649,24.8449602],[90.8619761,24.8450952],[90.8620191,24.8452656],[90.8620512,24.8455966],[90.8619708,24.8469402],[90.8619922,24.8473101],[90.8620822,24.8476692],[90.8623517,24.8482253],[90.8628118,24.8487596],[90.8632207,24.8489214],[90.8636928,24.8489993],[90.8641541,24.8489749],[90.8645445,24.8489056],[90.8652431,24.848678],[90.8659607,24.8483361],[90.8664501,24.8477239],[90.8666164,24.8472371],[90.8666849,24.8467443],[90.8664608,24.8449005],[90.8661672,24.8434877],[90.8661121,24.8425493],[90.8662087,24.8417996],[90.8664703,24.841005],[90.8666164,24.8406751],[90.8667988,24.8404073],[90.8669302,24.8402151],[90.8671769,24.839996],[90.8673969,24.8397964],[90.8676317,24.8396711],[90.868215,24.83957],[90.868805,24.8396577],[90.8696204,24.8398524],[90.8703756,24.8400995],[90.8710527,24.84031],[90.8717716,24.8403927],[90.8724743,24.8404366],[90.8729035,24.8404317],[90.873385,24.8403283],[90.8740622,24.840052],[90.8747905,24.8396516],[90.8756822,24.8386694],[90.8764641,24.8372711],[90.8767927,24.836469],[90.8769,24.8360454],[90.8769041,24.835577],[90.8767873,24.8350718],[90.8765942,24.8345119],[90.8761102,24.8334008],[90.8760953,24.8327885],[90.8761209,24.8321252],[90.8763729,24.8311271],[90.8766103,24.8304955],[90.8768517,24.8300573],[90.8773654,24.8291944],[90.8779567,24.8287087],[90.8783162,24.8284848],[90.8788083,24.8282907],[90.8794415,24.8282207],[90.8800864,24.8283095],[90.8804458,24.8285091],[90.8807503,24.8287562],[90.8817374,24.8303775],[90.8823824,24.8308898],[90.8831751,24.8311759],[90.8839166,24.8312014],[90.8843779,24.831143],[90.8848058,24.8309714],[90.8854079,24.8305004],[90.8858788,24.8294037],[90.8861107,24.8291226],[90.8863306,24.8289327],[90.8866578,24.8288012],[90.8872145,24.8287465],[90.8886039,24.8288195],[90.8904654,24.8290533],[90.890885,24.8290252],[90.8909909,24.8289972],[90.8910996,24.8289424],[90.8911881,24.828845],[90.8912136,24.8287891],[90.8912002,24.8287221],[90.8907562,24.8280563],[90.8903312,24.8274709],[90.8902413,24.8271995],[90.8902776,24.8269305],[90.8911359,24.8255673],[90.892654,24.8236685],[90.8934426,24.8213412],[90.8935713,24.8194911],[90.8935913,24.8192439],[90.8936718,24.8189955],[90.8939925,24.8185586],[90.8959638,24.8173],[90.8960804,24.8171137],[90.8961233,24.8169214],[90.8961865,24.8165088],[90.8961622,24.8164466],[90.8961099,24.8163906],[90.8960187,24.8163249],[90.8959034,24.8162932],[90.8956942,24.8162811],[90.8954327,24.8163165],[90.8951122,24.8163882],[90.8947286,24.8165026],[90.8940783,24.8168521],[90.8939172,24.8169189],[90.8938019,24.8169384],[90.8937348,24.8169457],[90.8936705,24.8169311],[90.8935994,24.8168994],[90.8935565,24.8168581],[90.8934921,24.816729],[90.8933836,24.8164795],[90.8930308,24.8158258],[90.8925199,24.8154059],[90.8919793,24.8151441],[90.891404,24.81507],[90.8909762,24.8152269],[90.8908045,24.8153633],[90.8905631,24.8156067],[90.8902615,24.8159123],[90.8900696,24.8160839],[90.8898336,24.8161618],[90.8896029,24.8161959],[90.8893883,24.8161374],[90.8889472,24.8159464],[90.8886319,24.8156554],[90.8881143,24.8152026],[90.8876395,24.8149981],[90.8870804,24.8148362],[90.8867544,24.8147692],[90.8862609,24.8146767],[90.8856869,24.8146524],[90.8853423,24.814846],[90.8851665,24.8150711],[90.8851612,24.8152951],[90.8851612,24.815597],[90.8852404,24.8159318],[90.8853811,24.8162494],[90.8855474,24.8165026],[90.8857861,24.8167169],[90.8860156,24.816869],[90.8863762,24.8169871],[90.8867571,24.8170553],[90.8870038,24.817065],[90.8873084,24.8171442],[90.8874813,24.817306],[90.8875724,24.8174861],[90.8875805,24.8177199],[90.8875202,24.817911],[90.8873713,24.8180753],[90.8871996,24.8181678],[90.8869302,24.8182811],[90.8865264,24.8183163],[90.8861428,24.8183017],[90.8857995,24.8182628],[90.8854603,24.8181423],[90.8849466,24.8178416],[90.884158,24.8171064],[90.8829712,24.8159513],[90.882715,24.8155824],[90.8826184,24.8153925],[90.8825299,24.8151514],[90.8824789,24.8148398],[90.8824589,24.8146196],[90.882538,24.8143407],[90.8826694,24.8141192],[90.882892,24.8138441],[90.8831629,24.8135495],[90.8834004,24.8133146],[90.8836779,24.8131429],[90.8839716,24.812964],[90.8840239,24.8128715],[90.8840641,24.8127802],[90.8840789,24.8126426],[90.884083,24.8125368],[90.8839944,24.8123322],[90.8838603,24.8121764],[90.883466,24.8119354],[90.8831938,24.811827],[90.8828464,24.8117284],[90.8825943,24.8116262],[90.8822724,24.8114168],[90.88209,24.8112098],[90.881862,24.8109323],[90.8816689,24.8106304],[90.8813846,24.8101386],[90.8811151,24.8097527],[90.8807704,24.8095324],[90.8805451,24.8093936],[90.8803078,24.8093364],[90.8799684,24.8093498],[90.87955,24.8094228],[90.8789116,24.8095397],[90.8782893,24.8095884],[90.877682,24.8095483],[90.8770931,24.8094472],[90.8766961,24.8094228],[90.8762818,24.8094898],[90.8759665,24.8096322],[90.8757144,24.8098513],[90.875473,24.8102409],[90.8753994,24.8105343],[90.8753818,24.8108885],[90.8753577,24.8115799],[90.8754717,24.8128983],[90.875532,24.8136031],[90.8755803,24.8140413],[90.8755213,24.8143359],[90.8754557,24.8145319],[90.875355,24.8147351],[90.8752101,24.8149275],[90.8750653,24.8150395],[90.87484,24.8150638],[90.874612,24.8150492],[90.874415,24.8149944],[90.8741373,24.8148179],[90.8738208,24.8145745],[90.8730042,24.8139891],[90.8723724,24.8137418],[90.8718681,24.8135276],[90.8714229,24.813474],[90.8708918,24.8135422],[90.8703285,24.8136737],[90.8696353,24.8139208],[90.8689864,24.8142175],[90.8682942,24.8144784],[90.8679441,24.8145379],[90.8676785,24.8145477],[90.8674237,24.8145136],[90.8672306,24.8144868],[90.8668765,24.8143505],[90.866524,24.8141619],[90.866273,24.8139293],[90.8661269,24.8137138],[90.8659351,24.8133182],[90.8656603,24.812465],[90.8656763,24.8118125],[90.8658691,24.8101816],[90.865958,24.8098599],[90.8665561,24.8080533]]}},{"type":"Feature","properties":{"osm_id":625242053,"group":"mogra","version":6,"timestamp":"2026-03-26T15:50:34Z","tags":{"name":"Magra River","waterway":"river"},"nodes":[2410098515,5890637100,5885200025,2410098517,5885200026,2410098518,5885200027,2410098519,2410098520,2410098521,2410098522,6457193511,2410098523,6457193509,6457193510,6457193508,6457193507,6457193506,6457360894,2410098524,6457193505,2410098525,6457193504,6457193503,6457193502,2410098526,6457193501,2410098527,6457193499,6457193500,2410098528,2410098529,6457193284,2410098530,5883912814,2410098531,2410098532,6457142480,2410098533,6457142481,2410098534,6457142483,6457142482,2410098535,6457142484,6457143585,6457143586,6457143587,2410098536,2410098537,5889854033,5889854032,2410098538,5889854030,5889854031,5889854029,2410098540,2410098541,2410098543,5889854028,2410098545,2410098547,2410098548,5889854718,5889854717,2410098550,5889854714,5889854715,5889854716,2410098552,4091991785,2452867996,5889854713,5889854712,4091991787,5889854710,5889854711,2452867998,4091991786,2452867999,5889854709,4091991784,5889854870,4091991783,2452868000,5889854869,4091991782,5889854868,2452868001,5889854867,2452868002,5889854866,5889854865,4091991781,5889854863,5889854864,5889854862,5889854861,2452868003,5889854859,5889854860,4091991780,2452868004,4091991779,2452868005,4091991778,2452868006,5889854858,4091991777,4091991776,2452868008,4091991775,2452868009,4091991774,4091991773,5889854857,2452868010,4091986132,4091986119,4091986112,6460981637,2452868011,5889854856,4091991766,2452868012,4091991772,2452868013,4091991771,2452868014,4091991732,4091991698,2452868015,4091991597,2452850202]},"geometry":{"type":"LineString","coordinates":[[90.8665561,24.8080533],[90.8668122,24.8065085],[90.8667827,24.8059217],[90.8666741,24.8048103],[90.8666217,24.8039496],[90.8665775,24.8030962],[90.8666539,24.8025374],[90.8668511,24.8018058],[90.8675324,24.8005981],[90.8685785,24.799259],[90.8690345,24.7983775],[90.8691591,24.7978235],[90.8692222,24.7972185],[90.8692074,24.7967717],[90.8691215,24.7963626],[90.8689231,24.7959438],[90.8688372,24.7957052],[90.8688104,24.7955006],[90.8688276,24.7953434],[90.8688414,24.795217],[90.8689338,24.7948383],[90.8690613,24.794506],[90.8693039,24.7941371],[90.8695668,24.7938741],[90.8698994,24.7936355],[90.8702683,24.7934882],[90.8707631,24.7933871],[90.8713948,24.7934005],[90.8718628,24.7935673],[90.8723938,24.7938303],[90.8734977,24.7944086],[90.8752358,24.7952317],[90.8759826,24.7954519],[90.8767968,24.795519],[90.8775651,24.7953886],[90.8783578,24.7948664],[90.8801281,24.7932934],[90.880934,24.7927686],[90.8819038,24.7923292],[90.8826613,24.7921599],[90.8834326,24.7920564],[90.8840239,24.792228],[90.884437,24.7924131],[90.8848113,24.792636],[90.88496,24.792771],[90.8850807,24.7929269],[90.8852148,24.7932556],[90.8854347,24.7938595],[90.8859002,24.7950855],[90.8871126,24.796639],[90.887779,24.7971174],[90.8882511,24.7973073],[90.8887219,24.7974474],[90.8890665,24.7975119],[90.8895063,24.7975508],[90.890075,24.7974973],[90.8906477,24.7973597],[90.8930242,24.7964101],[90.8960068,24.7952121],[90.8974457,24.7949552],[90.8990752,24.7950076],[90.9012317,24.7949881],[90.9037101,24.7943258],[90.904634,24.7941371],[90.9051168,24.7941322],[90.9054696,24.79417],[90.9057069,24.7942442],[90.9059805,24.7944049],[90.9063989,24.7947896],[90.9073364,24.7955336],[90.9085811,24.7967025],[90.9095963,24.7977922],[90.9098107,24.7979185],[90.9099582,24.7979575],[90.9100993,24.7979491],[90.9102184,24.7979112],[90.9103283,24.7978455],[90.910519,24.7976509],[90.9110112,24.7970287],[90.9113773,24.7963458],[90.9115541,24.7956759],[90.9115477,24.7951977],[90.9113663,24.7946143],[90.9111936,24.7940143],[90.9109696,24.792859],[90.9106743,24.7922134],[90.9103943,24.7916377],[90.9100467,24.7912102],[90.9097251,24.7908428],[90.9090596,24.7904407],[90.9086468,24.790234],[90.9083784,24.7899391],[90.9082523,24.7897808],[90.9081413,24.7895777],[90.9080726,24.789418],[90.9080431,24.7892549],[90.9080377,24.788892],[90.908078,24.7887386],[90.9081506,24.7885976],[90.9085044,24.7882638],[90.9089202,24.7879448],[90.9099866,24.787318],[90.9112914,24.7867129],[90.912363,24.7860614],[90.9133031,24.7852908],[90.9138276,24.7846442],[90.914022,24.7841024],[90.9140861,24.7836906],[90.9139723,24.7833243],[90.9137309,24.7829152],[90.9130993,24.7820714],[90.9126259,24.7813031],[90.9120478,24.7802207],[90.9115906,24.778712],[90.9115316,24.7779084],[90.9115487,24.7773201],[90.9116187,24.7768016],[90.9117173,24.7764332],[90.9118192,24.7762627],[90.9119694,24.7761215],[90.9120559,24.776086],[90.9122464,24.7760077],[90.9130669,24.7760732],[90.9137497,24.7761781],[90.9152182,24.7763389],[90.9166358,24.7767236],[90.9180292,24.7769039],[90.9191249,24.7766749],[90.920132,24.7762025],[90.9215496,24.7748143],[90.9224401,24.7735577],[90.9230717,24.7723839],[90.9239636,24.7703235],[90.9246325,24.769634]]}},{"type":"Feature","properties":{"osm_id":622950340,"group":"mogra","version":12,"timestamp":"2019-05-08T09:42:21Z","tags":{"name":"Mogra River","waterway":"river"},"nodes":[2452850202,4091991167,2452850201,4091991125,2452850200,4091991113,6457496828,5911662083,2452850199,6457496829,6457496830,6457496831,4091991104,6457496832,2452850198,6457496833,5911460468,6457496834,2452850197,6457496835,6457496836,6457496837,6457496838,2452850196,6457496839,6457496840,2452850195,6457496841,6457496842,6457496843,2452850194,6457496844,5911663090,5911662055,6457244509,6457496845,6457244510,6457496846,6457244508,2452850193,6457496847,2452850192,3445855482,6457244511,6457244512,6457244513,2452850191,6457244514,6457244515,6457244516,2452850190,6457244517,6457244518,6457244519,6457305377,2452850189,6457244520,6457244521,6457244522,2452850188,6457244523,6457244524,2452850187,6457244525,6457244526,2452850186,6457244527,6457244528,2452850185,6457244529,6457244530,2452850184,6457244531,6457244532,6457244533,2452850183,6457244534,6457244535,2452850182,6457244536,5892669685,5892669584,2452850181,5892669686,5892669583,2452850180,2452850179,5892669582,2452850178,5892669581,2452850177,3445851390,5903329906,6457112456,6457112455,2452850176,6457112454,6457112453,6457112452,5903329856,6457112451,2452850175,5903329857,5903329858,6457112450,2452850174,6457112448,5892637072,6457112449,2452850173,5892637071,5892637070,2452850172,5892637068,5892637069,2452850171,5892637067,5892637066,2452850170,2452850169,5892637065,2452850168,2452850167,5870180233,5870180232,2452850166,5870180231,2452850165,5870180229,5870180230,5870180228]},"geometry":{"type":"LineString","coordinates":[[90.9246325,24.769634],[90.9242855,24.7690278],[90.9239209,24.7685751],[90.9227298,24.7677711],[90.9215176,24.7672892],[90.9202407,24.7669041],[90.919877,24.7668064],[90.9195256,24.7666481],[90.9191796,24.7664655],[90.9188899,24.7662658],[90.9187049,24.7660709],[90.9184661,24.7657275],[90.918273,24.7654109],[90.9181523,24.7651332],[90.9180853,24.7647801],[90.9180558,24.7644878],[90.9180638,24.7641736],[90.9181255,24.7639106],[90.9182596,24.7636354],[90.9183454,24.7634917],[90.9184876,24.7633261],[90.919075,24.7628463],[90.9194344,24.7625491],[90.919565,24.7623986],[90.9198368,24.7619573],[90.9200218,24.7615651],[90.9202302,24.7611321],[90.9204671,24.760513],[90.9206307,24.7600721],[90.9208479,24.7593901],[90.9211421,24.7585844],[90.9212503,24.7582381],[90.9214085,24.7576998],[90.9217197,24.7570178],[90.9218551,24.7568315],[90.9219309,24.7567048],[90.9221435,24.7564868],[90.9222829,24.7563857],[90.9224519,24.7562652],[90.9226363,24.7561683],[90.9228174,24.7561068],[90.923726,24.7558292],[90.9240282,24.755754],[90.9242597,24.7558048],[90.924418,24.7558803],[90.9247559,24.7560922],[90.9251583,24.7562481],[90.9253782,24.7562773],[90.9256893,24.7562627],[90.9260648,24.7561823],[90.9264314,24.7560464],[90.9266978,24.7559509],[90.9270331,24.7557439],[90.927363,24.7554492],[90.9274355,24.7553298],[90.9274864,24.7551886],[90.9275508,24.7549279],[90.9275186,24.7546162],[90.9274757,24.7542313],[90.927363,24.7539293],[90.9271967,24.7534714],[90.9270251,24.7530719],[90.9267944,24.752804],[90.9264189,24.7523509],[90.9259146,24.7516932],[90.9257233,24.7512529],[90.925684,24.7509381],[90.9257001,24.7505338],[90.9258074,24.7501392],[90.9260648,24.7495059],[90.926317,24.749199],[90.9265798,24.7489797],[90.9270626,24.7488482],[90.9275991,24.7487703],[90.928055,24.7487703],[90.9284949,24.7488482],[90.9289831,24.7489846],[90.9294712,24.7491892],[90.9304476,24.7495936],[90.9310484,24.7498079],[90.9316707,24.7499833],[90.9320462,24.7500759],[90.9325791,24.7501616],[90.9330171,24.7501489],[90.9333497,24.7500369],[90.9338182,24.7497426],[90.9346927,24.7488852],[90.935061,24.7484487],[90.9353363,24.7478329],[90.9356242,24.7464026],[90.9358299,24.7457259],[90.9359498,24.7454769],[90.9362311,24.7450096],[90.9365255,24.744639],[90.9367347,24.7444124],[90.9369671,24.7441815],[90.9380114,24.7435452],[90.9388483,24.7430605],[90.9392372,24.7427828],[90.9395081,24.742583],[90.9402269,24.7421226],[90.9407409,24.7418502],[90.9412864,24.7416354],[90.9418336,24.7414332],[90.942952,24.7411507],[90.9437102,24.7409393],[90.9442395,24.7407633],[90.9446901,24.740588],[90.94513,24.7403614],[90.945561,24.7400964],[90.9459078,24.7396891],[90.9459829,24.7392944],[90.9460169,24.7389465],[90.9459802,24.7384735],[90.9458595,24.7380496],[90.9452981,24.7372267],[90.9446552,24.7361446],[90.9444326,24.7355721],[90.9443218,24.7350488],[90.9444666,24.734279],[90.9447384,24.7336573],[90.9450513,24.7330171],[90.9452779,24.7314603],[90.9452319,24.7303526],[90.9452426,24.7298057],[90.9453142,24.7292702],[90.9456155,24.7285535],[90.9460008,24.7278596],[90.9462109,24.7275473],[90.9465355,24.7272501],[90.9469593,24.7269675]]}},{"type":"Feature","properties":{"osm_id":623989281,"group":"mogra","version":1,"timestamp":"2018-09-08T05:57:48Z","tags":{"name":"Mogra River","waterway":"river"},"nodes":[5870180228,2452850164]},"geometry":{"type":"LineString","coordinates":[[90.9469593,24.7269675],[90.9473741,24.7267755]]}},{"type":"Feature","properties":{"osm_id":623989282,"group":"mogra","version":3,"timestamp":"2019-07-31T05:25:31Z","tags":{"name":"মগরা নদী","name:bn":"মগরা নদী","name:en":"Mogra River","waterway":"river"},"nodes":[2452850164,5870180227,2452850163,5870180226,5870180225,5870180223,5870180224,2452850162,5870180221,5870180222,2452850161,2452850160,5870180219,2452850159,5903071523,2452850158,5870180218,5870180216,5870180217,2452850157,5903071522,5870180215,2452850156,5870180214,2452850155,2452850154,5870180211,5870180213,5870180212,3488300044,5870180209,5870180210,2452850153,5870180364]},"geometry":{"type":"LineString","coordinates":[[90.9473741,24.7267755],[90.9477264,24.7266556],[90.9481761,24.726566],[90.9485521,24.7266153],[90.9493652,24.7267323],[90.9495597,24.7267287],[90.9497581,24.7266982],[90.9501422,24.7266001],[90.9503523,24.7265228],[90.9505346,24.7264376],[90.9508932,24.7262103],[90.9519661,24.7254891],[90.95284,24.7248564],[90.9537658,24.7242916],[90.9548476,24.7239245],[90.9558982,24.7235035],[90.9562155,24.7232837],[90.956288,24.7231399],[90.9563094,24.7229719],[90.956279,24.7226946],[90.956127,24.7223116],[90.9559017,24.7218585],[90.9554207,24.72115],[90.9548208,24.720477],[90.9539724,24.7198952],[90.9520304,24.7184723],[90.9518275,24.7182867],[90.9516907,24.7181113],[90.9515512,24.7179407],[90.9514711,24.7177556],[90.9514064,24.7175582],[90.9513903,24.7173657],[90.9513867,24.716991],[90.9513889,24.7168467]]}},{"type":"Feature","properties":{"osm_id":622950338,"group":"mogra","version":1,"timestamp":"2018-09-05T04:59:26Z","tags":{"name":"Mogra River","waterway":"river"},"nodes":[5870180364,5870180208,5870180363]},"geometry":{"type":"LineString","coordinates":[[90.9513889,24.7168467],[90.9514345,24.7167127],[90.9514801,24.7165824]]}},{"type":"Feature","properties":{"osm_id":237377854,"group":"mogra","version":25,"timestamp":"2026-03-25T09:33:05Z","tags":{"name":"মগরা নদী","name:bn":"মগরা নদী","name:en":"Mogra River","waterway":"river"},"nodes":[5870180363,3488300040,5870180361,5870180362,2452850152,5870180359,5870180360,5870180358,5870180357,2452850151,5870180354,5870180355,5870180356,2452850150,2452850149,5870180352,5870180353,2452850148,5870180350,5870180351,5870180349,5870180348,2452850147,5870180347,2452850146,5870180346,2452850145,5870180343,5870180344,2452850144,5870180339,5870180341,5870180340,5870180342,2452850143,2452850142,5870180337,5870180338,5870180335,5870180336,2452850141,5870180333,5870180334,2452850140,5870180332,5870180331,5870180330,2452850139,5870180328,5870180329,5870180327,2452850138,5870180326,2452850137,2452855876,5870180323,5870180325,5870180324,2452855877,5870180320,5870180321,5870180322,2452855878,2452855879,5870180318,5870180319,5870180317,2452855880,5870180315,5870180316,5894462064,2452855881,5894462065,2452855882,5894461910,5894461911,2452855883,5894461912,5894461913,2452855884,5894461914,5894461916,5894461915,2452855885,5894461917,5894461918,2452855886,5894461922,5894461919,5894461921,5894461920,2452855887,5894461923,5894461924,2452855888,5894461925,5894461927,5894461926,2452855889,5894461928,5894461930,5894461929,2452855890,5894461931,5894461934,5894461932,5894461933,2452855891,5894461935,5894461936,2452855892,5894461937,5894461939,5894461938,2452855893,5894461940,5081485338,5894461941,2452855894,5081485337,5081485336,2452855895,5081485335,5081485334,2452855896,5081485333,5081485332,2452855897,5081484103,5081484102,5081484101,2452855898,2452855899,5081484100,5081484099,5081484098,5081484097,2452855900,2452855901,5892635875,5081484096,5081484095,2452855902,2452855903,2452855904,5892636388,5892636390,5892636389,2452855905,3445850693,5081484093,5081484094,2452855907,2452855908,2452855909,2452855910,5892636234,2452855911,5892636238,5892636237,5892636236,5892636235,2452855912,2452855913,5892636224,5892636225,5892636223,2452855914,5892636217,5892636218,2452855915,5081485534,2452855916,5081485535,5081485536,2452855917,5081485537,5081485538,2452855918,5892732644,5892636547,5892636546,2452855919,5892636544,5892636545,2452855920,5892636175,5892636176,2452855921,2452855922,5892636165,5892636166,5892636164,2452855923,5892636128,5892636127,2452855924,2452855925,5892636129,5892636130,2452855926,5892636131,5892636135,5892636134,2452855927,5892636132,5892636133,2452855928,5892636584,5892636585,2452855929,2452855930,5892636109,5892636108,2452855931,2452855932,2452855933,5892636097,5892636096,2452855934,5892636095,5892636605,3446361666,2452855935,2452855936,2452855937,2452855938,5892636613,2452855939,5892174736,2452855940,5892636614,2452855941,2452855942,2452855943,5892636615,5892636616,2452855944,2452855945,2452855946,5892636617,2452855947,2452855948,2452855949,2452855950,2452855951,5892636631,2452855952,2452855953,5892636623,2452855954,5892636622,2452855955,2452855956,2452855957,2452855958,2452855959,2452855960,13677280176,2452855961,2452855962,2452855963,2452855964,2452855965,2452855966,2452855967,2452855968,2452855969,2452855970,5903165438,2452855971,2452855972,3446296741,2452855973,2452855974,2452855975,8382735428,2452855976,2452855977,2452855978,2452855979,2452855980,3446313513,2452855981,2452855982,3446313510,3446313508,2452855983,3446313511,3446313512,2452855984,2452855985,2452855986,3446313509,2452855987,2452855988,2452855989,2452855990,2452855991,2452855992,5901043655,2452855993,2452855994,2452855995,2452855996,5901043654,2452855997,5901043653,2452855998,2452855999,2452856000,2452856001,2452856002,2452856003,2452856004,2452856005,5552125035,5552125034,5552125033,5552125032,5552125031,5552125030,5552125029,5552125028,5552125027,5552125026,5552125025,5552125024,5552125023]},"geometry":{"type":"LineString","coordinates":[[90.9514801,24.7165824],[90.9515519,24.7164504],[90.9517148,24.7162571],[90.9519012,24.7160634],[90.952308,24.7156814],[90.9525557,24.7154457],[90.9528615,24.7152557],[90.9532128,24.7149974],[90.9536368,24.7148703],[90.9537417,24.7148651],[90.9539866,24.7148403],[90.954224,24.714889],[90.9546534,24.7150082],[90.9552545,24.7153853],[90.9558955,24.7157167],[90.9563014,24.7158673],[90.9567332,24.7159769],[90.9575665,24.7161333],[90.9579429,24.7161377],[90.9583345,24.7161036],[90.9587368,24.7160256],[90.9590587,24.7158965],[90.9592563,24.7157727],[90.9593698,24.7156017],[90.9594468,24.7153853],[90.9594342,24.7149341],[90.9593877,24.7144302],[90.9593752,24.7140058],[90.9592679,24.713594],[90.9588969,24.7127612],[90.9587797,24.7124318],[90.9587154,24.7121004],[90.9586698,24.711769],[90.9586698,24.7114571],[90.9587896,24.7101297],[90.9587762,24.7079464],[90.9588192,24.7073115],[90.9588941,24.706754],[90.9589406,24.7064385],[90.959005,24.7061373],[90.9591984,24.7055414],[90.959426,24.7051529],[90.9596441,24.7047732],[90.9599912,24.7042427],[90.9609041,24.7032358],[90.9613734,24.7027387],[90.9615934,24.7024853],[90.9617722,24.7022348],[90.9618214,24.7020515],[90.9617999,24.7018737],[90.961749,24.7016836],[90.9616435,24.701533],[90.9613359,24.701262],[90.9609568,24.7010262],[90.9601254,24.7005607],[90.9598821,24.7003385],[90.959748,24.7000972],[90.9596273,24.6998341],[90.9595621,24.6995836],[90.9595066,24.6993589],[90.959512,24.6991225],[90.9596139,24.6986498],[90.9600127,24.6978485],[90.9605491,24.6968543],[90.9606171,24.6965248],[90.9606332,24.6961959],[90.9606358,24.695862],[90.9606188,24.695514],[90.9605339,24.695109],[90.9604481,24.6947216],[90.9601852,24.694278],[90.9597847,24.6939154],[90.9593698,24.6937321],[90.9589988,24.6936669],[90.9587556,24.6937273],[90.9585048,24.6937894],[90.9581217,24.6939666],[90.957672,24.6944462],[90.9573743,24.6949287],[90.956735,24.6959648],[90.9564462,24.6962105],[90.9561512,24.6964006],[90.95584,24.6965492],[90.9555388,24.6966423],[90.9551507,24.6967198],[90.9547323,24.6967661],[90.9542165,24.6966911],[90.9537157,24.6965151],[90.9534046,24.6963006],[90.9532544,24.6961374],[90.9531498,24.6960107],[90.9530819,24.6958796],[90.9530237,24.6955476],[90.9530103,24.6952089],[90.953098,24.6945417],[90.9532034,24.6939539],[90.9532705,24.6934641],[90.9532598,24.6930717],[90.9531919,24.6926847],[90.9530693,24.6924186],[90.952954,24.6922115],[90.9528682,24.6920677],[90.9527144,24.6919707],[90.9523907,24.6919191],[90.9520903,24.6918996],[90.9512159,24.6917948],[90.950819,24.6918143],[90.9503834,24.6918806],[90.9500921,24.6919848],[90.9496602,24.6922334],[90.9490479,24.6925751],[90.9486732,24.6927671],[90.948303,24.6929231],[90.9479812,24.6929816],[90.947653,24.6929796],[90.9474501,24.6929158],[90.9472632,24.6927806],[90.947139,24.6926185],[90.9470415,24.6923923],[90.9470001,24.6921518],[90.94707,24.6917918],[90.9473741,24.6911227],[90.9477753,24.6906602],[90.9481113,24.6904703],[90.9487083,24.690342],[90.9493509,24.6901933],[90.9498239,24.6899616],[90.9507001,24.6893441],[90.9510353,24.6889642],[90.9514409,24.688046],[90.951667,24.687687],[90.9524274,24.6869066],[90.9530872,24.6861754],[90.953392,24.6857752],[90.9535198,24.6854676],[90.9534998,24.6851678],[90.9532954,24.6849262],[90.9526956,24.6845719],[90.9521538,24.6842794],[90.9517282,24.684179],[90.9515299,24.6841824],[90.9512043,24.6842892],[90.9507215,24.6846109],[90.948168,24.6858977],[90.9464273,24.686351],[90.9460875,24.6864309],[90.9457335,24.6864138],[90.9454089,24.6862968],[90.9451291,24.6860463],[90.9437048,24.6849033],[90.9432756,24.6844549],[90.9431362,24.6842014],[90.9431469,24.6839285],[90.9438551,24.6828171],[90.9457219,24.680107],[90.947283,24.6771287],[90.9477639,24.6765945],[90.9484631,24.6759906],[90.9486946,24.6758974],[90.9489173,24.6758462],[90.9499767,24.6760046],[90.9500921,24.676012],[90.9501824,24.6759685],[90.9512365,24.6751155],[90.9514359,24.6750005],[90.9516934,24.6749079],[90.9519777,24.6748908],[90.952245,24.6749985],[90.952557,24.675154],[90.9529567,24.6755927],[90.9535968,24.6766559],[90.9539894,24.6771224],[90.9542604,24.6773595],[90.9545457,24.6774456],[90.95488,24.6774579],[90.9552289,24.6773482],[90.9555055,24.6771226],[90.9556917,24.6768808],[90.9557641,24.6765194],[90.9557596,24.6758584],[90.9556389,24.6751272],[90.955435,24.6742059],[90.95541,24.6738432],[90.9553707,24.6734698],[90.955435,24.6731822],[90.9560725,24.6714571],[90.9562719,24.6711129],[90.9564543,24.6708156],[90.9574592,24.66969],[90.9588727,24.6683543],[90.9589621,24.6682465],[90.9590131,24.66811],[90.9590667,24.6679443],[90.95909,24.6677693],[90.9590131,24.6674983],[90.9589595,24.6673325],[90.9587467,24.6672379],[90.9571373,24.6671112],[90.956355,24.6669815],[90.9556818,24.6668158],[90.9549594,24.6664945],[90.9544051,24.6661796],[90.9541154,24.6659212],[90.9540483,24.6657872],[90.954026,24.6656975],[90.9540403,24.6655946],[90.9540698,24.6654703],[90.9547985,24.663962],[90.954963,24.6635105],[90.9551185,24.6629499],[90.9551418,24.6618169],[90.9553886,24.6600522],[90.9555423,24.6596056],[90.955655,24.6593667],[90.9559732,24.6591258],[90.9582102,24.6580923],[90.9593475,24.6573317],[90.9595549,24.6570851],[90.9596622,24.6568315],[90.9596479,24.6565127],[90.9595388,24.6561149],[90.9593189,24.6557151],[90.9588513,24.655188],[90.9581673,24.654309],[90.9569657,24.6526319],[90.9553564,24.6510522],[90.9548039,24.6501697],[90.9547484,24.6498158],[90.9548628,24.649414],[90.9552392,24.6489284],[90.955866,24.6487997],[90.9566876,24.6489333],[90.9575182,24.6492385],[90.9584195,24.6502526],[90.9590042,24.6505842],[90.959276,24.650591],[90.9596461,24.6504837],[90.9614825,24.6495749],[90.9626734,24.64938],[90.9652216,24.6498236],[90.9657669,24.6497036],[90.9661496,24.649414],[90.9670079,24.6479513],[90.9680378,24.6472493],[90.9693468,24.6470932],[90.9699261,24.6466447],[90.9701872,24.6459104],[90.9702265,24.6442848],[90.9701783,24.6425929],[90.9699351,24.6419951],[90.969497,24.6416665],[90.9683794,24.6414685],[90.9675872,24.6416323],[90.9669006,24.6418079],[90.9655917,24.6404036],[90.9649265,24.6390188],[90.9641969,24.6388433],[90.9631026,24.6394089],[90.9628127,24.6394795],[90.961622,24.6397697],[90.9592081,24.6387555],[90.9588754,24.6377121],[90.9596264,24.6368636],[90.9627378,24.6356641],[90.9640038,24.635079],[90.9645617,24.6345328],[90.9644436,24.63317],[90.9642398,24.6301784],[90.9637892,24.6283253],[90.9633529,24.6276592],[90.9627431,24.6274378],[90.9608281,24.6273696],[90.9599527,24.6267241],[90.9596264,24.6264966],[90.9578669,24.6253848],[90.9561503,24.6252678],[90.95538,24.6253521],[90.9546697,24.6254628],[90.9534681,24.6252873],[90.9529746,24.6246631],[90.9534252,24.6235902],[90.9547126,24.6226344],[90.9562085,24.6216609],[90.9572713,24.6203793],[90.9587681,24.6184599],[90.9596453,24.617844],[90.9601699,24.6176056],[90.9607244,24.6175121],[90.9619672,24.6179147],[90.9626348,24.6181251],[90.9632742,24.6181868],[90.9654844,24.6181868],[90.9661496,24.6180113],[90.966244,24.617816],[90.9663119,24.6175574],[90.9650552,24.6155338],[90.964154,24.6130173],[90.9641326,24.6116712],[90.9651196,24.6084133],[90.9662998,24.6062868],[90.9671348,24.6053133],[90.9686816,24.6046871],[90.9713209,24.6041798],[90.9731019,24.6031068],[90.9760952,24.6011802],[90.9774265,24.5999969],[90.9782356,24.599022],[90.9787059,24.5976142],[90.9787452,24.5963173],[90.9788311,24.5941516],[90.9782946,24.5921809],[90.9762132,24.5905615],[90.9741104,24.589703],[90.9717286,24.5893128],[90.9695184,24.5879664],[90.9686601,24.5866591],[90.9686261,24.5866001],[90.9685215,24.5864416],[90.9683982,24.5863562],[90.9682828,24.5863367],[90.9680468,24.5863733],[90.9678027,24.5864757],[90.9666574,24.5867391],[90.966078,24.5868123],[90.9655631,24.5867538],[90.9648818,24.5865977],[90.9644365,24.5864952],[90.9641522,24.5864269],[90.9638312,24.5863331]]}}]}