{"type":"FeatureCollection","features":[{"type":"Feature","properties":{"id":"march-7-speech"},"geometry":{"type":"Point","coordinates":[90.39583,23.73556]}},{"type":"Feature","properties":{"id":"first-flag"},"geometry":{"type":"Point","coordinates":[90.39279,23.73423]}},{"type":"Feature","properties":{"id":"manifesto"},"geometry":{"type":"Point","coordinates":[90.415,23.73667]}},{"type":"Feature","properties":{"id":"joydebpur"},"geometry":{"type":"Point","coordinates":[90.375,23.98889]}},{"type":"Feature","properties":{"id":"march-25"},"geometry":{"type":"Point","coordinates":[90.375,23.7325]}},{"type":"Feature","properties":{"id":"march-25"},"geometry":{"type":"Point","coordinates":[90.41702,23.74043]}},{"type":"Feature","properties":{"id":"march-25"},"geometry":{"type":"Point","coordinates":[90.39111,23.73306]}},{"type":"Feature","properties":{"id":"arrest"},"geometry":{"type":"Point","coordinates":[90.3767,23.7517]}},{"type":"Feature","properties":{"id":"kalurghat"},"geometry":{"type":"Point","coordinates":[91.85016,22.37591]}},{"type":"Feature","properties":{"id":"teliapara"},"geometry":{"type":"Point","coordinates":[91.36604,24.13042]}},{"type":"Feature","properties":{"id":"mujibnagar-oath"},"geometry":{"type":"Point","coordinates":[88.59355,23.64714]}},{"type":"Feature","properties":{"id":"chuknagar"},"geometry":{"type":"Point","coordinates":[89.29,22.84]}},{"type":"Feature","properties":{"id":"operation-jackpot"},"geometry":{"type":"Point","coordinates":[91.8,22.313]}},{"type":"Feature","properties":{"id":"operation-jackpot"},"geometry":{"type":"Point","coordinates":[89.59528,22.48889]}},{"type":"Feature","properties":{"id":"operation-jackpot"},"geometry":{"type":"Point","coordinates":[90.67,23.2]}},{"type":"Feature","properties":{"id":"operation-jackpot"},"geometry":{"type":"Point","coordinates":[90.48,23.63]}},{"type":"Feature","properties":{"id":"intellectuals-rayerbazar"},"geometry":{"type":"Point","coordinates":[90.35727,23.75081]}},{"type":"Feature","properties":{"id":"surrender"},"geometry":{"type":"Point","coordinates":[90.39583,23.73556]}},{"type":"Feature","properties":{"id":"national-memorial"},"geometry":{"type":"Point","coordinates":[90.25485,23.91123]}},{"type":"Feature","properties":{"id":"mujibnagar-memorial"},"geometry":{"type":"Point","coordinates":[88.59355,23.64714]}},{"type":"Feature","properties":{"id":"intellectuals-memorial"},"geometry":{"type":"Point","coordinates":[90.34525,23.79508]}}]}
