{"type":"FeatureCollection","features":[{"type":"Feature","geometry":{"type":"Polygon","coordinates":[[[33.91355,-1.53205],[33.95594,-1.51851],[33.93592,-1.48996],[33.89383,-1.49761],[33.84732,-1.43344],[33.80434,-1.42902],[33.78138,-1.4096],[33.79757,-1.38781],[33.8588,-1.40842],[33.84378,-1.38752],[33.81788,-1.38781],[33.82465,-1.37427],[33.79256,-1.33424],[33.80434,-1.31952],[33.90531,-1.3207],[33.96182,-1.34013],[33.97566,-1.35367],[33.96889,-1.37427],[33.98567,-1.36986],[33.98272,-1.33306],[33.92768,-1.29862],[33.93386,-1.27801],[33.88588,-1.27772],[33.87322,-1.25594],[33.9006,-1.20884],[33.9633,-1.17263],[33.99273,-1.13819],[33.97566,-1.10522],[34.02335,-1.10051],[34.07192,-1.05901],[34.07251,-1.02516],[34.09782,-1.01897],[34.09223,-1.00367],[34.06338,-1.01574],[34.03748,-0.99749],[34.05838,-1.0022],[34.07192,-0.97011],[34.13344,-1.00367],[34.12461,-0.97776],[34.13991,-0.91183],[34.18319,-0.8712],[34.17494,-0.84677],[34.07192,-0.79526],[34.05749,-0.72814],[34.03748,-0.7305],[34.04778,-0.64131],[34.08546,-0.59951],[34.05749,-0.55859],[34.10253,-0.5321],[34.15022,-0.53151],[34.18907,-0.4223],[34.22263,-0.41523],[34.21586,-0.42848],[34.24441,-0.42936],[34.31123,-0.47676],[34.31123,-0.44938],[34.34774,-0.4794],[34.36569,-0.45909],[34.35922,-0.44202],[34.386,-0.44467],[34.41868,-0.48912],[34.40749,-0.52179],[34.42398,-0.52503],[34.50551,-0.46792],[34.49992,-0.44143],[34.45694,-0.42406],[34.4487,-0.34635],[34.56233,-0.31839],[34.58676,-0.33576],[34.65829,-0.34488],[34.74042,-0.34017],[34.75366,-0.33576],[34.74954,-0.28719],[34.83785,-0.30897],[34.85463,-0.28748],[34.83285,-0.27129],[34.79517,-0.19564],[34.75013,-0.15443],[34.74336,-0.16208],[34.73129,-0.13794],[34.73659,-0.08584],[34.67448,-0.08967],[34.64652,-0.11704],[34.54849,-0.14942],[34.50551,-0.18092],[34.44664,-0.16826],[34.34538,-0.18887],[34.34626,-0.21978],[34.37276,-0.22331],[34.38306,-0.24421],[34.38689,-0.28483],[34.28798,-0.39639],[34.27091,-0.38109],[34.27709,-0.34635],[34.24324,-0.32575],[34.25678,-0.30514],[34.23647,-0.29867],[34.24912,-0.25216],[34.19584,-0.22125],[34.18789,-0.18887],[34.12225,-0.18534],[34.09399,-0.16885],[34.08546,-0.1403],[34.13785,-0.11734],[34.11283,-0.10674],[34.13491,-0.06494],[34.07692,-0.06347],[34.06485,-0.07259],[34.06485,-0.10674],[34.04366,-0.07259],[34.0207,-0.07053],[34.03012,-0.05228],[33.99597,-0.04051],[33.98596,0.03809],[33.96182,0.05752],[33.95505,0.09519],[33.98832,0.11904],[34.00362,0.2256],[33.98184,0.26563],[33.92091,0.21912],[33.89383,0.17379],[33.83142,0.20852],[33.81788,0.15377],[33.78992,0.23649],[33.77696,0.18792],[33.70867,0.20175],[33.74282,0.26298],[33.69513,0.26298],[33.7019,0.28418],[33.75577,0.31096],[33.749,0.3192],[33.70867,0.33216],[33.66775,0.31096],[33.64214,0.32333],[33.61977,0.31096],[33.61742,0.22707],[33.58003,0.20764],[33.56649,0.1838],[33.5556,0.17968],[33.53676,0.20175],[33.51616,0.18115],[33.53058,0.22206],[33.50262,0.19557],[33.49261,0.23649],[33.4823,0.18792],[33.42638,0.24355],[33.44786,0.2568],[33.42078,0.27005],[33.43432,0.27741],[33.40018,0.29772],[33.45905,0.29448],[33.49496,0.27034],[33.50821,0.30037],[33.48908,0.30478],[33.49467,0.31891],[33.45493,0.3457],[33.46906,0.35188],[33.41372,0.3457],[33.42755,0.3245],[33.39488,0.34128],[33.35926,0.33893],[33.36603,0.37307],[33.31776,0.35188],[33.3101,0.3819],[33.36603,0.40722],[33.34984,0.42194],[33.38929,0.48464],[33.36603,0.497],[33.34572,0.45638],[33.31864,0.43754],[33.29067,0.4396],[33.28302,0.48287],[33.24181,0.46168],[33.25035,0.44048],[33.23592,0.42724],[33.18735,0.42812],[33.19295,0.40604],[33.26683,0.39044],[33.26977,0.37307],[33.15379,0.31626],[33.16734,0.26298],[33.13878,0.24738],[33.12642,0.21706],[33.11288,0.2256],[33.12377,0.24709],[33.07108,0.26298],[33.07873,0.25003],[33.04311,0.22884],[33.10522,0.22206],[33.09198,0.18615],[32.9863,0.10108],[32.90123,0.07694],[32.8715,0.12698],[32.89917,0.147],[32.88592,0.16113],[32.89299,0.19557],[32.86414,0.16878],[32.85148,0.18115],[32.85914,0.147],[32.81057,0.16143],[32.79673,0.10609],[32.75611,0.1261],[32.66662,0.09166],[32.65308,0.13346],[32.70401,0.14023],[32.74168,0.17379],[32.7149,0.20852],[32.69047,0.16731],[32.66132,0.17173],[32.68075,0.22206],[32.67339,0.23649],[32.65661,0.22206],[32.64808,0.2309],[32.66692,0.27682],[32.64543,0.29095],[32.61599,0.21147],[32.563,0.18968],[32.57154,0.16143],[32.59833,0.14023],[32.57154,0.13346],[32.58803,0.10785],[32.55064,0.11904],[32.54387,0.10226],[32.57007,0.06046],[32.55741,0.04397],[32.53004,0.07812],[32.50943,0.05133],[32.49589,0.08548],[32.45203,0.03014],[32.43761,0.03367],[32.41965,0.05516],[32.45792,0.09519],[32.44762,0.11904],[32.42112,0.08283],[32.36549,0.08548],[32.37903,-0.02432],[32.35195,-0.02432],[32.35224,0.00953],[32.32428,0.0269],[32.25569,0.05133],[32.24833,0.04397],[32.2916,0.00188],[32.28983,-0.01755],[32.26923,-0.02903],[32.24127,-0.02137],[32.20035,0.0166],[32.208,0.0372],[32.19358,0.01366],[32.20624,-0.04198],[32.18828,-0.06847],[32.13206,-0.06317],[32.07672,-0.03639],[32.03727,-0.05228],[32.01608,-0.04463],[32.02579,-0.0673],[32.0617,-0.07583],[32.06994,-0.09938],[31.99488,-0.08584],[31.91982,-0.13412],[31.94013,-0.1403],[31.92659,-0.19564],[31.98046,-0.18946],[31.97457,-0.23037],[32.00607,-0.24656],[32.03727,-0.32575],[32.01902,-0.30602],[31.99783,-0.31456],[31.9263,-0.4223],[31.84682,-0.47146],[31.79295,-0.57596],[31.78471,-0.61628],[31.79825,-0.65249],[31.69905,-0.79938],[31.70081,-0.83941],[31.76057,-0.84648],[31.76911,-0.86384],[31.76999,-0.96452],[31.78795,-0.98865],[31.76852,-1.04753],[31.78147,-1.05518],[31.81385,-1.03988],[31.82415,-0.98394],[31.84005,-1.02427],[31.8739,-1.02457],[31.84476,-1.05901],[31.87007,-1.14997],[31.80119,-1.47082],[31.79648,-1.48407],[31.75527,-1.46582],[31.74173,-1.5662],[31.76086,-1.59652],[31.72054,-1.676],[31.68433,-1.86733],[31.63075,-1.94799],[31.6125,-2.00362],[31.61103,-2.03895],[31.62133,-2.04071],[31.70699,-2.0048],[31.68639,-2.05955],[31.70081,-2.07662],[31.6805,-2.11489],[31.69375,-2.14197],[31.66932,-2.18995],[31.6337,-2.35627],[31.65931,-2.36127],[31.72525,-2.32036],[31.75527,-2.32654],[31.7485,-2.34126],[31.77234,-2.35745],[31.75527,-2.36127],[31.75939,-2.39307],[31.79619,-2.42486],[31.79648,-2.46283],[31.77117,-2.49786],[31.71789,-2.50757],[31.71965,-2.53907],[31.7485,-2.55673],[31.75468,-2.62002],[31.8583,-2.60089],[31.85565,-2.61737],[31.82415,-2.61502],[31.81591,-2.64004],[31.77352,-2.65417],[31.75969,-2.71598],[31.78942,-2.7257],[31.78294,-2.81489],[31.79648,-2.83402],[31.84476,-2.78634],[31.82415,-2.70745],[31.8321,-2.69126],[31.858,-2.67801],[31.87213,-2.71746],[31.90628,-2.71068],[31.89951,-2.63503],[31.90628,-2.65593],[31.93189,-2.64857],[31.93719,-2.69008],[31.95985,-2.69567],[31.98075,-2.76573],[32.01549,-2.76014],[32.02285,-2.74159],[31.99488,-2.71068],[31.99488,-2.67654],[31.93424,-2.59441],[31.99194,-2.58381],[31.98576,-2.50787],[32.00725,-2.48697],[32.02285,-2.50522],[32.02962,-2.47048],[32.06994,-2.52494],[32.06994,-2.50522],[32.08672,-2.50316],[32.10821,-2.53083],[32.13206,-2.5326],[32.13824,-2.56026],[32.15678,-2.55085],[32.17356,-2.51199],[32.16679,-2.49639],[32.06788,-2.42456],[32.06641,-2.38571],[32.0776,-2.36746],[32.15943,-2.38836],[32.203,-2.32154],[32.22154,-2.32095],[32.21889,-2.25089],[32.25863,-2.28386],[32.30985,-2.27179],[32.32869,-2.31565],[32.36107,-2.3289],[32.34429,-2.34126],[32.32398,-2.3339],[32.32016,-2.35392],[32.37137,-2.43222],[32.44114,-2.43575],[32.43378,-2.45665],[32.49206,-2.45577],[32.50943,-2.47048],[32.55064,-2.43575],[32.54858,-2.48226],[32.50207,-2.54614],[32.52474,-2.55291],[32.54947,-2.53848],[32.62482,-2.46725],[32.65956,-2.38041],[32.66957,-2.43398],[32.69488,-2.47343],[32.67339,-2.51817],[32.72844,-2.48461],[32.73462,-2.5326],[32.76229,-2.49963],[32.80527,-2.4852],[32.83765,-2.51199],[32.81057,-2.56645],[32.82911,-2.56733],[32.83765,-2.58705],[32.81616,-2.5897],[32.81734,-2.64239],[32.79673,-2.63503],[32.81057,-2.66889],[32.84471,-2.67654],[32.82293,-2.70539],[32.87297,-2.72894],[32.84471,-2.79311],[32.84736,-2.82431],[32.78172,-2.83667],[32.72049,-2.86964],[32.79673,-2.90997],[32.76229,-2.92822],[32.74551,-2.98503],[32.75552,-3.01211],[32.80939,-2.96089],[32.84118,-2.85139],[32.89093,-2.82195],[32.89917,-2.79988],[32.9339,-2.85169],[33.02339,-2.88259],[33.02781,-2.86111],[33.01014,-2.8455],[32.96864,-2.84109],[32.96864,-2.82048],[32.92713,-2.82048],[32.9548,-2.78634],[32.87945,-2.7045],[32.88092,-2.69096],[32.90947,-2.67919],[32.86973,-2.63444],[32.86561,-2.60148],[32.90682,-2.54967],[32.87798,-2.50757],[32.87474,-2.47725],[32.90682,-2.47048],[32.903,-2.4384],[32.96275,-2.38836],[33.0805,-2.38894],[33.11935,-2.40013],[33.13849,-2.45253],[33.20766,-2.51287],[33.31069,-2.50522],[33.32982,-2.5167],[33.34454,-2.4955],[33.34484,-2.52494],[33.39282,-2.52877],[33.39988,-2.55202],[33.42755,-2.55291],[33.42196,-2.5323],[33.45081,-2.527],[33.4617,-2.50169],[33.40754,-2.46725],[33.47583,-2.43575],[33.51527,-2.4487],[33.52999,-2.44016],[33.50997,-2.40543],[33.53235,-2.37864],[33.5974,-2.35656],[33.64862,-2.30829],[33.66775,-2.31329],[33.83849,-2.22057],[33.81582,-2.12313],[33.78638,-2.09488],[33.74929,-2.08575],[33.64214,-2.14668],[33.60564,-2.18289],[33.50939,-2.15316],[33.35808,-2.16758],[33.33659,-2.13579],[33.28243,-2.11107],[33.25947,-2.11107],[33.2215,-2.14197],[33.20766,-2.11489],[33.21885,-2.04277],[33.28596,-2.05631],[33.29244,-2.03159],[33.26977,-2.01157],[33.28155,-2.00038],[33.31776,-2.04572],[33.32423,-2.01657],[33.37957,-2.05337],[33.40018,-2.03895],[33.37221,-1.99803],[33.39988,-1.97213],[33.49643,-2.02541],[33.5506,-2.02894],[33.57326,-1.98714],[33.53676,-1.97006],[33.54412,-1.96329],[33.4617,-1.94975],[33.49025,-1.92679],[33.45522,-1.89353],[33.4617,-1.88146],[33.39252,-1.89706],[33.31422,-1.94446],[33.28302,-1.92238],[33.31069,-1.9056],[33.3313,-1.83731],[33.36515,-1.80434],[33.44786,-1.79963],[33.44051,-1.82553],[33.45081,-1.83731],[33.49261,-1.83966],[33.55707,-1.80345],[33.57827,-1.75842],[33.64126,-1.7752],[33.64656,-1.76195],[33.60564,-1.73045],[33.59887,-1.73811],[33.54324,-1.67541],[33.68777,-1.67541],[33.70867,-1.6601],[33.7019,-1.62801],[33.66775,-1.62801],[33.68777,-1.61536],[33.67452,-1.58033],[33.61241,-1.5662],[33.6813,-1.53499],[33.68247,-1.5088],[33.66775,-1.51145],[33.65274,-1.49202],[33.65392,-1.47053],[33.681,-1.46641],[33.72574,-1.49113],[33.75577,-1.47671],[33.79315,-1.48171],[33.79757,-1.47053],[33.82465,-1.51233],[33.91355,-1.53205]],[[34.14639,-0.40523],[34.16729,-0.36696],[34.20203,-0.39492],[34.22263,-0.36019],[34.20409,-0.40729],[34.16111,-0.43584],[34.1196,-0.42789],[34.1196,-0.41523],[34.14639,-0.40523]],[[33.94652,-0.4641],[33.96418,-0.44496],[34.03041,-0.43231],[34.06191,-0.4744],[34.01716,-0.50472],[33.94652,-0.4641]],[[31.81591,-1.80081],[31.84535,-1.75312],[31.84917,-1.77991],[31.81061,-1.81935],[31.81591,-1.80081]],[[31.7747,-2.13991],[31.7641,-2.12107],[31.77588,-2.07986],[31.79324,-2.12431],[31.82474,-2.13049],[31.79795,-2.15139],[31.7747,-2.13991]],[[31.91982,-2.41632],[31.87537,-2.45371],[31.84829,-2.45459],[31.83799,-2.42604],[31.85094,-2.37482],[31.81679,-2.3339],[31.83033,-2.32271],[31.78265,-2.32095],[31.77588,-2.28592],[31.7903,-2.28886],[31.80796,-2.26767],[31.81061,-2.25207],[31.78824,-2.25972],[31.81061,-2.18289],[31.84476,-2.2241],[31.8689,-2.31006],[31.90775,-2.32183],[31.89951,-2.3548],[31.91982,-2.41632]],[[31.89951,-1.63508],[31.88862,-1.6913],[31.8583,-1.74488],[31.86536,-1.68277],[31.87213,-1.69012],[31.8583,-1.62124],[31.89244,-1.61094],[31.94013,-1.66216],[31.89951,-1.63508]],[[32.06994,-2.29298],[32.03757,-2.35097],[31.97781,-2.36746],[31.96986,-2.34361],[31.95456,-2.34744],[31.98517,-2.30888],[31.98134,-2.29298],[31.95102,-2.29239],[31.95102,-2.27709],[32.02579,-2.23352],[32.05699,-2.245],[32.04404,-2.27915],[32.06759,-2.26708],[32.06994,-2.29298]],[[32.28277,-0.35312],[32.2707,-0.38668],[32.28307,-0.46999],[32.25893,-0.4903],[32.23862,-0.48353],[32.24185,-0.4638],[32.1874,-0.46999],[32.19358,-0.5109],[32.17356,-0.50472],[32.1662,-0.53828],[32.13824,-0.53828],[32.13235,-0.52533],[32.16767,-0.47146],[32.17062,-0.43554],[32.19711,-0.42848],[32.21654,-0.39875],[32.24215,-0.41347],[32.24804,-0.39669],[32.19358,-0.33193],[32.14413,-0.33811],[32.10439,-0.32221],[32.11175,-0.30544],[32.09173,-0.28042],[32.05022,-0.25745],[32.07377,-0.23037],[32.17238,-0.23979],[32.15296,-0.31162],[32.1662,-0.32575],[32.25569,-0.30544],[32.24833,-0.31839],[32.27335,-0.33016],[32.28983,-0.29867],[32.32398,-0.35401],[32.28277,-0.35312]],[[32.34282,-0.26158],[32.31927,-0.24215],[32.33134,-0.23037],[32.32398,-0.21978],[32.29661,-0.203],[32.3281,-0.20417],[32.3699,-0.26982],[32.34282,-0.26158]],[[32.38845,-0.36784],[32.35666,-0.37491],[32.35195,-0.36019],[32.37903,-0.36696],[32.36931,-0.33428],[32.41347,-0.36019],[32.38845,-0.36784]],[[32.53121,-2.32654],[32.50678,-2.3966],[32.44114,-2.41632],[32.40758,-2.34214],[32.43378,-2.26561],[32.44644,-2.28386],[32.46793,-2.27179],[32.4747,-2.32448],[32.50207,-2.32095],[32.49589,-2.28592],[32.53269,-2.28386],[32.53121,-2.32654]],[[32.53828,-0.39021],[32.53681,-0.40846],[32.52327,-0.39492],[32.48117,-0.49206],[32.4485,-0.50207],[32.44114,-0.4903],[32.47705,-0.44173],[32.45409,-0.42848],[32.50207,-0.40846],[32.50413,-0.38403],[32.54358,-0.37373],[32.53828,-0.39021]],[[32.75375,-0.01843],[32.76965,-0.01755],[32.767,0.01159],[32.78937,0.0166],[32.78937,0.0372],[32.81086,0.01925],[32.80321,-0.00901],[32.76288,-0.05228],[32.75375,-0.01843]],[[32.8038,-0.10645],[32.74168,-0.13412],[32.75552,-0.12058],[32.68576,-0.12087],[32.65956,-0.09938],[32.70754,-0.10674],[32.70754,-0.06523],[32.72402,-0.0723],[32.73462,-0.05846],[32.75552,-0.08584],[32.73462,-0.03786],[32.75876,-0.05994],[32.76288,-0.0932],[32.81734,-0.08584],[32.8038,-0.10645]],[[33.00573,-1.80522],[33.09168,-1.79963],[33.09757,-1.81435],[33.07873,-1.81317],[33.0908,-1.84908],[33.03723,-1.895],[33.02339,-1.88823],[32.9969,-1.8588],[33.00573,-1.80522]],[[33.18676,-2.13197],[33.16351,-2.15404],[33.17352,-2.16935],[33.14173,-2.1667],[33.07873,-2.12166],[33.05577,-2.1405],[32.99602,-2.099],[32.85325,-2.07192],[32.84501,-2.05072],[32.89917,-1.97742],[32.85148,-1.97006],[32.82499,-1.92915],[32.85148,-1.94328],[32.92036,-1.895],[32.94774,-1.90943],[32.93155,-1.94799],[32.94097,-1.96329],[32.99248,-1.99126],[33.02722,-1.9733],[33.10522,-1.96683],[33.12024,-2.01128],[33.10051,-2.04336],[33.14702,-2.05955],[33.13466,-2.07398],[33.18617,-2.11666],[33.18676,-2.13197]],[[33.18411,0.14995],[33.17352,0.10609],[33.16586,0.147],[33.19471,0.16143],[33.18411,0.14995]],[[33.29597,0.03073],[33.25623,0.01042],[33.25035,0.04957],[33.29038,0.0637],[33.28302,0.04397],[33.30392,0.04397],[33.29597,0.03073]],[[33.38693,0.25121],[33.37221,0.21588],[33.34484,0.20175],[33.3363,0.21736],[33.31834,0.21088],[33.31776,0.17143],[33.33807,0.15377],[33.31923,0.11904],[33.33924,0.07989],[33.31628,0.08489],[33.31069,0.14023],[33.28302,0.10609],[33.26447,0.15318],[33.24681,0.16496],[33.22827,0.15377],[33.20766,0.18792],[33.24564,0.18115],[33.26212,0.19145],[33.20501,0.25592],[33.23857,0.29772],[33.31776,0.29772],[33.29597,0.26327],[33.31776,0.26298],[33.31452,0.24797],[33.32923,0.23914],[33.33807,0.25003],[33.3519,0.24267],[33.3569,0.27446],[33.37221,0.27005],[33.3519,0.29095],[33.37104,0.29772],[33.40018,0.2568],[33.38693,0.25121]],[[33.72604,-0.1297],[33.71544,-0.16826],[33.68159,-0.13971],[33.65392,-0.1403],[33.71897,-0.09938],[33.72604,-0.1297]],[[33.7696,0.07812],[33.76548,0.10079],[33.78609,0.1158],[33.88264,0.07871],[33.8794,0.0637],[33.7696,0.07812]]]},"properties":{"id":"victoria_l"}},{"type":"Feature","geometry":{"type":"Polygon","coordinates":[[[30.80977,-8.58472],[30.85805,-8.61769],[31.02525,-8.79902],[31.10355,-8.7687],[31.10738,-8.74338],[31.14299,-8.71012],[31.17331,-8.74809],[31.19421,-8.72366],[31.19981,-8.68922],[31.18685,-8.65861],[31.19981,-8.62799],[31.16566,-8.58678],[31.16595,-8.54645],[31.13534,-8.52526],[31.14535,-8.42606],[31.1271,-8.39397],[31.06734,-8.35688],[31.04968,-8.3298],[31.04262,-8.33716],[31.00817,-8.28182],[30.97108,-8.2621],[30.94283,-8.16584],[30.94665,-8.15142],[30.9596,-8.16525],[30.96461,-8.14818],[30.95489,-8.11138],[30.94665,-8.09696],[30.92605,-8.1105],[30.91574,-8.09372],[30.90279,-8.01895],[30.79947,-7.87442],[30.74472,-7.72017],[30.7144,-7.6719],[30.66612,-7.64393],[30.58341,-7.50794],[30.6049,-7.45436],[30.59371,-7.44583],[30.61078,-7.37076],[30.60431,-7.33191],[30.55132,-7.20474],[30.53248,-7.19473],[30.53189,-7.15028],[30.49421,-7.10996],[30.50099,-7.09818],[30.51835,-7.10996],[30.55986,-7.10171],[30.55603,-7.04108],[30.57664,-7.01753],[30.56457,-6.9563],[30.51453,-6.92451],[30.41856,-6.82207],[30.3956,-6.74701],[30.33585,-6.64633],[30.19014,-6.52358],[30.15864,-6.46883],[30.11743,-6.45205],[30.0721,-6.45323],[29.95288,-6.50739],[29.94022,-6.47001],[29.85662,-6.41114],[29.75036,-6.27131],[29.71179,-6.24659],[29.73211,-6.19566],[29.73446,-6.04495],[29.78892,-5.98607],[29.8266,-6.0002],[29.8996,-5.93544],[29.94611,-5.91778],[29.95288,-5.84184],[29.83602,-5.55984],[29.77037,-5.49154],[29.74123,-5.4312],[29.78421,-5.32876],[29.78156,-5.26665],[29.80246,-5.26665],[29.80658,-5.2537],[29.79981,-5.23339],[29.81394,-5.20631],[29.79569,-5.17716],[29.82306,-5.1436],[29.81629,-5.0971],[29.77538,-5.02645],[29.78156,-5.00643],[29.65174,-4.91665],[29.59317,-4.90429],[29.62084,-4.87279],[29.60347,-4.84218],[29.60259,-4.76064],[29.64968,-4.50954],[29.65439,-4.39916],[29.55372,-4.2664],[29.53635,-4.20076],[29.50103,-4.16308],[29.49397,-4.10656],[29.43215,-4.01295],[29.4348,-3.96497],[29.37328,-3.88726],[29.33677,-3.76274],[29.34325,-3.40332],[29.32912,-3.36211],[29.29674,-3.34062],[29.20608,-3.33444],[29.16516,-3.35063],[29.13455,-3.42687],[29.15162,-3.68003],[29.09628,-3.77334],[29.12424,-3.83045],[29.09628,-3.91728],[29.09628,-4.11863],[29.08274,-4.14983],[29.10364,-4.17662],[29.10482,-4.22401],[29.04182,-4.30702],[29.13808,-4.34853],[29.23404,-4.0471],[29.25936,-4.11922],[29.1999,-4.41682],[29.20137,-4.51602],[29.15839,-4.50012],[29.11276,-4.61463],[29.09893,-4.77035],[29.1057,-4.97935],[29.11777,-5.01202],[29.09628,-5.06795],[29.17723,-5.29196],[29.37269,-5.60958],[29.37004,-5.63725],[29.34413,-5.62577],[29.33207,-5.63372],[29.34943,-5.72733],[29.3353,-5.74646],[29.35679,-5.74646],[29.32058,-5.81593],[29.23551,-5.89011],[29.179,-5.91778],[29.19784,-6.07821],[29.26672,-6.11942],[29.27849,-6.16799],[29.32235,-6.1989],[29.34001,-6.28633],[29.3668,-6.32136],[29.41802,-6.48237],[29.44245,-6.51799],[29.4872,-6.51358],[29.49043,-6.56892],[29.47365,-6.60983],[29.49868,-6.70285],[29.54901,-6.77114],[29.6382,-6.83914],[29.67765,-6.91067],[29.78951,-7.04726],[29.97466,-7.11084],[30.12803,-7.2486],[30.18307,-7.369],[30.20397,-7.45083],[30.2184,-7.54297],[30.19956,-7.60096],[30.23223,-7.71105],[30.26373,-7.74519],[30.26873,-7.83615],[30.30288,-7.88472],[30.35321,-7.89002],[30.38088,-7.93447],[30.41032,-7.94124],[30.46007,-8.0007],[30.45242,-8.01513],[30.51482,-8.03897],[30.58429,-8.14023],[30.56133,-8.28006],[30.56987,-8.30301],[30.48686,-8.34128],[30.45183,-8.39603],[30.44623,-8.46668],[30.47361,-8.4867],[30.47037,-8.50848],[30.48744,-8.51672],[30.56692,-8.5023],[30.56987,-8.54881],[30.52954,-8.57795],[30.54808,-8.58178],[30.64346,-8.52408],[30.65788,-8.50112],[30.63198,-8.50112],[30.63816,-8.4867],[30.67613,-8.4811],[30.6832,-8.52497],[30.7144,-8.5282],[30.73442,-8.55646],[30.79505,-8.5597],[30.80977,-8.58472]]]},"properties":{"id":"tanganyika"}},{"type":"Feature","geometry":{"type":"Polygon","coordinates":[[[35.22465,-14.38458],[35.23613,-14.40136],[35.26762,-14.38752],[35.28793,-14.3363],[35.17666,-14.10052],[35.18137,-14.05165],[35.13457,-13.971],[35.11338,-13.84942],[35.086,-13.81233],[35.06893,-13.74934],[35.0548,-13.7305],[35.01712,-13.72344],[34.89878,-13.72491],[34.85728,-13.69312],[34.86287,-13.38286],[34.79458,-13.31574],[34.81224,-13.23626],[34.79723,-13.13647],[34.81577,-13.08467],[34.75484,-12.92188],[34.78398,-12.79795],[34.82549,-12.71494],[34.76544,-12.56658],[34.68861,-12.42735],[34.70921,-12.40704],[34.70009,-12.31814],[34.71599,-12.2366],[34.69479,-12.18803],[34.76779,-12.11591],[34.80488,-12.09855],[34.81931,-12.06263],[34.86935,-12.04262],[34.90791,-11.91369],[34.95589,-11.8136],[34.96069,-11.49852],[34.86788,-11.35879],[34.80049,-11.33192],[34.76556,-11.34515],[34.73703,-11.29678],[34.7575,-11.27755],[34.72835,-11.25372],[34.71409,-11.20273],[34.68184,-11.18505],[34.61353,-11.10216],[34.59296,-11.01617],[34.64546,-10.91323],[34.65673,-10.76988],[34.67502,-10.75242],[34.64763,-10.70839],[34.66003,-10.6655],[34.62634,-10.61434],[34.62438,-10.58344],[34.6004,-10.57806],[34.58107,-10.53972],[34.59296,-10.48174],[34.56505,-10.4098],[34.58562,-10.29002],[34.52475,-10.09478],[34.53777,-10.05385],[34.52475,-10.00879],[34.33168,-9.76922],[34.31794,-9.7192],[34.28807,-9.70845],[34.07849,-9.51019],[34.01274,-9.47746],[33.94587,-9.55001],[33.96261,-9.61213],[33.95134,-9.67362],[33.90442,-9.72538],[33.90737,-9.82723],[33.93092,-9.88198],[33.9527,-9.88964],[33.96624,-10.00179],[33.99538,-10.06891],[34.0778,-10.18665],[34.18113,-10.27908],[34.24706,-10.37799],[34.27091,-10.44069],[34.22646,-10.46836],[34.2294,-10.53282],[34.18319,-10.57786],[34.20909,-10.62555],[34.20203,-10.68766],[34.23293,-10.93434],[34.22911,-11.06032],[34.24971,-11.11213],[34.21498,-11.18572],[34.23176,-11.22105],[34.23234,-11.27227],[34.25737,-11.2967],[34.27738,-11.35351],[34.28415,-11.47861],[34.32507,-11.63993],[34.31565,-11.69232],[34.19084,-11.82037],[34.18289,-11.87954],[34.19525,-11.89985],[34.06897,-12.00199],[34.03012,-12.18803],[34.03954,-12.27045],[34.08546,-12.38025],[34.14786,-12.38231],[34.17112,-12.39703],[34.20556,-12.50859],[34.18466,-12.54686],[34.18642,-12.62163],[34.22292,-12.70464],[34.27591,-12.7382],[34.26355,-12.80826],[34.31123,-12.87331],[34.31565,-12.92836],[34.33125,-12.90098],[34.34803,-13.24392],[34.30888,-13.32987],[34.32507,-13.39581],[34.43811,-13.57419],[34.51729,-13.56507],[34.63474,-13.70342],[34.61884,-13.73786],[34.62032,-13.78437],[34.59265,-13.81233],[34.60001,-13.84648],[34.58264,-13.89299],[34.53407,-13.95304],[34.55114,-14.07903],[34.61678,-14.18529],[34.69862,-14.22415],[34.69479,-14.26477],[34.70921,-14.27478],[34.79016,-14.2477],[34.82902,-14.20619],[34.81224,-14.16851],[34.86258,-14.09345],[34.84021,-14.04105],[34.84403,-14.01544],[34.86317,-14.00249],[34.89349,-14.01103],[34.94206,-14.05165],[34.94176,-14.1276],[34.96413,-14.15527],[34.99651,-14.14732],[35.0651,-14.18618],[35.09807,-14.25682],[35.22465,-14.38458]],[[34.71069,-12.06617],[34.72894,-12.03025],[34.7569,-12.04379],[34.74101,-12.05233],[34.73983,-12.08883],[34.70833,-12.08383],[34.71069,-12.06617]]]},"properties":{"id":"malawi"}},{"type":"Feature","geometry":{"type":"Polygon","coordinates":[[[52.85014,41.20043],[52.74746,41.36554],[52.60938,41.52958],[52.49399,41.7804],[52.46753,41.88571],[52.46226,42.10056],[52.61837,42.42811],[52.63847,42.55565],[52.59667,42.76041],[52.55011,42.8054],[52.49399,42.82023],[52.32412,42.81599],[52.27281,42.79958],[52.18393,42.86891],[52.07541,42.88002],[51.96058,42.85038],[51.89816,42.86943],[51.84421,42.91071],[51.70024,43.10386],[51.61611,43.15835],[51.29545,43.17421],[51.31344,43.35573],[51.30181,43.4822],[51.23882,43.57693],[51.13986,43.64889],[51.06472,43.74997],[50.93982,43.95845],[50.83083,44.19286],[50.78267,44.22779],[50.68479,44.26484],[50.33127,44.32569],[50.27572,44.35533],[50.25299,44.46171],[50.29743,44.58183],[50.40962,44.62415],[50.86044,44.6289],[51.04885,44.53049],[51.17691,44.50139],[51.37638,44.54108],[51.5436,44.531],[51.49389,44.57759],[51.4309,44.60193],[51.36635,44.59981],[51.31023,44.61885],[51.2182,44.7088],[51.05785,44.81148],[51.02079,44.8538],[51.00917,44.92207],[51.04038,44.98028],[51.1536,45.04007],[51.24993,45.12156],[51.29385,45.23006],[51.41555,45.35811],[51.53937,45.34276],[51.73253,45.39937],[52.04895,45.38826],[52.42681,45.40467],[52.53104,45.39886],[52.91045,45.31948],[53.07876,45.30731],[53.20045,45.33217],[53.08563,45.40731],[52.83743,45.49673],[52.77392,45.57296],[52.88771,45.77933],[53.0417,45.96771],[53.13534,46.19155],[53.10888,46.41433],[53.06392,46.47517],[53.07876,46.54765],[53.17027,46.66886],[53.0692,46.85618],[53.03483,46.89269],[52.91577,46.9546],[52.67764,46.95724],[52.48344,46.99057],[52.42045,46.96359],[52.34056,46.89481],[52.1384,46.82867],[52.08548,46.83978],[52.01086,46.90169],[51.94523,46.89481],[51.74468,46.93396],[51.65001,47.01809],[51.61507,47.02974],[51.17794,47.11017],[50.92028,47.04085],[50.58263,46.8821],[50.41912,46.87946],[50.30642,46.79479],[49.99951,46.63444],[49.88629,46.59581],[49.34756,46.51907],[49.36188,46.41009],[49.28565,46.43655],[49.20576,46.38575],[49.24597,46.29154],[49.1253,46.28149],[49.07983,46.18943],[48.80992,46.10052],[48.68347,46.08623],[48.70357,45.97616],[48.74961,45.92061],[48.72951,45.89679],[48.68982,45.88885],[48.58926,45.9349],[48.48715,45.9349],[48.2575,45.77772],[48.15906,45.73698],[47.82993,45.6629],[47.70136,45.68618],[47.64999,45.65654],[47.63309,45.58407],[47.50819,45.67401],[47.47961,45.68775],[47.46323,45.67985],[47.52406,45.60151],[47.52938,45.53009],[47.48861,45.45495],[47.41295,45.42105],[47.39125,45.2946],[47.35104,45.21786],[47.22139,45.02418],[47.11504,44.9062],[47.08382,44.81677],[47.00285,44.87602],[46.95732,44.78236],[46.75521,44.65642],[46.70705,44.50349],[46.7208,44.45163],[46.7531,44.42042],[46.91551,44.38708],[47.02347,44.34316],[47.22986,44.19234],[47.30712,44.10292],[47.36164,43.99339],[47.42933,43.7796],[47.46266,43.55522],[47.56271,43.83464],[47.64632,43.88438],[47.50871,43.50972],[47.48969,43.38167],[47.51295,43.21868],[47.46323,43.03505],[47.52881,42.96733],[47.63464,42.9033],[47.70926,42.8107],[47.72782,42.68052],[47.82254,42.61332],[48.0802,42.35349],[48.22841,42.18099],[48.38395,41.95343],[48.6644,41.78675],[48.82372,41.6296],[49.1068,41.30151],[49.17455,41.1163],[49.22638,41.02633],[49.4566,40.79986],[49.55608,40.71625],[49.77622,40.58396],[49.99052,40.57654],[50.1826,40.50458],[50.30694,40.41198],[50.36569,40.27969],[50.14343,40.32307],[49.91905,40.3162],[49.66878,40.24899],[49.55132,40.19396],[49.47722,40.08706],[49.41531,39.83995],[49.32431,39.60818],[49.32746,39.50128],[49.36715,39.39863],[49.36291,39.34941],[49.26927,39.28538],[49.19992,39.07265],[49.16556,39.03033],[49.12112,39.00387],[49.11156,39.08482],[49.01368,39.13405],[48.9618,39.07901],[48.92635,38.96152],[48.85069,38.81549],[48.8708,38.39267],[48.90149,38.14343],[48.95968,37.88996],[49.08086,37.66773],[49.17135,37.60052],[49.37247,37.52009],[49.47035,37.49681],[49.72697,37.4804],[49.98044,37.44495],[50.1302,37.40738],[50.21381,37.33963],[50.3382,37.14913],[50.53292,37.01368],[50.92767,36.80995],[51.11872,36.74275],[51.76214,36.61469],[52.19028,36.62156],[53.37398,36.86868],[53.76771,36.93005],[53.91535,36.93005],[53.8275,36.88139],[53.67934,36.85333],[53.76874,36.8184],[53.90635,36.81259],[53.96986,36.8184],[54.01642,36.84964],[54.01694,36.95229],[53.84811,37.66985],[53.82326,37.92807],[53.85395,38.28578],[53.84021,38.51491],[53.88517,38.86417],[53.86879,38.94935],[53.7243,39.10335],[53.70471,39.20973],[53.61743,39.21606],[53.47506,39.30548],[53.33641,39.34096],[53.2666,39.34253],[53.20309,39.31662],[53.15653,39.26474],[53.12423,39.34677],[53.12475,39.43196],[53.2359,39.60869],[53.3052,39.55684],[53.3899,39.53619],[53.60312,39.54679],[53.5825,39.60766],[53.47243,39.66903],[53.45072,39.7484],[53.48726,39.90927],[53.45444,39.94103],[53.40416,39.96061],[53.28882,39.95795],[52.9877,39.98759],[52.95225,39.89552],[53.03535,39.77432],[52.8983,39.91245],[52.80461,40.05427],[52.74431,40.2199],[52.73371,40.39875],[52.85014,40.68555],[52.94326,41.03799],[52.85014,41.20043]]]},"properties":{"id":"caspian"}},{"type":"Feature","geometry":{"type":"Polygon","coordinates":[[[109.87333,55.71853],[109.84742,55.76033],[109.7965,55.78212],[109.61576,55.79036],[109.7232,55.77623],[109.82123,55.74267],[109.69612,55.76475],[109.55924,55.76652],[109.37438,55.65878],[109.35083,55.62463],[109.2013,55.55811],[109.17009,55.46832],[109.19747,55.46214],[109.21837,55.38649],[109.1907,55.21959],[109.16685,55.16277],[109.11269,55.11568],[109.10268,55.04974],[109.03056,55.03119],[108.9034,54.96113],[108.95786,54.92022],[108.91341,54.86252],[108.85659,54.83014],[108.85542,54.77686],[108.82745,54.75655],[108.81744,54.70828],[108.69087,54.56463],[108.56017,54.46837],[108.50542,54.3103],[108.46745,54.29381],[108.3756,54.17636],[108.32056,54.16311],[108.28994,54.05008],[108.23166,53.99533],[108.19899,53.91791],[108.07388,53.83784],[107.99705,53.81665],[107.65265,53.64268],[107.55021,53.5164],[107.55344,53.45929],[107.52842,53.43221],[107.13309,53.27767],[107.10925,53.25412],[107.03183,53.22821],[106.955,53.15815],[106.88789,53.13196],[106.86964,53.10075],[106.82901,53.08721],[106.74453,53.01539],[106.8611,53.04276],[106.90938,52.98919],[106.79605,52.92443],[106.74453,52.85084],[106.57321,52.77519],[106.58028,52.73044],[106.40866,52.63183],[105.94386,52.47199],[105.72338,52.268],[105.6074,52.13082],[105.4561,52.04045],[105.30745,51.99895],[105.2209,51.9177],[104.93714,51.86413],[104.75022,51.87031],[104.63306,51.78465],[104.24656,51.782],[103.91393,51.73373],[103.79059,51.73167],[103.7273,51.7193],[103.70875,51.68575],[103.72288,51.6725],[103.85358,51.61686],[103.95161,51.60126],[103.99399,51.57477],[104.25745,51.50824],[104.52238,51.48057],[104.62805,51.48705],[104.78789,51.47351],[104.94155,51.53827],[105.4352,51.61451],[105.8476,51.72784],[105.91855,51.7299],[106.114,51.90681],[106.19319,51.94302],[106.1664,51.99689],[106.22998,52.06489],[106.23675,52.09727],[106.26384,52.09903],[106.29209,52.13848],[106.24676,52.26152],[106.33625,52.34365],[106.55231,52.38692],[106.6209,52.37809],[106.73982,52.32128],[106.78545,52.31657],[106.82813,52.33099],[106.88789,52.43255],[106.955,52.48848],[107.12985,52.55706],[107.31913,52.60799],[107.43423,52.67216],[107.53048,52.70101],[107.79276,52.71366],[107.9685,52.7902],[108.01972,52.8526],[108.20723,52.92414],[108.31467,53.01068],[108.34146,53.04659],[108.29465,53.08515],[108.30466,53.11753],[108.39768,53.1508],[108.65378,53.30063],[108.68351,53.30504],[108.70912,53.27619],[108.78712,53.28296],[108.97905,53.3648],[108.99818,53.39306],[108.9923,53.47872],[108.89663,53.5944],[108.85542,53.59823],[108.67733,53.56291],[108.55075,53.50462],[108.52602,53.5164],[108.64936,53.60441],[108.80832,53.78986],[108.91871,53.85933],[109.01938,53.87199],[109.07442,53.81724],[109.01879,53.76572],[109.0809,53.74158],[109.04204,53.67918],[108.98494,53.64327],[109.12564,53.61825],[109.16685,53.62649],[109.21042,53.67123],[109.18422,53.70067],[109.2113,53.74924],[109.18422,53.78662],[109.19394,53.80723],[109.26046,53.88906],[109.48124,54.03389],[109.52009,54.11837],[109.55689,54.14369],[109.55247,54.18401],[109.47682,54.28792],[109.51067,54.34739],[109.48271,54.39125],[109.52716,54.54284],[109.51273,54.60554],[109.52716,54.63292],[109.63843,54.69945],[109.63077,54.7957],[109.69023,54.84133],[109.66345,54.87606],[109.71525,54.9105],[109.7182,54.99558],[109.78031,55.05445],[109.73174,55.16778],[109.80445,55.23784],[109.77354,55.29377],[109.82123,55.35853],[109.84154,55.438],[109.90394,55.46832],[109.85331,55.48922],[109.87598,55.53721],[109.828,55.54427],[109.96105,55.67261],[109.87333,55.71853]],[[107.76539,53.31711],[107.75243,53.24499],[107.62615,53.22027],[107.39184,53.0775],[107.10778,53.04276],[106.96766,53.01068],[106.93616,53.02216],[106.9706,53.05012],[106.92939,53.04276],[106.95736,53.07014],[106.92203,53.07014],[106.99091,53.11341],[107.05303,53.11842],[107.16223,53.16169],[107.19697,53.15197],[107.25908,53.18671],[107.46837,53.24499],[107.51312,53.27796],[107.64882,53.30975],[107.72153,53.38805],[107.78275,53.41042],[107.76539,53.31711]]]},"properties":{"id":"baikal"}},{"type":"Feature","geometry":{"type":"Polygon","coordinates":[[[79.05252,46.46402],[79.07548,46.59383],[79.18322,46.61267],[79.22207,46.60414],[79.25858,46.66272],[79.22561,46.73601],[79.11875,46.81608],[79.01867,46.81196],[79.03192,46.74514],[78.98717,46.74955],[78.88797,46.80666],[78.77965,46.78517],[78.76846,46.74749],[78.84764,46.67626],[78.91917,46.65271],[78.923,46.63004],[78.7926,46.6218],[78.81968,46.64211],[78.81791,46.66213],[78.79289,46.70834],[78.74403,46.73896],[78.68957,46.7316],[78.59096,46.74838],[78.5733,46.71717],[78.49382,46.66654],[78.45614,46.60119],[78.43553,46.64211],[78.45967,46.67626],[78.41876,46.65918],[78.40257,46.60414],[78.38019,46.61503],[78.38785,46.653],[78.36724,46.68391],[78.34605,46.57735],[78.36724,46.5329],[78.32662,46.50258],[78.33103,46.47285],[78.30955,46.45725],[78.25803,46.47844],[78.23183,46.54526],[78.21712,46.56028],[78.19651,46.55115],[78.18238,46.56028],[78.14912,46.60679],[78.05845,46.59707],[77.89361,46.65771],[77.76703,46.64859],[77.70993,46.67007],[77.66901,46.65595],[77.63486,46.67007],[77.61455,46.65653],[77.64781,46.64211],[77.61926,46.63181],[77.46295,46.64211],[77.30694,46.61797],[77.26367,46.60119],[77.22776,46.55851],[77.14828,46.54732],[77.06262,46.63563],[77.01935,46.64682],[76.92044,46.63681],[76.84008,46.69097],[76.82536,46.68391],[76.83272,46.65271],[76.93545,46.56028],[76.72999,46.63151],[76.72233,46.68391],[76.68201,46.66595],[76.59723,46.67567],[76.54807,46.66095],[76.51039,46.61532],[76.40707,46.66272],[76.39029,46.64623],[76.36292,46.73896],[76.14862,46.80195],[76.10064,46.80372],[76.0765,46.78134],[76.04383,46.79871],[76.0032,46.77369],[75.94904,46.76574],[75.93962,46.81019],[75.96199,46.82108],[75.92461,46.83521],[75.82187,46.78635],[75.76977,46.79989],[75.71208,46.78635],[75.6847,46.79371],[75.48954,46.73425],[75.28584,46.72129],[75.10892,46.79371],[75.08479,46.84993],[75.06448,46.84081],[75.06977,46.81078],[74.99883,46.77222],[74.96998,46.79312],[74.99559,46.80666],[74.98323,46.83492],[74.94702,46.80401],[74.88639,46.82108],[74.849,46.77251],[74.61145,46.77251],[74.63794,46.74308],[74.57112,46.73896],[74.53433,46.59707],[74.3998,46.56322],[74.3792,46.49875],[74.24938,46.47167],[74.2014,46.42987],[74.13399,46.44135],[74.07011,46.41545],[73.94059,46.29947],[73.9609,46.25914],[73.99711,46.26503],[73.99593,46.22735],[74.05039,46.23118],[74.00182,46.19026],[73.87907,46.20469],[73.84757,46.19232],[73.83109,46.1623],[73.76927,46.23088],[73.73513,46.18349],[73.6686,46.17937],[73.63269,46.13875],[73.65977,46.1152],[73.64064,46.0731],[73.72718,46.02659],[73.75603,45.97802],[73.70098,45.97802],[73.70746,45.99804],[73.65359,45.98156],[73.67272,45.97331],[73.63887,45.94388],[73.64593,45.90855],[73.60472,45.8956],[73.61208,45.875],[73.59354,45.86764],[73.57411,45.80994],[73.5226,45.81348],[73.48786,45.84703],[73.4334,45.81348],[73.42428,45.79552],[73.44371,45.78227],[73.55939,45.75019],[73.52083,45.73223],[73.50611,45.67542],[73.43723,45.6763],[73.42516,45.60742],[73.45519,45.57269],[73.5379,45.55708],[73.63563,45.50145],[73.69745,45.39666],[73.7625,45.36104],[73.72836,45.35427],[73.82432,45.30658],[73.81313,45.28126],[73.89614,45.22063],[74.00329,45.21592],[73.98151,45.19649],[74.03597,45.14203],[73.99417,45.13762],[73.98858,45.10553],[74.03597,45.05313],[73.98828,45.02458],[74.00947,45.01104],[74.00182,44.99809],[74.09808,44.99102],[74.13605,44.96394],[74.14017,44.98484],[74.11191,45.00486],[74.13222,45.039],[74.08101,45.02164],[74.06982,45.04283],[74.17373,45.08728],[74.13988,45.20502],[74.16784,45.31865],[74.1596,45.35427],[74.11309,45.32483],[74.07276,45.34985],[74.09131,45.37487],[74.07011,45.42639],[74.09808,45.47702],[74.07159,45.52088],[74.1596,45.58093],[74.25645,45.60801],[74.27087,45.6501],[74.24968,45.68307],[74.32297,45.66011],[74.33916,45.6763],[74.32739,45.70191],[74.27617,45.73164],[74.25527,45.72075],[74.23054,45.73164],[74.24585,45.77462],[74.26822,45.77491],[74.28706,45.75342],[74.32415,45.78904],[74.23143,45.98862],[74.29,46.01835],[74.42394,46.03866],[74.52108,45.98921],[74.5511,46.01335],[74.63264,46.03278],[74.62823,46.05956],[74.6559,46.08252],[74.69122,46.09077],[74.7083,46.07369],[74.76305,46.09459],[74.81162,46.13904],[74.78512,46.19144],[74.85342,46.26768],[74.89639,46.40397],[74.91023,46.41516],[74.97204,46.3869],[75.0162,46.38896],[75.07448,46.46078],[75.13277,46.49846],[75.1466,46.48463],[75.08449,46.43753],[75.13277,46.41545],[75.13983,46.42811],[75.16338,46.41545],[75.22726,46.41869],[75.27612,46.44901],[75.24257,46.47844],[75.28348,46.49198],[75.2564,46.50935],[75.27848,46.52907],[75.35236,46.52289],[75.33264,46.48934],[75.35884,46.47079],[75.35266,46.45725],[75.38857,46.46608],[75.41418,46.49875],[75.43449,46.47844],[75.43567,46.49522],[75.476,46.50641],[75.44509,46.52495],[75.40152,46.62621],[75.47923,46.67331],[75.55253,46.67685],[75.58521,46.65595],[75.5331,46.62092],[75.51574,46.6268],[75.51014,46.66272],[75.4707,46.6268],[75.52074,46.55674],[75.58521,46.51583],[75.53752,46.47079],[75.6432,46.49875],[75.66733,46.48463],[75.71002,46.53084],[75.76271,46.5226],[75.77713,46.50641],[75.85955,46.52613],[75.87398,46.54762],[75.96081,46.53143],[75.96935,46.51936],[75.94168,46.50641],[76.06855,46.50641],[76.06178,46.54732],[76.19925,46.52731],[76.21456,46.53231],[76.20837,46.55351],[76.25783,46.54526],[76.25695,46.56646],[76.28432,46.56028],[76.26313,46.57382],[76.28108,46.57912],[76.39736,46.54085],[76.75207,46.53261],[76.91249,46.45784],[76.9278,46.45725],[76.92898,46.47844],[77.07322,46.4496],[77.17978,46.48374],[77.25366,46.45107],[77.41173,46.50611],[77.48503,46.46049],[77.59512,46.41957],[77.7373,46.40927],[77.6955,46.38219],[77.71375,46.37542],[77.76144,46.4025],[77.83915,46.41545],[77.75761,46.41545],[77.81148,46.4387],[77.87124,46.42575],[78.04285,46.32479],[78.16442,46.31242],[78.18238,46.32743],[78.10732,46.34127],[78.26186,46.33097],[78.3069,46.36217],[78.36695,46.3398],[78.40463,46.29505],[78.44083,46.2874],[78.47115,46.29447],[78.47704,46.32008],[78.4217,46.34804],[78.41787,46.36747],[78.45614,46.4025],[78.5468,46.40603],[78.63894,46.37365],[78.73108,46.39632],[78.88414,46.36511],[78.99218,46.40721],[79.05252,46.46402]]]},"properties":{"id":"balkhash"}},{"type":"Feature","geometry":{"type":"MultiPolygon","coordinates":[[[[58.31208,45.06201],[58.22101,44.84671],[58.23795,44.76573],[58.32114,44.60302],[58.30273,44.56032],[58.26224,44.55738],[58.23678,44.52446],[58.235,44.46093],[58.26003,44.43148],[58.3443,44.42349],[58.41685,44.444],[58.48311,44.50437],[58.52434,44.56916],[58.57882,44.75616],[58.56262,44.77235],[58.59501,44.77235],[58.62446,44.818],[58.62299,44.85481],[58.56704,44.91518],[58.58802,44.98991],[58.54679,45.00757],[58.64397,45.07236],[58.68226,45.12979],[58.62925,45.26378],[58.67195,45.45961],[58.73526,45.50673],[58.76618,45.56269],[58.86944,45.5961],[58.91417,45.79478],[58.98666,45.8196],[59.04521,45.87503],[59.10485,45.89675],[59.17258,45.87484],[59.24399,45.89233],[59.30142,45.95822],[59.30289,46.00239],[59.24031,45.99393],[59.1792,45.92583],[59.14902,45.94681],[59.07908,45.9435],[59.05994,45.89454],[58.84938,45.9181],[58.81367,45.88165],[58.83833,45.83417],[58.74594,45.85147],[58.7117,45.8349],[58.65271,45.72199],[58.63836,45.5902],[58.60436,45.57914],[58.57403,45.53213],[58.54937,45.40771],[58.41701,45.29068],[58.37249,45.13052],[58.31208,45.06201]]],[[[60.78288,46.08595],[60.86248,46.09],[60.86828,46.11246],[60.94632,46.14043],[60.97669,46.16988],[61.09504,46.19197],[61.12007,46.217],[61.16571,46.21553],[61.21706,46.23688],[61.30026,46.38486],[61.27699,46.42934],[61.27964,46.47983],[61.31056,46.47542],[61.45045,46.58438],[61.52849,46.67714],[61.42689,46.658],[61.40922,46.67272],[61.36652,46.64916],[61.31498,46.64769],[61.29658,46.61088],[61.20676,46.57996],[61.23621,46.56965],[61.23032,46.54757],[61.26713,46.49971],[61.22664,46.46805],[61.13387,46.44965],[60.89239,46.47321],[60.77607,46.58143],[60.81932,46.71248],[60.81077,46.74715],[60.58005,46.78389],[60.52483,46.77727],[60.52557,46.75076],[60.63527,46.71542],[60.76558,46.64254],[60.6706,46.58916],[60.58005,46.56303],[60.47293,46.60609],[60.45931,46.62754],[60.41087,46.48252],[60.36765,46.61695],[60.33294,46.66923],[60.28667,46.70015],[60.23734,46.69573],[60.11586,46.61916],[60.01105,46.58426],[59.97736,46.48131],[59.9884,46.43787],[60.13344,46.35652],[60.16988,46.35468],[60.19675,46.37492],[60.28731,46.38228],[60.34842,46.4029],[60.47136,46.33075],[60.57959,46.2932],[60.61566,46.3278],[60.63481,46.31823],[60.63701,46.32928],[60.66499,46.32707],[60.70581,46.37519],[60.72242,46.37419],[60.82481,46.20105],[60.80754,46.15876],[60.75234,46.11772],[60.78288,46.08595]]]]},"properties":{"id":"aral"}},{"type":"Feature","geometry":{"type":"MultiPolygon","coordinates":[[[[35.55904,31.76554],[35.50694,31.75582],[35.47662,31.73051],[35.40804,31.61482],[35.41481,31.56625],[35.39273,31.51415],[35.41481,31.32664],[35.44218,31.32222],[35.49134,31.36697],[35.51047,31.36756],[35.50135,31.3181],[35.51283,31.30486],[35.54756,31.33194],[35.572,31.46823],[35.55463,31.53829],[35.58819,31.73051],[35.58642,31.75288],[35.55904,31.76554]]],[[[35.51106,31.19947],[35.42128,31.25158],[35.40068,31.23038],[35.36977,31.23539],[35.36359,31.17563],[35.40068,31.10086],[35.47633,31.08644],[35.51783,31.11028],[35.5037,31.13913],[35.53108,31.16974],[35.51106,31.19947]]]]},"properties":{"id":"deadsea"}},{"type":"Feature","geometry":{"type":"Polygon","coordinates":[[[30.07798,61.24287],[30.03,61.24581],[29.90961,61.30674],[29.8369,61.25935],[29.89872,61.24375],[29.91137,61.23197],[29.87723,61.23197],[29.90254,61.22167],[29.98703,61.21107],[30.01116,61.15338],[29.91255,61.20695],[29.79569,61.21843],[29.89577,61.16545],[30.23459,61.04358],[30.46684,60.88933],[30.43269,60.86843],[30.52512,60.83488],[30.53601,60.74245],[30.49421,60.72802],[30.53395,60.63],[30.70616,60.58025],[30.77592,60.50578],[30.76915,60.45073],[30.79653,60.44043],[30.82361,60.46486],[30.85746,60.43513],[30.98992,60.20641],[31.1059,60.15225],[31.08765,60.06865],[31.16124,60.01949],[31.09737,59.96415],[31.04262,59.9509],[31.07117,59.93265],[31.18685,59.91646],[31.32344,59.94354],[31.38584,59.90586],[31.42735,59.90056],[31.53715,59.92706],[31.57718,59.97975],[31.5289,60.05275],[31.54598,60.09102],[31.60662,60.12929],[31.60573,60.14665],[31.57041,60.13517],[31.58895,60.16696],[31.72436,60.23526],[31.73643,60.25851],[31.77823,60.24644],[32.05022,60.23997],[32.12529,60.21112],[32.16414,60.21583],[32.23862,60.15283],[32.29219,60.134],[32.49795,60.16549],[32.56978,60.19081],[32.62659,60.26352],[32.57802,60.35241],[32.64543,60.36124],[32.68693,60.40275],[32.5948,60.49989],[32.60157,60.54463],[32.67722,60.54404],[32.76229,60.51343],[32.78319,60.4575],[32.94833,60.62882],[32.93273,60.68416],[32.8141,60.72155],[32.80586,60.86137],[32.64425,60.96028],[32.62953,60.9956],[32.58037,60.99825],[32.58155,61.06036],[32.50855,61.1366],[31.91246,61.31234],[31.85683,61.35914],[31.73084,61.39181],[31.59896,61.48601],[31.65224,61.39888],[31.62516,61.40594],[31.52213,61.52693],[31.37848,61.6226],[31.32344,61.64232],[31.33757,61.6226],[31.31726,61.59522],[31.29812,61.59934],[31.24896,61.66351],[31.23454,61.63614],[31.16595,61.6382],[31.15889,61.61229],[31.07823,61.62289],[31.04968,61.7112],[30.99051,61.72945],[30.86482,61.73857],[30.90632,61.75977],[30.83391,61.78008],[30.70351,61.69972],[30.59577,61.60199],[30.5575,61.60199],[30.55927,61.58492],[30.64581,61.54694],[30.56133,61.54047],[30.52012,61.52192],[30.45242,61.5337],[30.48803,61.4916],[30.45889,61.48572],[30.22723,61.52693],[30.23723,61.4813],[30.35086,61.45128],[30.3385,61.44244],[30.26491,61.45805],[30.20692,61.4239],[30.21957,61.40035],[30.1448,61.35502],[30.24842,61.34825],[30.19308,61.33441],[30.26137,61.32087],[30.23753,61.30115],[30.09241,61.30763],[30.0824,61.27436],[30.11066,61.25935],[30.07798,61.24287]],[[30.79682,61.70413],[30.81007,61.68323],[30.77592,61.68323],[30.83627,61.62024],[30.71499,61.66116],[30.80271,61.73239],[30.79682,61.70413]],[[30.85746,61.71179],[30.9075,61.7006],[30.91251,61.64997],[30.85746,61.68029],[30.85746,61.71179]],[[30.63168,61.57579],[30.61755,61.58904],[30.68643,61.56107],[30.63168,61.57579]],[[30.56516,61.51898],[30.61755,61.51957],[30.58223,61.49985],[30.56516,61.51898]],[[30.96019,61.41242],[31.02525,61.41124],[30.9808,61.39593],[30.98816,61.36562],[30.95519,61.35708],[30.88572,61.38916],[30.96019,61.41242]],[[31.53744,61.39446],[31.57836,61.39535],[31.64606,61.36179],[31.62516,61.34854],[31.65931,61.3141],[31.64488,61.30174],[31.54598,61.34825],[31.53744,61.39446]],[[31.67903,61.3821],[31.80119,61.35149],[31.83799,61.3141],[31.88567,61.30086],[31.81974,61.30292],[31.70081,61.35502],[31.67903,61.3821]],[[30.26078,61.37533],[30.23459,61.38298],[30.26255,61.398],[30.35086,61.38916],[30.26078,61.37533]],[[29.95906,61.23904],[29.91137,61.26553],[29.98025,61.23904],[29.95906,61.23904]],[[30.62197,60.89669],[30.59106,60.85695],[30.56221,60.86843],[30.62197,60.89669]]]},"properties":{"id":"ladoga"}},{"type":"Feature","geometry":{"type":"Polygon","coordinates":[[[-84.49298,46.47352],[-84.54652,46.52643],[-84.58921,46.54203],[-84.58847,46.56293],[-84.56301,46.60119],[-84.4251,46.71099],[-84.47691,46.75897],[-84.52136,46.69745],[-84.54608,46.69745],[-84.56595,46.74072],[-84.54284,46.78605],[-84.54932,46.82727],[-84.46292,46.85435],[-84.38933,46.83992],[-84.36019,46.8932],[-84.45969,46.94324],[-84.57287,46.94648],[-84.60952,46.9091],[-84.67104,46.96208],[-84.73021,46.96444],[-84.77686,46.98769],[-84.76995,47.05304],[-84.70872,47.10868],[-84.72314,47.15313],[-84.58332,47.30502],[-84.62747,47.36536],[-84.68208,47.37243],[-84.72682,47.44484],[-84.79629,47.48223],[-84.90491,47.51225],[-84.94244,47.54022],[-84.9501,47.56906],[-85.0284,47.62234],[-85.01442,47.62058],[-84.97159,47.68828],[-84.9944,47.71095],[-84.98424,47.72743],[-84.94259,47.74156],[-84.89122,47.80102],[-84.93906,47.83458],[-84.92478,47.86166],[-84.84354,47.917],[-84.85855,47.96086],[-84.90153,47.95115],[-84.92905,47.97175],[-85.2789,47.95821],[-85.42417,47.9273],[-85.53309,47.92613],[-85.74311,47.95232],[-85.85924,47.985],[-86.07678,48.16338],[-86.18628,48.35089],[-86.17921,48.39681],[-86.22764,48.43155],[-86.26679,48.58727],[-86.33008,48.62966],[-86.30962,48.65762],[-86.36143,48.6744],[-86.39984,48.72739],[-86.38527,48.74299],[-86.43369,48.753],[-86.42854,48.77331],[-86.53613,48.76006],[-86.55821,48.74004],[-86.63165,48.74623],[-86.61796,48.78802],[-86.71746,48.81452],[-86.85404,48.75859],[-86.98827,48.81393],[-87.01536,48.78037],[-87.04244,48.79332],[-87.24187,48.76742],[-87.29309,48.77419],[-87.31752,48.80775],[-87.36536,48.80775],[-87.43689,48.84395],[-87.54403,48.83689],[-87.57568,48.88281],[-87.63941,48.86456],[-87.70049,48.91077],[-87.78983,48.91077],[-87.79307,48.93373],[-87.94201,48.94728],[-88.03621,48.99261],[-88.03621,49.02764],[-88.0811,48.99261],[-88.11201,49.00644],[-88.17692,48.97347],[-88.23903,48.97406],[-88.25536,49.00026],[-88.27111,48.98966],[-88.24109,48.92579],[-88.26287,48.89046],[-88.21386,48.84866],[-88.10862,48.79744],[-88.10936,48.71149],[-88.22563,48.59757],[-88.25536,48.59551],[-88.22814,48.6432],[-88.27317,48.60905],[-88.33028,48.65733],[-88.32572,48.61111],[-88.30379,48.59551],[-88.35928,48.57932],[-88.39033,48.55136],[-88.42094,48.55577],[-88.42742,48.57491],[-88.49203,48.51603],[-88.48203,48.47894],[-88.52132,48.46393],[-88.51602,48.4448],[-88.55768,48.43155],[-88.56445,48.49248],[-88.59123,48.49248],[-88.54399,48.55459],[-88.33896,48.69442],[-88.31748,48.753],[-88.36413,48.84337],[-88.44184,48.85632],[-88.4888,48.84925],[-88.49571,48.81923],[-88.53913,48.79185],[-88.54193,48.74299],[-88.50925,48.71885],[-88.55768,48.69854],[-88.54693,48.64467],[-88.62052,48.62495],[-88.63966,48.51986],[-88.69765,48.50691],[-88.68734,48.49248],[-88.74754,48.37385],[-88.94123,48.32175],[-88.90709,48.3765],[-88.86293,48.38857],[-88.83821,48.4863],[-88.75829,48.56696],[-88.77992,48.58845],[-89.18865,48.46746],[-89.23722,48.40094],[-89.20601,48.32617],[-89.22927,48.32175],[-89.26754,48.26435],[-89.27357,48.20195],[-89.30433,48.20518],[-89.30507,48.16662],[-89.34525,48.1363],[-89.33171,48.12247],[-89.45519,48.08891],[-89.41928,48.07978],[-89.45961,48.05123],[-89.49949,48.05182],[-89.51995,48.02945],[-89.57809,48.01267],[-89.59016,47.99059],[-89.64844,47.99471],[-89.74323,47.93084],[-90.08528,47.81132],[-90.53286,47.71154],[-90.79146,47.61616],[-90.94924,47.51225],[-91.01238,47.49312],[-91.51103,47.12192],[-91.58183,47.09661],[-91.65498,47.03332],[-91.74564,46.9927],[-91.79833,46.95002],[-92.04795,46.83433],[-92.11418,46.77251],[-92.05899,46.72394],[-91.96347,46.69068],[-91.79303,46.70599],[-91.56976,46.76427],[-91.41463,46.7943],[-91.40109,46.78635],[-91.22476,46.88437],[-91.19621,46.88938],[-91.19003,46.86171],[-91.14779,46.88231],[-91.12821,46.85935],[-91.09936,46.88938],[-91.05374,46.89791],[-91.04476,46.91646],[-90.97573,46.94825],[-90.91465,46.94501],[-90.85696,46.97033],[-90.82914,46.94383],[-90.78866,46.93912],[-90.76158,46.89762],[-90.78469,46.88938],[-90.77718,46.87554],[-90.81869,46.81637],[-90.86593,46.78076],[-90.86314,46.70098],[-90.95601,46.60738],[-90.90082,46.60208],[-90.78116,46.63711],[-90.73627,46.67007],[-90.771,46.67626],[-90.73008,46.68391],[-90.75687,46.70422],[-90.5698,46.60708],[-90.43528,46.57647],[-90.36183,46.60855],[-90.05967,46.68038],[-89.79415,46.83021],[-89.39764,46.86377],[-89.30801,46.8935],[-89.1308,47.00594],[-89.06133,46.99917],[-88.96861,47.0189],[-88.88663,47.11515],[-88.65864,47.2379],[-88.63583,47.23702],[-88.62597,47.21435],[-88.63495,47.15107],[-88.61287,47.13576],[-88.53545,47.12516],[-88.51264,47.11162],[-88.52353,47.04686],[-88.4963,47.04686],[-88.44685,47.00123],[-88.48276,46.84817],[-88.45597,46.80283],[-88.4888,46.77987],[-88.47467,46.7734],[-88.44096,46.80048],[-88.38636,46.85435],[-88.40049,46.86612],[-88.33941,46.88084],[-88.17353,46.9718],[-88.1441,46.97033],[-88.15425,46.95296],[-88.23947,46.91293],[-88.29702,46.83462],[-88.24639,46.8567],[-88.19855,46.91175],[-88.11907,46.92764],[-87.90286,46.92117],[-87.79645,46.90115],[-87.74891,46.88231],[-87.72095,46.84817],[-87.67694,46.8514],[-87.66075,46.81991],[-87.62969,46.82874],[-87.5982,46.76574],[-87.46779,46.64947],[-87.46941,46.63505],[-87.3967,46.60443],[-87.38773,46.54703],[-87.34813,46.51671],[-87.22612,46.50229],[-87.18314,46.5173],[-87.11147,46.5123],[-87.08085,46.53967],[-87.00844,46.55351],[-86.97032,46.54026],[-86.93014,46.48816],[-86.89717,46.48315],[-86.88201,46.4599],[-86.8305,46.46255],[-86.75985,46.50111],[-86.70201,46.46078],[-86.65211,46.45725],[-86.65903,46.43753],[-86.62547,46.444],[-86.4883,46.55351],[-86.28283,46.6218],[-86.14566,46.69068],[-86.09091,46.67537],[-85.89869,46.71099],[-85.5219,46.68391],[-85.20031,46.77546],[-85.039,46.77251],[-84.95275,46.78635],[-85.01339,46.72424],[-85.03119,46.60679],[-85.01795,46.57323],[-85.05577,46.5329],[-85.02707,46.49669],[-84.94598,46.50641],[-84.81955,46.45725],[-84.74949,46.46667],[-84.65647,46.50199],[-84.61835,46.48433],[-84.59406,46.45784],[-84.60334,46.43753],[-84.56978,46.4234],[-84.49014,46.44647],[-84.49298,46.47352]],[[-86.60413,46.47285],[-86.63916,46.47079],[-86.65211,46.48463],[-86.67625,46.47491],[-86.70053,46.5329],[-86.68773,46.56705],[-86.62827,46.55321],[-86.61796,46.5329],[-86.63916,46.49875],[-86.60192,46.49669],[-86.60413,46.47285]],[[-86.95619,48.64114],[-86.99475,48.62348],[-86.98798,48.63643],[-87.04582,48.64231],[-87.04626,48.65379],[-86.98165,48.67793],[-86.95383,48.67057],[-86.95619,48.64114]],[[-85.61065,47.73891],[-85.7334,47.71801],[-85.7752,47.73214],[-85.83216,47.71654],[-85.90663,47.71978],[-85.93784,47.72684],[-85.95506,47.75422],[-85.85865,47.80338],[-85.73399,47.80779],[-85.61006,47.77306],[-85.59137,47.75157],[-85.61065,47.73891]],[[-87.71477,47.41688],[-87.79365,47.39627],[-87.87873,47.41011],[-88.01752,47.39539],[-88.03018,47.38332],[-87.94893,47.35506],[-88.06064,47.30325],[-88.17589,47.22142],[-88.21504,47.21818],[-88.24212,47.18786],[-88.23491,47.1493],[-88.27185,47.14753],[-88.29819,47.11368],[-88.33617,47.10044],[-88.42418,46.9924],[-88.4835,47.06599],[-88.42345,47.11074],[-88.39946,47.19699],[-88.46216,47.14253],[-88.4361,47.15489],[-88.42345,47.14371],[-88.43758,47.11515],[-88.48232,47.10838],[-88.51602,47.13576],[-88.60625,47.13988],[-88.61905,47.15254],[-88.60551,47.23879],[-88.52662,47.28294],[-88.43125,47.37243],[-88.28333,47.43719],[-88.24948,47.42953],[-88.20944,47.45338],[-88.05255,47.48429],[-87.81971,47.48399],[-87.7626,47.46456],[-87.71477,47.41688]],[[-88.63598,48.03475],[-88.94815,47.9382],[-89.00276,47.90346],[-88.914,47.89669],[-89.13757,47.83517],[-89.18261,47.83811],[-89.2144,47.85725],[-89.20189,47.88963],[-89.15362,47.917],[-89.20513,47.90552],[-89.21558,47.917],[-89.12359,47.96439],[-88.94815,48.03386],[-88.78743,48.07714],[-88.63274,48.14984],[-88.57136,48.14984],[-88.4757,48.19076],[-88.50925,48.16338],[-88.45465,48.18458],[-88.57549,48.11599],[-88.59859,48.09509],[-88.59123,48.06418],[-88.63598,48.03475]],[[-90.40952,47.07365],[-90.41026,47.03361],[-90.47561,47.00212],[-90.46001,47.06364],[-90.43896,47.0816],[-90.40952,47.07365]],[[-88.08508,48.94198],[-88.05741,48.95934],[-88.03268,48.95257],[-88.02267,48.89665],[-88.08964,48.92961],[-88.08508,48.94198]],[[-88.08699,48.82659],[-87.96586,48.8675],[-87.7626,48.85632],[-87.77276,48.79597],[-87.81043,48.79421],[-87.81823,48.75918],[-87.91037,48.76742],[-87.9822,48.75594],[-88.0471,48.70472],[-88.08522,48.7527],[-88.08699,48.82659]],[[-87.67017,48.7477],[-87.75053,48.75712],[-87.72301,48.78567],[-87.75583,48.82835],[-87.72772,48.84543],[-87.68754,48.84189],[-87.60556,48.76006],[-87.67017,48.7477]],[[-89.15038,48.24875],[-89.09945,48.27406],[-89.02321,48.25287],[-89.12565,48.21195],[-89.17025,48.23256],[-89.15038,48.24875]],[[-87.46456,48.76448],[-87.48707,48.76124],[-87.52299,48.80098],[-87.44734,48.78802],[-87.46456,48.76448]],[[-90.58526,46.84875],[-90.67607,46.82049],[-90.68196,46.79018],[-90.79632,46.7628],[-90.77718,46.80048],[-90.67739,46.85317],[-90.59983,46.87554],[-90.58526,46.84875]],[[-84.54181,46.90086],[-84.51238,46.92264],[-84.4251,46.90292],[-84.54932,46.88231],[-84.54181,46.90086]],[[-90.771,46.94383],[-90.75054,46.9718],[-90.7005,46.93088],[-90.73008,46.91646],[-90.771,46.94383]],[[-90.53095,46.95002],[-90.55199,46.9091],[-90.66385,46.92705],[-90.6353,46.94943],[-90.54655,46.96709],[-90.53095,46.95002]],[[-90.93658,46.98563],[-90.96778,46.96768],[-90.98397,46.97798],[-90.94306,47.01271],[-90.93658,46.98563]]]},"properties":{"id":"superior"}},{"type":"Feature","geometry":{"type":"Polygon","coordinates":[[[-84.77451,45.79993],[-84.78084,45.86234],[-84.8244,45.8803],[-84.87135,45.92828],[-84.92508,45.943],[-85.02104,46.02512],[-85.17058,46.06928],[-85.2817,46.08046],[-85.33954,46.10931],[-85.37045,46.09548],[-85.40518,46.1152],[-85.44551,46.10166],[-85.52528,46.10696],[-85.64465,45.99157],[-85.89751,45.97567],[-85.92327,45.953],[-85.91914,45.92975],[-86.07987,45.97361],[-86.25192,45.95448],[-86.3314,45.88324],[-86.35789,45.81348],[-86.52436,45.76196],[-86.53716,45.72693],[-86.56895,45.71869],[-86.60369,45.66894],[-86.62253,45.66659],[-86.62179,45.60801],[-86.71231,45.67365],[-86.62856,45.78463],[-86.56321,45.7808],[-86.53613,45.86823],[-86.54761,45.88236],[-86.56998,45.89236],[-86.61046,45.88265],[-86.67743,45.84232],[-86.73836,45.86823],[-86.77913,45.86528],[-86.78811,45.82231],[-86.85699,45.73135],[-86.95251,45.70692],[-86.96487,45.68984],[-86.98371,45.70485],[-86.98165,45.78551],[-87.00211,45.82289],[-86.96546,45.89884],[-86.97076,45.92327],[-86.98798,45.92327],[-87.05627,45.81819],[-87.09439,45.70015],[-87.17358,45.66894],[-87.2822,45.53913],[-87.3449,45.42256],[-87.56037,45.1909],[-87.60364,45.17353],[-87.5982,45.10788],[-87.63264,45.06108],[-87.63661,45.00721],[-87.68754,44.97748],[-87.82294,44.94922],[-87.85194,44.92243],[-87.84075,44.89359],[-87.85841,44.86651],[-87.98838,44.72021],[-87.98911,44.67517],[-88.04342,44.58068],[-87.99529,44.54535],[-87.94437,44.54241],[-87.88285,44.61041],[-87.75583,44.66516],[-87.69622,44.77231],[-87.61763,44.84443],[-87.56464,44.85473],[-87.57023,44.83736],[-87.51607,44.87504],[-87.49326,44.86415],[-87.45013,44.88623],[-87.37139,44.81882],[-87.32797,44.80351],[-87.36536,44.69254],[-87.46603,44.57008],[-87.54801,44.32429],[-87.50062,44.19889],[-87.53108,44.1618],[-87.63764,44.10028],[-87.72095,43.93543],[-87.73213,43.82328],[-87.69696,43.76676],[-87.70049,43.70936],[-87.79851,43.56188],[-87.80793,43.46622],[-87.87181,43.37349],[-87.90728,43.26723],[-87.88505,43.17803],[-87.89977,43.12387],[-87.87181,43.0962],[-87.90051,43.02261],[-87.84929,42.98169],[-87.83442,42.86689],[-87.77128,42.78977],[-87.78041,42.70411],[-87.81176,42.64406],[-87.80352,42.48275],[-87.82618,42.35499],[-87.81279,42.24019],[-87.75156,42.12509],[-87.67561,42.07064],[-87.64839,41.94465],[-87.57759,41.78863],[-87.4937,41.69797],[-87.45882,41.67854],[-87.42673,41.68796],[-87.43012,41.66677],[-87.40774,41.64616],[-87.29191,41.62791],[-87.20169,41.63498],[-87.02963,41.68119],[-86.72099,41.82455],[-86.60295,41.94023],[-86.49257,42.12951],[-86.37894,42.2552],[-86.27312,42.47185],[-86.21925,42.70941],[-86.22234,42.96432],[-86.32713,43.22278],[-86.2768,43.24338],[-86.25546,43.27046],[-86.33744,43.24338],[-86.35627,43.2581],[-86.5429,43.62753],[-86.53966,43.66668],[-86.44193,43.78501],[-86.43678,43.8221],[-86.45268,43.9581],[-86.52185,44.04523],[-86.51832,44.0832],[-86.38115,44.1983],[-86.26752,44.37462],[-86.2637,44.49561],[-86.23411,44.58539],[-86.26958,44.68842],[-86.25472,44.71344],[-86.16612,44.7517],[-86.09238,44.75347],[-86.07648,44.91655],[-86.00112,44.91537],[-85.93681,44.98366],[-85.83142,44.95423],[-85.76151,45.06255],[-85.69322,45.11465],[-85.642,45.18589],[-85.56282,45.2165],[-85.54044,45.21327],[-85.54295,45.19973],[-85.57121,45.15763],[-85.60344,45.14409],[-85.57915,45.06137],[-85.64539,44.98366],[-85.6105,44.98808],[-85.6027,44.96394],[-85.65951,44.85444],[-85.61006,44.78703],[-85.57282,44.87975],[-85.54236,44.90124],[-85.56973,44.9086],[-85.53912,44.9348],[-85.52735,44.98867],[-85.4957,45.00103],[-85.48039,44.98072],[-85.50115,44.90065],[-85.56988,44.77643],[-85.54339,44.76731],[-85.46862,44.85856],[-85.39267,45.00986],[-85.37796,45.10111],[-85.39164,45.26478],[-85.33439,45.31571],[-85.1744,45.37693],[-84.93567,45.39577],[-84.91109,45.42256],[-85.02119,45.43904],[-85.08904,45.49468],[-85.10361,45.60065],[-84.94244,45.73164],[-84.9944,45.77874],[-84.82293,45.7652],[-84.77451,45.79993]],[[-86.99475,45.22386],[-87.05701,45.24094],[-87.04317,45.1488],[-87.09778,45.15557],[-87.0495,45.11465],[-87.07732,45.10111],[-87.08748,45.06579],[-87.12265,45.06932],[-87.18417,44.98631],[-87.19713,44.95482],[-87.17358,44.93656],[-87.21449,44.91537],[-87.28043,44.8303],[-87.33739,44.82029],[-87.37389,44.84502],[-87.40627,44.92243],[-87.36874,45.00044],[-87.31001,45.05313],[-87.28956,45.05313],[-87.24849,45.16617],[-87.18741,45.16823],[-87.13899,45.19708],[-87.11147,45.26478],[-87.08792,45.26978],[-87.07114,45.30658],[-87.04582,45.29245],[-86.98298,45.29216],[-86.99475,45.22386]],[[-85.48775,45.63538],[-85.50424,45.61449],[-85.57297,45.59152],[-85.62507,45.61507],[-85.55546,45.77874],[-85.48775,45.7652],[-85.506,45.74518],[-85.48775,45.63538]],[[-85.44757,45.802],[-85.46347,45.79258],[-85.506,45.80494],[-85.51439,45.84085],[-85.44757,45.802]],[[-85.83348,45.39872],[-85.8794,45.46259],[-85.8354,45.43257],[-85.83348,45.39872]],[[-86.09105,45.03194],[-86.12373,45.00162],[-86.14566,45.01104],[-86.12932,45.0549],[-86.07678,45.04636],[-86.09105,45.03194]],[[-86.85404,45.38724],[-86.86449,45.34043],[-86.97429,45.3475],[-86.94383,45.4308],[-86.92042,45.40961],[-86.86449,45.41579],[-86.85404,45.38724]],[[-85.97434,45.08728],[-86.00407,45.07403],[-86.02953,45.08993],[-86.06309,45.14203],[-86.03777,45.16852],[-85.9817,45.14645],[-85.97434,45.08728]]]},"properties":{"id":"michigan"}},{"type":"Feature","geometry":{"type":"Polygon","coordinates":[[[-84.77451,45.79993],[-84.73874,45.79993],[-84.57596,45.73046],[-84.49898,45.68131],[-84.31824,45.67395],[-84.2239,45.64245],[-84.16267,45.59447],[-84.13132,45.52676],[-84.09615,45.50439],[-83.94308,45.50115],[-83.84402,45.44169],[-83.71936,45.42256],[-83.67462,45.38694],[-83.46533,45.33896],[-83.38364,45.2792],[-83.40896,45.23799],[-83.35788,45.17147],[-83.32212,45.16175],[-83.30166,45.10111],[-83.32212,45.09346],[-83.31402,45.07021],[-83.26692,45.039],[-83.3358,45.04636],[-83.38025,45.07992],[-83.41484,45.07609],[-83.45929,45.00721],[-83.42853,44.94598],[-83.3358,44.88799],[-83.30357,44.81264],[-83.28738,44.70313],[-83.31476,44.62395],[-83.33286,44.35402],[-83.35332,44.32959],[-83.39718,44.32282],[-83.46621,44.25806],[-83.45252,44.28543],[-83.49358,44.28543],[-83.53244,44.266],[-83.59249,44.0626],[-83.67844,44.04523],[-83.69581,44.00431],[-83.82195,44.00431],[-83.86331,43.98989],[-83.92542,43.88068],[-83.90981,43.85978],[-83.93174,43.83976],[-83.94955,43.75616],[-83.92542,43.70171],[-83.8817,43.6708],[-83.67889,43.6081],[-83.60456,43.65137],[-83.53789,43.72673],[-83.52596,43.73232],[-83.49035,43.70318],[-83.47416,43.72113],[-83.38923,43.85448],[-83.3358,43.90129],[-83.40483,43.9216],[-83.31593,43.93131],[-83.25014,43.98665],[-83.16831,43.99048],[-83.08648,44.01403],[-83.03349,44.052],[-82.96844,44.07025],[-82.92355,44.06996],[-82.81169,44.0261],[-82.74251,43.98135],[-82.68938,43.9213],[-82.63698,43.8118],[-82.57958,43.52833],[-82.5472,43.45091],[-82.52645,43.27665],[-82.47597,43.10209],[-82.41724,43.01731],[-82.11567,43.10621],[-82.00557,43.21247],[-81.88003,43.25663],[-81.75271,43.35024],[-81.7115,43.42824],[-81.69943,43.51537],[-81.72225,43.68434],[-81.7115,43.9422],[-81.73873,44.09998],[-81.66058,44.15827],[-81.61583,44.22332],[-81.58802,44.34018],[-81.5396,44.36609],[-81.49588,44.41848],[-81.40978,44.44233],[-81.37917,44.51504],[-81.27025,44.62395],[-81.27025,44.6631],[-81.29998,44.70313],[-81.27423,44.7205],[-81.27952,44.81293],[-81.32162,44.83354],[-81.33001,44.87122],[-81.36165,44.88888],[-81.34841,44.97748],[-81.37578,44.97748],[-81.36268,44.99102],[-81.38079,45.00397],[-81.4036,44.99102],[-81.41611,45.00191],[-81.427,44.9819],[-81.5234,45.11465],[-81.59552,45.15557],[-81.57492,45.19649],[-81.60156,45.18236],[-81.65602,45.21091],[-81.71033,45.20973],[-81.71901,45.22445],[-81.69104,45.24447],[-81.69296,45.26507],[-81.64012,45.27862],[-81.60745,45.25212],[-81.30219,45.25242],[-81.27952,45.2374],[-81.32795,45.17235],[-81.26642,45.10788],[-81.25715,45.00191],[-81.2102,45.0181],[-81.19077,45.01104],[-81.20093,44.97748],[-81.11689,44.96482],[-81.14912,44.91537],[-81.08701,44.92508],[-81.08775,44.9086],[-81.03299,44.92921],[-81.03167,44.9663],[-80.95307,44.97071],[-81.00577,44.92243],[-81.0065,44.86091],[-81.12616,44.78879],[-81.13146,44.76348],[-81.1191,44.75465],[-81.03299,44.80616],[-80.98545,44.81529],[-80.89744,44.79085],[-80.88905,44.7517],[-80.94277,44.62866],[-80.93747,44.59334],[-80.8262,44.69048],[-80.76306,44.71932],[-80.68049,44.72992],[-80.63913,44.71844],[-80.57747,44.61188],[-80.51226,44.60688],[-80.45089,44.56596],[-80.24542,44.52504],[-80.10869,44.4753],[-80.01302,44.53123],[-79.99227,44.69283],[-80.10781,44.75995],[-80.10825,44.82235],[-80.06115,44.81911],[-80.01582,44.8615],[-79.93413,44.86739],[-79.91573,44.85032],[-79.94179,44.8147],[-79.87452,44.80763],[-79.88174,44.77143],[-79.66258,44.75789],[-79.72396,44.80233],[-79.68201,44.84649],[-79.69055,44.88799],[-79.73838,44.86768],[-79.71498,44.84884],[-79.71836,44.82824],[-79.73867,44.81352],[-79.78254,44.82117],[-79.77253,44.84708],[-79.82095,44.87504],[-79.79299,44.88799],[-79.83214,44.91537],[-79.82698,44.94333],[-79.87305,44.96306],[-79.90911,44.94952],[-79.92751,44.961],[-79.93325,45.01487],[-79.98476,45.02458],[-80.00184,45.06255],[-80.08087,45.10111],[-80.06733,45.10788],[-80.10074,45.13438],[-80.03069,45.12761],[-80.0039,45.13703],[-79.99845,45.16175],[-80.0663,45.21798],[-80.10074,45.18972],[-80.12782,45.23446],[-80.03319,45.3263],[-80.06733,45.36722],[-80.06512,45.39047],[-80.11428,45.41108],[-80.17139,45.40166],[-80.19023,45.38164],[-80.16285,45.35073],[-80.18199,45.34161],[-80.25528,45.36722],[-80.30017,45.36634],[-80.30945,45.43345],[-80.34109,45.4361],[-80.33417,45.38164],[-80.35493,45.39077],[-80.36891,45.40902],[-80.35478,45.42227],[-80.39481,45.48114],[-80.3826,45.55914],[-80.40629,45.61713],[-80.4372,45.62803],[-80.42366,45.5877],[-80.50608,45.57327],[-80.52448,45.63892],[-80.5732,45.65128],[-80.57437,45.6763],[-80.60852,45.68307],[-80.58747,45.69691],[-80.64267,45.73723],[-80.63604,45.77727],[-80.67255,45.81907],[-80.71655,45.82878],[-80.71405,45.84379],[-80.67976,45.85174],[-80.72465,45.86087],[-80.75261,45.92681],[-80.79794,45.9168],[-80.80648,45.95683],[-80.85152,45.93328],[-80.90333,45.95683],[-80.9307,45.94388],[-81.06008,45.95624],[-81.16163,45.93652],[-81.17635,45.94476],[-81.15619,46.01011],[-81.17944,46.01806],[-81.24597,45.99157],[-81.18047,46.01217],[-81.1634,45.99804],[-81.26127,45.96625],[-81.43024,45.99804],[-81.50677,45.98391],[-81.48926,46.01982],[-81.67736,45.95065],[-81.56756,46.01158],[-81.64262,46.01835],[-81.50604,46.04632],[-81.70532,46.01835],[-81.54018,46.06692],[-81.54592,46.09813],[-81.62275,46.12815],[-81.65175,46.11844],[-81.66941,46.08164],[-81.74624,46.07016],[-81.76199,46.01924],[-81.78141,46.05927],[-81.71901,46.10784],[-82.01323,46.1152],[-82.10934,46.1358],[-82.13509,46.11932],[-82.23238,46.15494],[-82.32098,46.15612],[-82.37853,46.17731],[-82.3148,46.18349],[-82.32098,46.19703],[-82.45065,46.18614],[-82.44447,46.20469],[-82.53646,46.18261],[-82.691,46.17672],[-82.63007,46.22382],[-82.70763,46.20027],[-82.93179,46.19026],[-82.98301,46.17672],[-83.10237,46.20469],[-83.12887,46.19409],[-83.24396,46.20881],[-83.50035,46.25914],[-83.56114,46.25178],[-83.60338,46.28652],[-83.70067,46.2771],[-83.83254,46.29976],[-83.87331,46.3083],[-83.8845,46.34127],[-84.03904,46.33038],[-84.11719,46.34716],[-84.12264,46.33156],[-84.22449,46.3554],[-84.21478,46.29623],[-84.17872,46.25178],[-84.25834,46.21263],[-84.21654,46.17407],[-84.19329,46.18967],[-84.13574,46.18791],[-84.10365,46.1623],[-84.028,46.14934],[-84.05523,46.10166],[-83.99754,46.04808],[-83.89068,46.01158],[-83.90437,45.97067],[-84.00357,45.9586],[-84.33267,46.0054],[-84.35622,45.99157],[-84.39743,46.00864],[-84.45336,46.01364],[-84.46616,45.9848],[-84.49398,46.0054],[-84.53033,45.99098],[-84.55639,46.0419],[-84.65662,46.05633],[-84.67766,46.04367],[-84.68841,45.99098],[-84.72874,45.96448],[-84.71313,45.93652],[-84.73168,45.90149],[-84.70636,45.875],[-84.73448,45.85704],[-84.78084,45.86234],[-84.77451,45.79993]],[[-80.16006,44.84472],[-80.18302,44.80734],[-80.16977,44.79262],[-80.1867,44.7938],[-80.24542,44.85473],[-80.23792,44.87504],[-80.1658,44.87151],[-80.14917,44.8615],[-80.16006,44.84472]],[[-81.71268,45.29981],[-81.7667,45.32012],[-81.73873,45.33396],[-81.69782,45.32012],[-81.71268,45.29981]],[[-81.80599,45.45847],[-81.84176,45.47702],[-81.82439,45.50439],[-81.77523,45.52912],[-81.70532,45.53913],[-81.73461,45.48761],[-81.76802,45.46348],[-81.80599,45.45847]],[[-81.58875,45.78698],[-81.6048,45.75195],[-81.66441,45.70986],[-81.64998,45.70368],[-81.71047,45.64628],[-81.71798,45.61331],[-81.75654,45.60065],[-81.82204,45.53295],[-81.86472,45.52441],[-81.91432,45.53913],[-81.93066,45.56856],[-81.99262,45.55914],[-81.95612,45.59152],[-81.90328,45.60801],[-81.8996,45.5877],[-81.81306,45.64186],[-81.75301,45.68572],[-81.77008,45.70692],[-81.84161,45.68749],[-81.93743,45.61419],[-81.98438,45.60595],[-82.01588,45.56827],[-82.06842,45.55914],[-82.10198,45.58093],[-82.09859,45.60153],[-82.1841,45.61125],[-82.25328,45.64216],[-82.28007,45.6763],[-82.31363,45.66776],[-82.33909,45.69485],[-82.45257,45.70515],[-82.53219,45.75019],[-82.63345,45.76608],[-82.69645,45.79758],[-82.71793,45.78522],[-82.84245,45.81348],[-82.89176,45.80317],[-82.95166,45.81348],[-82.96579,45.83997],[-83.02025,45.84291],[-83.08192,45.86823],[-83.18391,45.87411],[-83.22483,45.88677],[-83.22601,45.92975],[-83.1639,45.97567],[-83.12401,45.95889],[-83.10046,45.92504],[-83.05528,45.96448],[-82.9758,45.93652],[-82.93444,45.97125],[-82.81552,45.99686],[-82.83759,45.91591],[-82.77872,45.89148],[-82.75988,45.84703],[-82.66789,45.86823],[-82.63713,45.83408],[-82.59813,45.85204],[-82.5397,45.79199],[-82.50658,45.84703],[-82.53204,45.86087],[-82.56192,45.85439],[-82.55442,45.875],[-82.58415,45.88118],[-82.58915,45.90237],[-82.54073,45.91591],[-82.50658,45.95065],[-82.47744,45.94741],[-82.47185,45.92327],[-82.4349,45.96537],[-82.29773,45.98744],[-82.28463,45.93093],[-82.21928,45.95065],[-82.1607,45.84468],[-82.08829,45.94388],[-82.0013,45.9848],[-81.95362,45.98803],[-81.8946,45.953],[-81.89828,45.89619],[-81.8213,45.88177],[-81.84868,45.80317],[-81.80776,45.74459],[-81.79186,45.739],[-81.78715,45.79729],[-81.7536,45.8485],[-81.67971,45.90885],[-81.6569,45.88854],[-81.65984,45.85969],[-81.7115,45.79993],[-81.60568,45.80582],[-81.58875,45.78698]],[[-80.22128,45.311],[-80.18331,45.33396],[-80.13842,45.31865],[-80.09118,45.34779],[-80.05983,45.33396],[-80.0741,45.29952],[-80.16094,45.26596],[-80.17993,45.24447],[-80.21746,45.27155],[-80.22128,45.311]],[[-84.36711,45.77462],[-84.39787,45.73723],[-84.45571,45.73341],[-84.58273,45.81348],[-84.53195,45.8226],[-84.43202,45.79993],[-84.42009,45.82672],[-84.40096,45.80052],[-84.35622,45.78551],[-84.36711,45.77462]],[[-83.26825,45.93917],[-83.28135,45.90885],[-83.35332,45.86087],[-83.42456,45.88854],[-83.48667,45.89207],[-83.46003,45.95065],[-83.4172,45.98892],[-83.3698,46.00069],[-83.30166,45.96448],[-83.27193,45.96861],[-83.26825,45.93917]],[[-84.38418,45.95801],[-84.4251,45.97067],[-84.41141,45.97802],[-84.43202,45.99157],[-84.41141,46.0054],[-84.38418,45.99775],[-84.38359,45.97802],[-84.35784,45.97596],[-84.34253,45.95683],[-84.38418,45.95801]],[[-83.89289,46.10431],[-83.94852,46.07575],[-84.00401,46.15935],[-84.0776,46.22411],[-84.10925,46.2927],[-84.10203,46.31713],[-84.02418,46.29594],[-83.9862,46.31036],[-83.92542,46.29947],[-83.89068,46.27239],[-83.84299,46.26915],[-83.81415,46.23559],[-83.78765,46.23824],[-83.81518,46.14287],[-83.87022,46.1623],[-83.89289,46.10431]],[[-83.51713,45.94005],[-83.59264,45.93034],[-83.67962,45.95536],[-83.71127,45.9374],[-83.74365,45.95065],[-83.80193,45.94388],[-83.85595,45.99009],[-83.88156,45.98391],[-83.8845,46.0054],[-83.86581,46.0263],[-83.79354,46.00216],[-83.77102,46.02512],[-83.68463,46.05073],[-83.67874,46.07693],[-83.71627,46.09106],[-83.71539,46.10607],[-83.62384,46.10784],[-83.56202,46.07605],[-83.54554,46.02954],[-83.47916,46.0054],[-83.51713,45.94005]],[[-84.11351,46.24855],[-84.14192,46.23765],[-84.19917,46.29329],[-84.18446,46.33362],[-84.15826,46.33362],[-84.12161,46.29712],[-84.11351,46.24855]],[[-82.73339,45.93475],[-82.68467,45.96831],[-82.63007,45.97802],[-82.57826,45.96743],[-82.60475,45.91415],[-82.65759,45.90237],[-82.71205,45.9112],[-82.74619,45.93652],[-82.73339,45.93475]],[[-82.25461,46.03984],[-82.23871,46.05691],[-82.21045,46.0525],[-82.19132,45.99804],[-82.25564,46.0213],[-82.25461,46.03984]],[[-81.96201,46.04661],[-81.82086,46.06398],[-81.79348,46.04632],[-81.80776,46.02512],[-81.79393,46.00157],[-81.81173,45.98597],[-81.84559,46.00717],[-81.90328,45.99804],[-81.95053,46.01806],[-81.96201,46.04661]]]},"properties":{"id":"huron"}},{"type":"Feature","geometry":{"type":"Polygon","coordinates":[[[-83.07676,42.30436],[-83.12548,42.26845],[-83.19186,42.10566],[-83.19937,42.06534],[-83.17817,42.01677],[-83.19937,42.03796],[-83.2213,41.99469],[-83.26692,41.98262],[-83.26015,41.93434],[-83.30961,41.93523],[-83.3358,41.88725],[-83.37083,41.87753],[-83.41263,41.82749],[-83.42456,41.76361],[-83.45311,41.76744],[-83.46621,41.74625],[-83.45914,41.72152],[-83.36627,41.7015],[-83.31476,41.70886],[-83.2185,41.64616],[-83.0956,41.61967],[-82.98949,41.54372],[-82.88454,41.53636],[-82.85599,41.55079],[-82.84584,41.5917],[-82.78564,41.54372],[-82.71087,41.54313],[-82.69836,41.51723],[-82.76636,41.51517],[-82.82184,41.49545],[-82.84539,41.50457],[-82.93974,41.49427],[-82.97918,41.46866],[-83.06146,41.46189],[-82.99258,41.45806],[-82.97948,41.44364],[-82.95902,41.45453],[-82.92561,41.43245],[-82.7877,41.47602],[-82.75959,41.46277],[-82.68394,41.46454],[-82.60902,41.42774],[-82.68467,41.49545],[-82.54647,41.41155],[-82.45816,41.3936],[-82.36308,41.43893],[-82.25093,41.45011],[-82.17321,41.48279],[-82.04075,41.51105],[-81.87753,41.49015],[-81.80776,41.50958],[-81.743,41.49751],[-81.67221,41.52223],[-81.34841,41.72947],[-81.02622,41.84545],[-80.89597,41.87282],[-80.86933,41.89343],[-80.37583,42.02354],[-80.21069,42.09242],[-80.08956,42.17425],[-80.06733,42.16719],[-80.11664,42.15129],[-80.13548,42.12598],[-79.56014,42.35823],[-79.4708,42.40709],[-79.36836,42.48981],[-79.25592,42.53544],[-79.23517,42.55692],[-79.15613,42.57694],[-79.03132,42.71412],[-78.8806,42.78064],[-78.86942,42.85453],[-78.93639,42.97963],[-78.88796,43.05146],[-78.9149,43.07648],[-79.02617,43.08649],[-79.0662,43.10621],[-79.07547,43.08884],[-79.03191,43.05528],[-79.04221,43.00995],[-78.91534,42.93194],[-78.94345,42.89898],[-79.07665,42.87042],[-79.0949,42.85011],[-79.20293,42.88014],[-79.44696,42.88073],[-79.49553,42.85747],[-79.57913,42.86159],[-79.64286,42.84511],[-79.71733,42.86718],[-79.83464,42.83245],[-80.18773,42.79242],[-80.31843,42.72059],[-80.34786,42.6679],[-80.37038,42.68821],[-80.40394,42.67173],[-80.45383,42.61815],[-80.44338,42.59961],[-80.34109,42.60314],[-80.30003,42.58253],[-80.04614,42.5581],[-80.10972,42.5425],[-80.35831,42.5793],[-80.51123,42.57223],[-80.93247,42.66672],[-81.22904,42.66967],[-81.35915,42.64936],[-81.54018,42.57164],[-81.6569,42.48275],[-81.79319,42.40474],[-81.85662,42.25903],[-81.8971,42.25638],[-81.85559,42.32526],[-81.93125,42.28434],[-81.92374,42.26374],[-82.08461,42.25491],[-82.38692,42.12598],[-82.48671,42.03502],[-82.49908,41.91374],[-82.54867,41.98733],[-82.62271,42.03796],[-82.71249,42.03531],[-82.87424,41.98439],[-83.10679,42.05562],[-83.12401,42.09006],[-83.09825,42.26286],[-83.07676,42.30436]],[[-78.98172,42.97904],[-79.02205,43.01054],[-79.01145,43.06529],[-78.9589,43.07088],[-78.90857,43.0494],[-78.96435,42.97639],[-78.98172,42.97904]],[[-83.14491,42.10773],[-83.15771,42.09242],[-83.16978,42.10243],[-83.14344,42.19486],[-83.14491,42.10773]],[[-82.63831,41.74742],[-82.68349,41.73359],[-82.68438,41.7954],[-82.64434,41.83809],[-82.62271,41.74978],[-82.63831,41.74742]]]},"properties":{"id":"erie"}},{"type":"Feature","geometry":{"type":"Polygon","coordinates":[[[-76.08724,43.97046],[-76.0603,43.98842],[-76.06516,44.00785],[-76.1439,43.98371],[-76.21219,43.9893],[-76.13271,44.04582],[-76.12653,44.05877],[-76.16127,44.04523],[-76.14699,44.06642],[-76.16127,44.07732],[-76.20101,44.07202],[-76.20969,44.08556],[-76.27475,44.06201],[-76.30433,44.03346],[-76.31154,44.07261],[-76.3607,44.09586],[-76.36615,44.11735],[-76.18349,44.22303],[-76.05382,44.26571],[-75.909,44.36373],[-75.85292,44.3811],[-75.84541,44.40141],[-75.7702,44.44615],[-75.77918,44.48236],[-75.81186,44.50444],[-75.9739,44.38522],[-76.10828,44.36226],[-76.16819,44.33253],[-76.23574,44.33194],[-76.30727,44.31075],[-76.44136,44.24628],[-76.47712,44.25923],[-76.54424,44.22538],[-76.6165,44.22332],[-76.63799,44.23598],[-76.83669,44.16415],[-76.97371,44.07673],[-77.04451,44.06642],[-77.03156,44.08556],[-77.07247,44.09292],[-77.00374,44.14649],[-76.88746,44.1824],[-76.92176,44.20301],[-77.03936,44.13619],[-77.03965,44.18064],[-76.99947,44.21508],[-77.01419,44.21714],[-77.19228,44.16857],[-77.23629,44.19536],[-77.29398,44.16886],[-77.33622,44.18123],[-77.57289,44.11441],[-77.58643,44.07938],[-77.41511,44.14826],[-77.30531,44.15444],[-77.33313,44.1409],[-77.31885,44.12706],[-77.34005,44.10734],[-77.30649,44.09468],[-77.26425,44.10734],[-77.29898,44.12088],[-77.26234,44.14472],[-77.17153,44.15091],[-77.06629,44.1824],[-77.13399,44.04523],[-77.12119,44.04464],[-77.06261,44.05877],[-77.00904,44.04965],[-76.85023,44.11588],[-76.90115,44.052],[-77.01728,43.99725],[-77.04451,43.95663],[-77.04156,43.93808],[-77.00359,43.96251],[-76.97106,43.95162],[-76.88732,43.96575],[-76.84979,43.94691],[-76.90807,43.9422],[-77.08542,43.88716],[-77.12281,43.86184],[-77.23629,43.88068],[-77.16814,43.95663],[-77.25616,43.92101],[-77.30046,43.92336],[-77.32577,43.96251],[-77.28397,43.94544],[-77.25056,43.97017],[-77.29163,43.95663],[-77.31841,43.97223],[-77.47737,43.94868],[-77.57951,44.00431],[-77.53183,44.01785],[-77.60071,44.04523],[-77.67518,44.03169],[-77.70889,44.04464],[-77.73715,44.02551],[-77.67518,44.00431],[-77.80323,44.01903],[-77.90655,43.98577],[-78.27951,43.95869],[-78.50132,43.90129],[-78.60743,43.91542],[-78.85485,43.86331],[-78.95272,43.86567],[-79.04103,43.82976],[-79.09652,43.82505],[-79.13508,43.78442],[-79.37146,43.6446],[-79.4708,43.64813],[-79.50819,43.60015],[-79.58929,43.57101],[-79.61696,43.49418],[-79.77474,43.32934],[-79.77253,43.29166],[-79.69231,43.24132],[-79.5937,43.21601],[-79.395,43.20982],[-79.33039,43.1901],[-79.17438,43.25957],[-78.9907,43.28695],[-78.68941,43.36142],[-78.38018,43.39616],[-78.22697,43.37997],[-78.10657,43.3941],[-77.74877,43.34464],[-77.58319,43.25722],[-77.36669,43.29784],[-76.98313,43.2843],[-76.98372,43.2631],[-76.95635,43.25692],[-76.93015,43.30078],[-76.82697,43.31668],[-76.75103,43.35377],[-76.71276,43.33876],[-76.63313,43.42707],[-76.49037,43.48417],[-76.41928,43.53392],[-76.33406,43.52097],[-76.24634,43.53833],[-76.18806,43.58661],[-76.21543,43.60133],[-76.21043,43.62341],[-76.16819,43.66844],[-76.19173,43.67139],[-76.20969,43.64813],[-76.20969,43.73733],[-76.24325,43.81916],[-76.30315,43.8586],[-76.22897,43.90129],[-76.24325,43.8745],[-76.21587,43.86037],[-76.14581,43.91689],[-76.13345,43.95663],[-76.08724,43.97046]],[[-76.05147,44.34018],[-75.99613,44.35372],[-75.99613,44.34018],[-75.96066,44.3761],[-75.95521,44.36049],[-75.9143,44.3811],[-75.9533,44.33724],[-76.02174,44.30074],[-76.05147,44.34018]],[[-76.15833,44.28514],[-76.10607,44.31281],[-76.0653,44.30339],[-76.12653,44.26865],[-76.15803,44.26777],[-76.15833,44.28514]],[[-76.64049,44.17563],[-76.70319,44.12471],[-76.81461,44.13236],[-76.7943,44.16268],[-76.66007,44.20065],[-76.63681,44.19889],[-76.64049,44.17563]],[[-76.3139,44.28896],[-76.19541,44.31281],[-76.23869,44.27984],[-76.35319,44.26424],[-76.3139,44.28896]],[[-76.41619,44.22273],[-76.35996,44.23716],[-76.18128,44.24098],[-76.25281,44.21626],[-76.43503,44.22332],[-76.41619,44.22273]],[[-76.40853,44.13501],[-76.43326,44.12029],[-76.48963,44.12088],[-76.46917,44.14826],[-76.50229,44.15002],[-76.45961,44.20625],[-76.43547,44.21419],[-76.34628,44.18917],[-76.37969,44.1618],[-76.35996,44.15444],[-76.40853,44.13501]],[[-76.21587,44.03169],[-76.27739,43.97635],[-76.27445,44.01933],[-76.22397,44.04376],[-76.21587,44.03169]]]},"properties":{"id":"ontario"}},{"type":"Feature","geometry":{"type":"Polygon","coordinates":[[[-118.83685,65.77519],[-118.77769,65.74811],[-118.88145,65.73398],[-118.764,65.7278],[-118.67481,65.70543],[-118.70881,65.66863],[-118.49039,65.62418],[-118.58591,65.65891],[-118.56133,65.67982],[-118.48229,65.67982],[-118.43446,65.6963],[-118.35866,65.68217],[-118.39413,65.65891],[-118.36749,65.65509],[-118.18513,65.68835],[-118.07651,65.67952],[-117.98276,65.73398],[-117.91446,65.72014],[-117.9049,65.73869],[-117.816,65.7331],[-117.8394,65.74811],[-117.80452,65.76871],[-117.96303,65.75488],[-118.0038,65.78225],[-117.78465,65.85702],[-117.81188,65.86468],[-117.91667,65.83053],[-118.08858,65.80168],[-118.19264,65.82464],[-118.19617,65.85055],[-118.26623,65.85585],[-118.21545,65.91207],[-118.14716,65.91207],[-118.16732,65.94092],[-118.11301,65.98095],[-118.12729,65.9939],[-118.09255,66.00156],[-118.13347,66.0151],[-118.11051,66.03305],[-118.0356,66.0357],[-117.93551,66.06278],[-117.95538,66.0357],[-117.87281,66.04924],[-117.77729,66.02952],[-117.77037,66.06278],[-117.96701,66.06897],[-117.99365,66.09575],[-118.03103,66.09752],[-117.91726,66.15698],[-117.86663,66.15845],[-117.82674,66.14226],[-117.80437,66.17052],[-117.75742,66.15227],[-117.68103,66.18583],[-117.77832,66.18818],[-117.82571,66.17258],[-117.81129,66.21379],[-117.72327,66.24117],[-117.74991,66.21379],[-117.68618,66.22498],[-117.61333,66.27531],[-117.64998,66.3021],[-117.68839,66.30298],[-117.67485,66.28944],[-117.71179,66.30269],[-117.6594,66.34949],[-117.56491,66.35715],[-117.64689,66.37775],[-117.59228,66.42603],[-117.51884,66.42573],[-117.46659,66.44281],[-117.47056,66.46783],[-117.53105,66.45282],[-117.57241,66.46018],[-117.52399,66.48755],[-117.54783,66.49609],[-117.72283,66.42986],[-117.90755,66.41219],[-117.83175,66.44016],[-117.87693,66.45988],[-117.87208,66.48284],[-117.74373,66.52229],[-117.72725,66.5738],[-117.59228,66.62531],[-117.72946,66.61089],[-117.74373,66.63827],[-117.65366,66.63827],[-117.60597,66.67977],[-117.73623,66.66623],[-117.82218,66.63061],[-118.05208,66.59735],[-118.21736,66.51257],[-118.27977,66.43898],[-118.2103,66.45046],[-118.15614,66.50021],[-118.11993,66.4743],[-118.32113,66.39129],[-118.58664,66.33713],[-118.67819,66.35332],[-118.83332,66.30917],[-118.89499,66.32359],[-119.20172,66.31859],[-119.37628,66.34302],[-119.51801,66.33949],[-119.54554,66.33036],[-119.49093,66.31682],[-119.55731,66.30181],[-119.7644,66.30917],[-119.79501,66.31417],[-119.79236,66.33684],[-119.6989,66.34979],[-119.62781,66.33654],[-119.61515,66.36274],[-119.72628,66.37098],[-119.88788,66.33036],[-119.98016,66.34449],[-119.99797,66.35715],[-119.96383,66.37775],[-120.14,66.40837],[-120.22007,66.38482],[-120.31265,66.37981],[-120.36519,66.39924],[-120.45218,66.38099],[-120.51193,66.41926],[-120.45424,66.46282],[-120.41509,66.46901],[-120.36092,66.45399],[-120.2788,66.46282],[-120.24509,66.48137],[-120.35401,66.47519],[-120.37476,66.49491],[-120.31957,66.49491],[-120.38094,66.51522],[-120.31957,66.52847],[-120.32119,66.54878],[-120.18784,66.55879],[-120.13883,66.60559],[-120.05258,66.63208],[-120.13529,66.66623],[-120.01475,66.65181],[-119.80605,66.67742],[-119.70538,66.72598],[-119.6727,66.71568],[-119.60971,66.73658],[-119.52199,66.7307],[-119.57247,66.76867],[-119.49093,66.75424],[-119.30224,66.83107],[-118.9596,66.87493],[-119.01053,66.90584],[-119.12371,66.89731],[-119.21967,66.90672],[-119.2207,66.94588],[-119.27811,66.93322],[-119.52449,66.95353],[-119.49711,66.98149],[-119.42941,66.99445],[-119.59852,66.96972],[-119.65548,66.98149],[-119.60088,66.99445],[-119.65151,66.99857],[-119.77853,66.97708],[-119.81252,67.00887],[-119.73673,67.02241],[-119.78397,67.04478],[-119.86713,67.02918],[-119.8739,67.04302],[-119.93601,67.03683],[-120.05258,67.00151],[-120.15428,67.00181],[-120.29263,66.95353],[-120.53592,66.95353],[-120.64911,66.90584],[-120.9342,66.86228],[-121.16277,66.8717],[-121.25609,66.82783],[-121.25874,66.80281],[-121.30304,66.80605],[-121.37972,66.77073],[-121.48142,66.76514],[-121.43683,66.73511],[-121.46391,66.72392],[-121.74856,66.6939],[-121.99685,66.62266],[-122.25295,66.5997],[-122.32639,66.5632],[-122.38276,66.56379],[-122.32006,66.59117],[-122.34788,66.6156],[-122.4852,66.57674],[-122.49256,66.61089],[-122.51538,66.60824],[-122.56704,66.56997],[-122.4646,66.56379],[-122.61855,66.5426],[-122.75543,66.55437],[-122.82181,66.54289],[-122.89231,66.55555],[-122.97429,66.47754],[-123.02021,66.4743],[-123.03007,66.48755],[-123.10734,66.46724],[-123.16357,66.48137],[-123.13884,66.50139],[-123.16357,66.51522],[-123.12942,66.52847],[-123.15385,66.53465],[-123.27013,66.46959],[-123.50164,66.43986],[-123.54742,66.4172],[-123.80072,66.38923],[-124.04798,66.31211],[-124.2505,66.3651],[-124.31821,66.3648],[-124.37885,66.31417],[-124.43905,66.30475],[-124.48158,66.25206],[-124.69853,66.29563],[-124.88265,66.2656],[-124.96198,66.30828],[-125.08282,66.26207],[-125.12226,66.17935],[-125.10975,66.12225],[-125.03175,66.04983],[-124.89398,65.97035],[-124.86985,65.93267],[-124.79626,65.91177],[-124.80465,66.00891],[-124.73503,66.05071],[-124.65378,66.04865],[-124.637,66.0357],[-124.70942,66.0357],[-124.64981,65.99302],[-124.56032,66.0045],[-124.59005,66.06013],[-124.55458,66.09752],[-124.61993,66.12813],[-124.59609,66.15227],[-124.18516,66.17965],[-124.07683,66.11783],[-123.86386,66.10576],[-123.27336,66.17258],[-123.16945,66.06161],[-123.10322,66.04336],[-123.11205,66.1143],[-123.05494,66.10517],[-122.93764,66.17965],[-123.04023,66.22763],[-123.04449,66.25294],[-121.90707,66.2497],[-121.66201,66.18494],[-121.55001,66.0934],[-121.4436,66.11135],[-121.41033,66.10252],[-121.36853,66.11754],[-121.25461,66.09281],[-121.23504,66.06484],[-121.27169,65.9939],[-121.39503,65.9524],[-121.83804,65.92885],[-122.01702,65.98242],[-122.17023,65.98743],[-122.23073,66.0095],[-122.39719,66.01274],[-122.78678,65.96653],[-122.55408,65.96182],[-122.51096,65.90412],[-122.20099,65.85143],[-122.1486,65.8217],[-122.15625,65.7749],[-122.36216,65.6386],[-122.6159,65.57414],[-122.76088,65.5656],[-122.82151,65.49083],[-122.94441,65.49496],[-122.83859,65.46699],[-122.75322,65.41194],[-122.73159,65.34336],[-122.84977,65.27094],[-122.97929,65.22679],[-123.04744,65.23356],[-123.09159,65.22002],[-123.4307,65.20206],[-123.48457,65.18705],[-123.49252,65.16527],[-123.33886,65.11258],[-122.22395,64.99777],[-122.1667,64.96687],[-122.04748,64.94508],[-122.01908,64.9598],[-122.06235,64.97187],[-122.05764,64.986],[-121.992,64.98659],[-121.84084,65.02132],[-121.82097,65.00778],[-121.79992,65.03516],[-121.72045,65.04428],[-121.7384,65.06224],[-121.71088,65.07313],[-121.61521,65.06842],[-121.58769,65.0902],[-121.67026,65.12376],[-121.59446,65.17233],[-121.58769,65.23356],[-121.62169,65.24121],[-121.61874,65.268],[-121.52381,65.32923],[-121.51189,65.35101],[-121.57341,65.35719],[-121.53308,65.38987],[-121.15556,65.49437],[-121.12804,65.52498],[-120.83044,65.60181],[-120.7174,65.618],[-120.38845,65.58326],[-120.36799,65.5553],[-120.40891,65.53528],[-120.33325,65.50791],[-120.36078,65.43667],[-120.5686,65.26388],[-120.70371,65.19264],[-120.98041,65.12111],[-121.01353,65.08285],[-120.95701,65.04193],[-121.08359,64.98659],[-121.16277,64.98041],[-121.23136,65.00101],[-121.30878,64.98276],[-121.28596,64.9598],[-121.39738,64.99306],[-121.49908,64.94332],[-121.50512,64.88415],[-121.34807,64.81586],[-121.31157,64.82763],[-121.22842,64.80732],[-121.18176,64.81497],[-121.16248,64.82263],[-121.19662,64.82969],[-121.09698,64.86973],[-121.10787,64.89857],[-121.03281,64.90475],[-121.05327,64.92507],[-120.9161,64.93949],[-120.77966,64.98423],[-120.66957,64.98659],[-120.553,65.02132],[-120.26246,65.1585],[-120.13103,65.19235],[-120.05582,65.19264],[-120.00651,65.26859],[-119.89259,65.33835],[-119.82077,65.35278],[-119.7853,65.33718],[-119.74806,65.35425],[-119.71009,65.34336],[-119.61648,65.34836],[-119.47724,65.32246],[-119.5108,65.39193],[-119.61736,65.46964],[-119.81429,65.48612],[-119.85977,65.52439],[-120.10733,65.62418],[-120.06612,65.63566],[-119.92232,65.61034],[-119.92365,65.63919],[-119.84652,65.65126],[-119.85403,65.67923],[-119.71715,65.68364],[-119.5866,65.71337],[-119.61309,65.72956],[-119.68065,65.71897],[-119.76469,65.74811],[-119.70317,65.79609],[-119.30533,65.78902],[-119.19554,65.80963],[-118.83685,65.77519]],[[-118.54646,65.71308],[-118.3176,65.82523],[-118.23002,65.83024],[-118.14657,65.79815],[-118.14422,65.76695],[-118.26387,65.74811],[-118.29935,65.72397],[-118.4976,65.68835],[-118.54646,65.71308]],[[-119.45001,66.83755],[-119.38732,66.84491],[-119.45001,66.85786],[-119.38584,66.85698],[-119.37422,66.8717],[-119.44251,66.85786],[-119.35023,66.89907],[-119.27134,66.90525],[-119.11356,66.87847],[-119.36038,66.83284],[-119.45001,66.83755]],[[-122.37349,66.2971],[-122.58072,66.29563],[-122.49992,66.33154],[-122.36967,66.34626],[-122.34185,66.32006],[-122.37349,66.2971]]]},"properties":{"id":"greatbear"}},{"type":"Feature","geometry":{"type":"Polygon","coordinates":[[[-69.29464,-16.26527],[-69.26726,-16.28646],[-69.25019,-16.26527],[-69.15334,-16.25644],[-69.11331,-16.23466],[-69.10065,-16.20345],[-69.1345,-16.19374],[-69.09241,-16.15665],[-69.0824,-16.12133],[-69.13951,-16.06098],[-69.11964,-16.05303],[-69.01617,-16.11161],[-68.97864,-16.16636],[-68.92462,-16.18344],[-68.84308,-16.2479],[-68.88326,-16.26468],[-68.95008,-16.20905],[-68.99983,-16.27263],[-69.01499,-16.26056],[-69.03398,-16.27263],[-69.05841,-16.25762],[-69.0824,-16.26527],[-69.03648,-16.31266],[-69.03103,-16.34151],[-69.04325,-16.41216],[-69.08799,-16.4622],[-69.09594,-16.49458],[-69.03324,-16.55345],[-68.96024,-16.58436],[-68.86325,-16.60114],[-68.85353,-16.53167],[-68.86678,-16.47074],[-68.94199,-16.45837],[-68.95671,-16.44336],[-68.92462,-16.42275],[-68.85265,-16.40804],[-68.76375,-16.41598],[-68.72607,-16.3683],[-68.67824,-16.34769],[-68.73225,-16.33356],[-68.69178,-16.31207],[-68.63894,-16.33003],[-68.58213,-16.3265],[-68.60259,-16.29647],[-68.57668,-16.2532],[-68.6176,-16.21287],[-68.71327,-16.21523],[-68.78318,-16.18491],[-68.80113,-16.18344],[-68.83749,-16.21994],[-68.84956,-16.21052],[-68.85265,-16.17313],[-68.91093,-16.06657],[-68.84956,-16.05657],[-68.82159,-16.01329],[-68.77229,-15.99504],[-68.77008,-15.97679],[-68.79716,-15.94677],[-68.90755,-15.9294],[-68.93183,-15.94382],[-69.02029,-15.92263],[-69.0066,-15.87789],[-69.01838,-15.8143],[-69.10374,-15.72864],[-69.19161,-15.70362],[-69.15746,-15.67507],[-69.27035,-15.66948],[-69.30067,-15.6215],[-69.29361,-15.5688],[-69.32599,-15.56027],[-69.38059,-15.5117],[-69.3903,-15.49109],[-69.37191,-15.49639],[-69.36985,-15.47608],[-69.3903,-15.47019],[-69.43917,-15.49639],[-69.47214,-15.43104],[-69.55044,-15.36834],[-69.64346,-15.34715],[-69.65759,-15.29593],[-69.72102,-15.24],[-69.75061,-15.25501],[-69.7116,-15.28121],[-69.71867,-15.29622],[-69.88542,-15.30182],[-69.87836,-15.32213],[-69.80786,-15.34303],[-69.83524,-15.36098],[-69.8632,-15.34715],[-69.89028,-15.37011],[-69.93429,-15.37364],[-69.94974,-15.41044],[-69.8086,-15.6524],[-69.77445,-15.663],[-69.77813,-15.67389],[-69.79491,-15.66948],[-69.79138,-15.69067],[-69.7562,-15.72246],[-69.79491,-15.72806],[-69.84068,-15.70333],[-69.8632,-15.67625],[-69.86217,-15.63975],[-69.94518,-15.56704],[-69.93208,-15.6215],[-69.96682,-15.66624],[-69.973,-15.70362],[-70.02451,-15.6998],[-70.03997,-15.71687],[-70.03673,-15.76721],[-70.00494,-15.79311],[-70.0276,-15.8405],[-69.93208,-15.88112],[-69.90044,-15.87906],[-69.88278,-15.92705],[-69.80403,-15.91733],[-69.8086,-15.89525],[-69.87689,-15.86111],[-69.85731,-15.81018],[-69.82214,-15.78546],[-69.78549,-15.8249],[-69.76474,-15.8926],[-69.74339,-15.91439],[-69.72205,-15.91969],[-69.70719,-15.88937],[-69.67878,-15.90909],[-69.70616,-15.9294],[-69.68482,-15.96914],[-69.43519,-16.01241],[-69.41591,-16.07511],[-69.51099,-16.19021],[-69.47611,-16.21493],[-69.42445,-16.18344],[-69.39546,-16.19521],[-69.38339,-16.18344],[-69.3772,-16.20022],[-69.3903,-16.21052],[-69.37205,-16.23848],[-69.29464,-16.26527]]]},"properties":{"id":"titicaca"}}]}
