{"type":"FeatureCollection","features":[{"type":"Feature","properties":{"id":"himalaya"},"geometry":{"type":"Polygon","coordinates":[[[84.908092,29.178717],[87.393687,29.133612],[87.717296,29.257148],[88.05775,29.320441],[92.473155,29.102973],[93.201671,28.906989],[93.365733,28.88758],[93.520152,28.897895],[93.619395,28.927008],[93.903087,29.112738],[94.393565,29.243476],[94.77685,29.426268],[94.906383,29.488044],[95.163829,29.728156],[95.214122,29.757025],[95.27064,29.775214],[95.331065,29.782111],[95.393321,29.777594],[95.455211,29.761115],[95.514659,29.732367],[95.569347,29.690985],[95.617198,29.636542],[95.64259,29.595118],[95.650645,29.581977],[95.655788,29.564346],[95.662608,29.540961],[95.65565,29.510199],[95.632213,29.486274],[94.958995,29.19422],[94.895152,29.151313],[94.847179,29.104071],[94.796397,29.009528],[94.790538,28.921576],[94.820689,28.840155],[94.877696,28.765143],[95.255015,28.475226],[95.28297,28.434027],[95.289195,28.397467],[95.274547,28.322333],[95.272716,28.275702],[95.286998,28.217719],[95.310321,28.174817],[95.326915,28.144294],[94.908715,27.80222],[94.347179,27.342902],[93.830089,27.124335],[91.682384,26.859809],[89.645489,26.902885],[89.589976,26.904059],[89.382823,26.953803],[89.197594,27.028166],[88.900279,27.147528],[88.80067,27.160102],[88.686778,27.149482],[88.652944,27.13696],[88.251231,26.988288],[87.780528,26.903998],[87.018734,27.026632],[85.336925,27.29737],[84.665782,27.573065],[83.859264,27.701361],[83.729503,27.746772],[83.501353,27.874701],[83.297374,27.95185],[82.486827,28.014533],[82.39796,28.049018],[82.000133,28.37873],[79.305125,29.95885],[77.313975,31.126288],[75.94909,32.226119],[75.719859,32.410834],[75.582408,32.60224],[75.554412,32.681234],[75.521861,32.773078],[75.531016,32.919745],[75.594859,33.049079],[76.091563,33.527411],[76.20045,33.670966],[76.273326,33.743109],[76.381847,33.790717],[77.000089,33.866127],[77.375621,33.911933],[77.490245,33.872016],[78.029398,33.522815],[78.224375,33.396532],[84.52064,29.318549],[84.908092,29.178717]]]}},{"type":"Feature","properties":{"id":"karakoram"},"geometry":{"type":"Polygon","coordinates":[[[79.017955,33.35401],[78.896861,33.3357],[78.374522,33.354315],[78.238658,33.389106],[78.224375,33.396532],[78.11024,33.455878],[78.029398,33.522815],[77.075816,34.312384],[76.386485,34.704352],[76.266978,34.817939],[76.105113,35.059088],[75.74818,35.810187],[75.707286,35.942694],[75.689952,36.30152],[75.658092,36.406317],[75.61024,36.487494],[75.483719,36.630628],[75.251842,36.892951],[75.198985,36.952033],[75.172252,36.992499],[75.169712,36.999812],[75.162608,37.02027],[75.15919,37.061164],[75.147594,37.086005],[74.928233,37.284613],[74.919688,37.309333],[74.92921,37.334662],[74.960704,37.361396],[75.985995,37.788365],[76.247691,37.897345],[76.357432,37.91352],[76.444469,37.906378],[76.454301,37.899932],[76.499766,37.870124],[76.610728,37.740424],[76.972667,37.482428],[77.809093,36.48432],[77.861095,36.449469],[77.999766,36.387641],[78.261479,36.19122],[78.351085,36.123969],[78.480846,36.072638],[78.812266,35.995978],[78.971848,35.916236],[79.011485,35.89643],[79.274425,35.668647],[79.483287,35.377936],[79.62086,35.058966],[79.700328,34.597113],[79.844859,34.357611],[79.855968,34.313544],[79.855846,34.265143],[79.841685,34.211371],[79.82484,34.177741],[79.50294,33.828925],[79.245006,33.651496],[79.226451,33.631049],[79.196056,33.577216],[79.148692,33.454169],[79.133311,33.427619],[79.114268,33.405219],[79.070567,33.374579],[79.017955,33.35401]]]}},{"type":"Feature","properties":{"id":"hindukush"},"geometry":{"type":"Polygon","coordinates":[[[74.749086,37.45936],[75.169712,36.999812],[75.438975,36.705634],[75.483719,36.630628],[75.636241,36.374945],[75.692027,36.226142],[75.716563,35.744025],[75.640514,35.273871],[75.607921,35.17945],[75.559093,35.100592],[75.489879,35.045233],[75.132579,34.582831],[74.461192,34.123481],[74.405557,34.103683],[74.3744,34.092597],[74.298595,34.082404],[74.229503,34.087531],[73.96665,34.14932],[73.93922,34.155768],[73.912732,34.154926],[73.812785,34.15175],[73.75294,34.149848],[73.739024,34.145611],[73.712047,34.137397],[73.703868,34.123481],[73.711925,34.11048],[73.720225,34.10102],[73.712413,34.097602],[73.556131,34.130388],[73.485724,34.145159],[73.468028,34.148871],[72.823741,34.417609],[72.681837,34.429968],[72.32899,34.4607],[72.019542,34.599799],[71.951305,34.608954],[71.865001,34.601569],[71.789439,34.576911],[71.770968,34.563304],[71.483531,34.351569],[71.462376,34.340596],[71.418224,34.317694],[71.268321,34.278144],[69.675792,34.311713],[67.019298,34.645636],[66.94752,34.694648],[66.87672,34.794623],[66.752208,35.099799],[66.674815,35.465949],[66.673595,35.798102],[66.708507,35.877631],[67.324229,36.55329],[67.372691,36.587348],[71.066539,37.412238],[71.203502,37.416632],[71.326549,37.382514],[71.487804,37.245307],[71.563365,37.201117],[71.662218,37.167302],[71.749644,37.137397],[71.949718,37.105536],[72.107021,37.104762],[72.123424,37.104682],[72.206676,37.120185],[72.485873,37.247514],[72.699718,37.345038],[72.794191,37.363687],[73.098617,37.423782],[73.601939,37.523139],[74.355358,37.51762],[74.618541,37.515692],[74.684093,37.499457],[74.734508,37.475287],[74.749086,37.45936]]]}},{"type":"Feature","properties":{"id":"pamir"},"geometry":{"type":"Polygon","coordinates":[[[74.903941,39.465216],[75.67335,39.195502],[75.896251,39.031256],[76.121837,38.810004],[76.867564,38.34693],[76.988536,38.238654],[77.032237,38.13819],[76.972667,38.047797],[76.911618,38.020104],[76.859508,37.996466],[76.454301,37.899932],[75.985995,37.788365],[75.674083,37.714057],[75.50172,37.603217],[75.110448,37.574001],[74.355358,37.51762],[73.098617,37.423782],[72.917857,37.410285],[72.794191,37.363687],[72.485873,37.247514],[72.107021,37.104762],[72.086558,37.097052],[71.932994,37.083136],[71.785045,37.10517],[71.662218,37.167302],[71.649547,37.173712],[71.525279,37.252692],[71.446056,37.284491],[71.424083,37.304877],[71.319835,37.448981],[71.259776,37.506415],[71.23463,37.538642],[71.215587,37.582526],[71.204845,37.645026],[71.226817,39.065924],[71.252086,39.166205],[71.288707,39.226264],[71.326305,39.259223],[71.366222,39.27204],[71.577037,39.261908],[71.896739,39.367743],[71.918101,39.381598],[72.243907,39.505561],[74.239635,39.559943],[74.903941,39.465216]]]}},{"type":"Feature","properties":{"id":"urals"},"geometry":{"type":"Polygon","coordinates":[[[57.755015,51.700019],[57.378551,51.566779],[57.018077,51.606818],[56.693736,51.773078],[56.434337,52.039862],[56.268687,52.381659],[56.220103,53.10279],[56.407481,53.788336],[56.697398,54.371161],[56.957164,54.784003],[57.129771,55.241278],[57.604259,57.597846],[57.645518,58.166388],[57.659679,59.364142],[57.742564,59.970221],[57.933604,60.609198],[58.177257,61.219306],[58.258477,61.394206],[58.418346,61.738471],[58.482597,61.955969],[58.570811,62.254584],[58.61671,62.832587],[58.606775,63.049569],[58.572928,63.788773],[58.572889,63.789632],[58.572887,63.789679],[58.624034,64.108161],[58.781871,64.43067],[59.191051,65.08216],[59.425426,65.35578],[59.745982,65.531867],[60.11671,65.623725],[60.876842,65.669806],[61.600597,65.825934],[62.248668,65.924506],[62.501231,65.993659],[62.724986,66.102301],[63.230235,66.462104],[63.59193,66.659247],[63.937877,66.819525],[64.178477,66.908637],[64.333629,66.98963],[64.482188,67.12464],[64.754527,67.414374],[64.882335,67.496039],[65.017955,67.53028],[65.169322,67.548712],[65.344493,67.582953],[65.345095,67.583508],[65.481944,67.709601],[65.529993,67.86348],[65.548228,67.921881],[65.593394,68.126288],[65.654925,68.211601],[65.667613,68.229193],[65.694534,68.237253],[65.867216,68.288949],[65.978526,68.322272],[65.982857,68.322919],[66.214976,68.357611],[66.262696,68.35503],[66.306032,68.352686],[66.510631,68.34162],[66.764781,68.217597],[66.889903,67.981574],[66.909679,67.679755],[66.847789,67.358161],[66.632457,67.106391],[66.241954,66.956],[65.330577,66.79621],[64.91627,66.697211],[64.513927,66.56269],[64.182628,66.414923],[63.9817,66.276374],[63.802623,66.127082],[63.528697,65.956794],[63.207286,65.802253],[62.885875,65.700385],[62.608653,65.632148],[62.385387,65.544074],[62.212169,65.42182],[61.955577,65.074713],[61.744395,64.938178],[61.4015,64.827948],[60.876842,64.730963],[60.409923,64.552069],[60.197276,64.26911],[60.003551,63.52912],[59.939098,63.109992],[59.865123,62.159857],[59.852916,61.251899],[59.792125,60.755194],[59.519298,59.815192],[59.535167,59.46424],[59.879771,58.014106],[60.3213,56.620551],[60.413219,56.160895],[60.320323,55.777411],[60.060191,55.295111],[59.660411,54.799628],[59.391205,54.567215],[59.330893,54.515146],[58.727061,53.993842],[58.525279,53.579352],[58.463145,53.159613],[58.460338,52.760993],[58.360484,52.36695],[58.10377,51.989997],[57.755015,51.700019]]]}},{"type":"Feature","properties":{"id":"caucasus"},"geometry":{"type":"Polygon","coordinates":[[[37.984386,44.987921],[38.130748,44.993354],[38.44691,45.024237],[39.326084,45.056927],[39.507335,45.063666],[39.751754,45.046315],[40.002574,45.02851],[40.173128,45.028426],[40.373057,45.028327],[40.490855,45.010932],[40.6067,44.972846],[40.655622,44.94903],[40.930675,44.815131],[41.007213,44.788642],[41.163829,44.743964],[41.236949,44.707587],[41.296519,44.662177],[41.412608,44.561042],[41.476451,44.517524],[41.562755,44.473822],[42.321666,44.169623],[42.559093,44.093329],[42.605507,44.083903],[42.811534,44.04206],[43.421888,43.990726],[43.47047,43.98664],[43.897819,43.901598],[44.128673,43.855658],[44.247935,43.818915],[44.362804,43.768927],[44.397067,43.750613],[44.711314,43.582648],[44.781627,43.531501],[44.90797,43.419501],[44.948874,43.390234],[44.97877,43.368842],[45.061656,43.325019],[45.303966,43.276435],[45.518687,43.32099],[45.73109,43.397345],[45.966685,43.444037],[46.099894,43.424978],[46.163341,43.4159],[46.55067,43.280158],[46.696064,43.270366],[46.742808,43.267218],[46.910167,43.268378],[47.044322,43.215277],[47.068236,43.189352],[47.14442,43.106757],[47.209727,42.941596],[47.218733,42.873199],[47.219981,42.863715],[47.222865,42.803164],[47.22401,42.77912],[47.234019,42.697516],[47.262096,42.628669],[47.332652,42.568305],[47.433726,42.521064],[47.631358,42.453803],[47.739024,42.406928],[48.209972,42.153144],[48.270885,42.11164],[48.291457,42.095887],[48.303027,42.080225],[48.383789,41.953418],[48.426367,41.923975],[48.476758,41.905127],[48.555439,41.855471],[48.665782,41.678839],[48.75294,41.595526],[48.847911,41.518927],[48.938975,41.43537],[49.013927,41.347357],[49.170272,41.13045],[49.174707,41.116113],[49.226465,41.026221],[49.291438,40.962349],[49.315196,40.929389],[49.417613,40.741767],[49.46242,40.558132],[49.463425,40.55401],[49.463512,40.553656],[49.389781,40.415045],[49.248302,40.370734],[49.082652,40.37641],[48.916881,40.410956],[48.774791,40.45307],[48.599498,40.516974],[47.485362,41.035773],[47.289928,41.148688],[46.909923,41.401496],[46.705577,41.504584],[46.494517,41.560736],[46.388194,41.567145],[46.063487,41.560309],[45.946788,41.570624],[45.838756,41.595221],[45.732432,41.631476],[45.620616,41.676459],[45.425059,41.775153],[45.227916,41.888678],[45.027965,41.985846],[44.824107,42.03559],[44.672252,42.052436],[44.526988,42.081488],[44.38795,42.125251],[44.122813,42.238898],[43.988658,42.261176],[42.970958,42.264472],[42.869151,42.276313],[42.771129,42.299811],[42.475963,42.412604],[42.376109,42.433234],[41.730601,42.471015],[41.604991,42.500556],[41.550059,42.531928],[41.522272,42.56086],[41.48877,42.659326],[41.419434,42.737646],[41.396305,42.744844],[41.394542,42.747199],[41.369273,42.774359],[41.339976,42.797492],[40.578746,43.212226],[40.439952,43.273383],[40.038829,43.422431],[40.006724,43.436713],[39.945201,43.46894],[39.906627,43.481513],[39.851207,43.492987],[39.841766,43.495576],[39.618118,43.655403],[39.406505,43.842841],[39.187877,44.011054],[38.98878,44.147284],[38.782725,44.271552],[38.247813,44.540412],[38.162974,44.570685],[37.985362,44.607001],[37.946621,44.618282],[37.851465,44.698828],[37.789619,44.683027],[37.490855,44.821112],[37.29835,44.885749],[37.293931,44.888199],[37.284082,44.905029],[37.206693,44.970362],[37.207219,45.018465],[37.207286,45.024543],[37.221109,45.042703],[37.242686,45.071051],[37.306163,45.098639],[37.391124,45.097846],[37.489513,45.075507],[37.673961,45.02265],[37.837413,44.996772],[37.984386,44.987921]]]}},{"type":"Feature","properties":{"id":"alps"},"geometry":{"type":"Polygon","coordinates":[[[15.31483,46.431586],[15.266734,46.402167],[15.205089,46.379828],[14.992198,46.320319],[14.901134,46.305915],[14.808482,46.305732],[14.390269,46.381537],[14.052867,46.41529],[13.715709,46.407172],[13.399669,46.34162],[12.023692,45.952582],[11.808604,45.917304],[11.602794,45.863959],[11.43336,45.760382],[11.289683,45.600043],[11.212901,45.56214],[11.086192,45.561408],[9.32191,45.915229],[8.768321,45.929999],[8.315196,45.80744],[7.948497,45.614569],[7.654063,45.418586],[7.468272,45.194892],[7.411754,44.904853],[7.447154,44.594306],[7.537364,44.308905],[7.528751,44.235969],[7.510265,44.079413],[7.296641,43.905768],[7.013682,43.787726],[6.777965,43.724799],[6.400523,43.665778],[6.260776,43.667532],[6.055308,43.670111],[5.724132,43.764289],[5.388438,43.974982],[5.17274,44.308478],[5.156993,44.698188],[5.257091,45.061469],[5.388438,45.315558],[5.502574,45.477362],[5.626598,45.630866],[5.790294,45.794257],[6.515514,46.417731],[6.869762,46.68006],[7.434581,47.008918],[8.011119,47.267524],[8.577403,47.456366],[9.077647,47.583686],[11.118053,47.967963],[11.667979,48.01435],[15.115245,48.089789],[15.530894,48.137763],[15.826305,48.154853],[16.029185,48.08924],[16.146007,48.003791],[16.183482,47.961432],[16.161754,47.849494],[16.101939,47.701239],[16.01234,47.559516],[15.901256,47.467475],[15.773204,47.409308],[15.522472,47.277838],[15.405162,47.200263],[15.326427,47.127936],[15.296886,47.059394],[15.301402,46.98078],[15.351573,46.770514],[15.373302,46.646857],[15.368297,46.527228],[15.31483,46.431586]]]}},{"type":"Feature","properties":{"id":"pyrenees"},"geometry":{"type":"Polygon","coordinates":[[[-0.008595,43.307929],[2.013927,42.955024],[2.333263,42.872077],[2.624034,42.851813],[2.848888,42.793708],[3.020518,42.672919],[3.125743,42.496955],[3.151622,42.273627],[3.152965,42.234687],[3.158655,42.210978],[3.150391,42.162451],[3.175195,42.135986],[3.18002,42.13356],[3.180308,42.132392],[3.173839,42.062934],[3.135753,42.007941],[3.077403,41.970832],[3.010142,41.955024],[2.865245,41.955268],[1.312633,42.144782],[1.081065,42.192878],[0.861705,42.265021],[0.44691,42.369452],[-1.163014,42.627509],[-1.354726,42.690497],[-1.542653,42.767768],[-1.725392,42.856879],[-1.901418,42.955573],[-1.945674,42.984092],[-2.062245,43.059211],[-2.138173,43.117926],[-2.234425,43.209235],[-2.262807,43.241645],[-2.278289,43.268382],[-2.283376,43.277167],[-2.286183,43.312995],[-2.285427,43.315375],[-2.284108,43.319525],[-2.281545,43.325324],[-2.281379,43.325605],[-2.19668,43.321924],[-1.991309,43.345068],[-1.828516,43.40083],[-1.794043,43.407324],[-1.631445,43.438037],[-1.613366,43.453544],[-1.588307,43.459601],[-1.481496,43.474677],[-1.391225,43.472846],[-1.127675,43.414374],[-0.008595,43.307929]]]}},{"type":"Feature","properties":{"id":"atlas"},"geometry":{"type":"Polygon","coordinates":[[[10.442027,36.685736],[10.468516,36.328559],[9.965831,35.87873],[9.939342,35.402472],[9.952525,34.714545],[9.992198,34.158942],[9.595348,34.119269],[9.291026,34.066352],[8.833398,34.114041],[8.656139,34.132514],[8.166637,34.264777],[8.114066,34.287079],[7.729991,34.450019],[7.042125,34.846869],[6.526134,34.926215],[5.639903,34.82038],[5.256236,34.793952],[4.687389,34.648444],[3.906871,34.317694],[3.721761,34.264806],[3.166026,34.106024],[2.75587,33.854682],[2.747809,33.852401],[2.054698,33.656256],[1.128673,33.140326],[0.685169,32.995146],[0.401134,32.902167],[-0.39269,32.492072],[-0.486895,32.402682],[-0.908559,32.00257],[-1.715566,31.658637],[-2.257985,31.446967],[-2.932668,31.288214],[-3.523965,31.209857],[-3.797301,31.173635],[-4.03069,31.142707],[-4.542776,30.828486],[-4.612782,30.785529],[-4.815078,30.655458],[-5.168385,30.42829],[-5.322915,30.239416],[-5.398114,30.147505],[-5.406484,30.137274],[-5.428847,30.133362],[-5.720397,30.082349],[-6.464833,29.952094],[-7.232167,29.528754],[-7.629018,29.131842],[-8.502126,28.787909],[-9.269399,28.602729],[-10.063161,28.338141],[-10.539418,28.311652],[-10.989247,28.54975],[-10.892918,28.814682],[-10.891457,28.818701],[-10.673828,28.939209],[-10.486475,29.064941],[-10.270043,29.303736],[-10.18224,29.370002],[-9.732472,29.753607],[-9.282643,30.12403],[-8.819631,30.481269],[-8.568288,30.692939],[-8.793202,30.75904],[-9.335561,30.573859],[-9.626637,30.534125],[-9.862942,30.7442],[-9.864735,30.745795],[-9.864496,30.750933],[-9.832422,30.847266],[-9.83335,31.069629],[-9.813432,31.356362],[-9.467885,31.936469],[-9.216542,32.161322],[-8.912221,32.346564],[-8.171376,32.703742],[-7.78777,32.902167],[-7.27184,33.100592],[-7.245351,33.378424],[-7.179189,33.603339],[-7.007253,33.762091],[-6.808827,34.039862],[-6.623586,34.106024],[-6.279652,34.09278],[-6.015065,34.211859],[-5.748261,34.340953],[-5.60497,34.410285],[-5.635079,34.45661],[-5.948903,34.93946],[-5.869496,35.336371],[-5.881521,35.768709],[-5.881647,35.77323],[-5.882189,35.792733],[-5.882198,35.793061],[-5.747949,35.815967],[-5.622852,35.828906],[-5.522266,35.862012],[-5.46919,35.890853],[-5.3933,35.905219],[-5.337646,35.808548],[-5.337646,35.745215],[-5.252686,35.614746],[-5.190163,35.552369],[-5.141957,35.468634],[-5.128736,35.463532],[-5.062528,35.437981],[-4.837207,35.281299],[-4.62832,35.206396],[-4.32998,35.161475],[-3.982422,35.243408],[-3.787988,35.244922],[-3.744079,35.261173],[-3.699941,35.256964],[-3.663254,35.264877],[-3.590625,35.22832],[-3.394727,35.211816],[-3.206006,35.239111],[-3.063086,35.317236],[-3.003947,35.375835],[-2.965653,35.327972],[-2.93766,35.292983],[-2.914753,35.264352],[-2.869531,35.172656],[-2.839941,35.127832],[-2.731396,35.135205],[-2.636816,35.112695],[-2.42373,35.123486],[-2.219629,35.104199],[-2.017773,35.085059],[-1.913281,35.094238],[-1.673633,35.183105],[-1.48374,35.303076],[-1.33584,35.364258],[-1.299759,35.400622],[-1.265797,35.415717],[-1.170892,35.520102],[-1.087695,35.578857],[-0.91748,35.668408],[-0.426123,35.861523],[-0.350781,35.863184],[-0.18916,35.819092],[-0.048242,35.832813],[0.047949,35.900537],[0.15166,36.063135],[0.306992,36.159131],[0.612804,36.288825],[0.682831,36.319463],[0.79082,36.356543],[0.97168,36.443945],[1.257227,36.51958],[1.974512,36.567578],[2.342871,36.610303],[2.593359,36.600684],[2.746989,36.684552],[2.755117,36.686263],[3.152938,36.77002],[3.192393,36.778327],[3.240031,36.789666],[3.520508,36.795117],[3.779004,36.896191],[4.758105,36.896338],[4.862855,36.866647],[4.874301,36.861415],[4.876097,36.860594],[5.005527,36.801424],[5.195605,36.676807],[5.29541,36.648242],[5.424609,36.675439],[5.686534,36.783533],[5.944102,36.831244],[5.96574,36.845391],[6.064746,36.864258],[6.249121,36.93833],[6.327832,37.046045],[6.338016,37.048593],[6.43169,37.034395],[6.56359,37.014403],[6.575879,37.003027],[6.927539,36.919434],[7.143457,36.943359],[7.238477,36.968506],[7.218909,37.039426],[7.238209,37.041356],[7.253795,37.042914],[7.531646,37.020657],[7.55064,37.019136],[7.607715,36.999756],[7.791602,36.880273],[7.910449,36.856348],[7.998787,36.878362],[8.007101,36.875592],[8.021129,36.870917],[8.174925,36.913207],[8.576562,36.937207],[8.823535,36.997607],[8.958789,37.088553],[8.979817,37.092266],[9.000011,37.095832],[9.131288,37.137018],[9.674693,37.307502],[9.734482,37.297857],[9.827445,37.282861],[9.815527,37.254639],[9.783984,37.211426],[9.830273,37.135352],[9.896387,37.181641],[9.879395,37.212842],[9.875586,37.25415],[9.983871,37.257628],[10.01719,37.252254],[10.084849,37.241339],[10.099072,37.223766],[10.179927,37.12386],[10.192089,37.108833],[10.18877,37.033887],[10.334082,36.865381],[10.293262,36.781494],[10.412305,36.731836],[10.418427,36.735278],[10.442027,36.685736]]]}},{"type":"Feature","properties":{"id":"drakensberg"},"geometry":{"type":"Polygon","coordinates":[[[30.11378,-30.690484],[29.544932,-31.285699],[29.532855,-31.298227],[29.187755,-31.656183],[28.737926,-32.10589],[28.274913,-32.516046],[27.798717,-32.873224],[27.124034,-33.296563],[26.710671,-33.41059],[26.3567,-33.508233],[26.184703,-33.442071],[25.523326,-33.323053],[25.139659,-33.203912],[25.179332,-32.926202],[25.086681,-32.740899],[25.060313,-32.502862],[24.864685,-32.441072],[24.83264,-32.430951],[24.557506,-32.344049],[24.213634,-32.264703],[23.980037,-32.258238],[23.737315,-32.251519],[23.525645,-32.066217],[23.622136,-31.989833],[23.84315,-31.814874],[24.120982,-31.656183],[24.33704,-31.448738],[24.451671,-31.338678],[25.060313,-30.994684],[25.333294,-31.009459],[25.549693,-31.021173],[26.211192,-30.941827],[26.753551,-30.941827],[27.216563,-30.756524],[27.17689,-30.399347],[27.018199,-29.936334],[27.256358,-29.684991],[27.454723,-29.565973],[27.891368,-28.970636],[28.036876,-28.46795],[28.380748,-28.375299],[29.134776,-28.25628],[29.320079,-27.806451],[29.849254,-27.330255],[30.140269,-27.078912],[30.378429,-26.2586],[30.140269,-25.676568],[30.007945,-25.279718],[29.835948,-24.896051],[29.90211,-24.274225],[29.637584,-24.089044],[29.835948,-23.599542],[29.888927,-23.229181],[29.756602,-22.819024],[30.576793,-22.422174],[31.132457,-22.382501],[31.264781,-22.567682],[31.026622,-22.766168],[30.603282,-23.520196],[30.642955,-23.943536],[30.973643,-24.446222],[31.621959,-25.240045],[31.542491,-25.703058],[31.582286,-26.311578],[31.59547,-26.906915],[31.796618,-27.108063],[31.965831,-27.277276],[32.145096,-27.482117],[32.336314,-27.700616],[31.886485,-28.441461],[31.615329,-28.778013],[31.502818,-28.917657],[31.341402,-29.079129],[31.14564,-29.274957],[30.881114,-29.73797],[30.510631,-30.055475],[30.219615,-30.320001],[30.11378,-30.690484]]]}},{"type":"Feature","properties":{"id":"rockies"},"geometry":{"type":"Polygon","coordinates":[[[-124.565236,59.710578],[-123.326527,59.08747],[-122.605519,58.485541],[-121.754262,57.872626],[-121.536,56.618232],[-119.998769,55.405219],[-119.230275,54.690619],[-118.022084,53.864081],[-116.928395,52.99726],[-115.922963,52.719489],[-115.15569,52.163825],[-115.049123,51.344367],[-113.70049,49.795844],[-112.232045,47.507148],[-111.217397,47.445014],[-110.102162,47.123542],[-109.621571,46.122443],[-107.773793,45.774176],[-106.662587,44.768744],[-106.106923,43.842719],[-105.101491,42.705024],[-104.889821,41.593756],[-104.466542,40.588324],[-104.466542,39.503546],[-104.355953,38.3874],[-104.355946,38.387336],[-104.122548,37.360419],[-104.122548,36.434394],[-104.598805,35.772895],[-105.154408,35.434211],[-106.001088,35.270209],[-106.592885,35.29914],[-106.677796,35.40183],[-107.00652,35.799384],[-107.016408,36.232611],[-107.017489,36.258708],[-107.048268,37.001532],[-107.380666,37.026435],[-107.407455,37.029383],[-108.154897,37.11164],[-108.440419,37.397223],[-108.42017,37.473797],[-108.302968,37.916999],[-107.588612,38.36579],[-107.574909,38.461679],[-107.509206,38.921454],[-108.236501,38.881415],[-108.964406,39.265387],[-110.299489,39.015204],[-110.97527,38.381293],[-111.795461,37.730841],[-112.774403,37.360419],[-113.19253,37.580472],[-113.267753,37.620061],[-113.27715,37.625006],[-112.906728,37.942511],[-112.519818,38.522851],[-112.43047,38.656867],[-111.842764,39.265789],[-111.689931,39.42414],[-111.636708,40.535407],[-111.82195,40.835534],[-111.823338,40.837783],[-112.020619,41.157416],[-112.15038,41.475531],[-112.509667,41.923113],[-112.523915,41.940863],[-112.578807,41.9746],[-113.250661,42.387519],[-113.592447,42.518508],[-113.678189,42.551369],[-115.252675,43.154792],[-115.732411,43.556952],[-116.266957,43.81623],[-116.343189,44.426318],[-116.346303,44.451239],[-116.315397,44.611988],[-116.21404,45.139167],[-116.226307,45.223515],[-116.258377,45.444018],[-116.292653,45.679694],[-116.637318,46.197455],[-117.039052,46.753119],[-117.222218,47.5232],[-117.142837,47.59222],[-116.910653,47.7941],[-116.669484,48.003791],[-116.518397,48.285988],[-116.508132,48.305161],[-116.276662,48.737494],[-117.064992,49.768988],[-117.884999,50.310065],[-117.974294,50.880622],[-118.755544,51.822089],[-120.82726,52.921332],[-121.405324,53.710395],[-122.602425,55.059189],[-122.760243,55.237006],[-123.180982,55.474106],[-123.674288,55.752099],[-123.887624,55.872321],[-124.802663,56.700324],[-125.64521,57.422858],[-125.871327,57.616767],[-126.47143,58.249394],[-126.888234,58.688788],[-127.194203,59.214972],[-126.89269,59.429206],[-126.570767,59.577935],[-126.528066,59.597663],[-125.358606,59.345294],[-125.033009,59.275031],[-124.738805,59.548966],[-124.565236,59.710578]]]}},{"type":"Feature","properties":{"id":"appalachian"},"geometry":{"type":"Polygon","coordinates":[[[-65.158803,48.062201],[-65.312796,48.016676],[-65.316888,48.015466],[-65.36001,48.011133],[-65.475879,48.031494],[-65.754687,48.11167],[-65.926709,48.188867],[-66.012549,48.14668],[-66.064598,48.114225],[-66.128477,48.106701],[-66.248633,48.117334],[-66.324268,48.0979],[-66.448975,48.119629],[-66.704395,48.022461],[-66.631543,48.011084],[-66.428809,48.066943],[-66.359619,48.060645],[-66.210205,47.988574],[-66.076117,47.959757],[-66.072621,47.958441],[-65.823167,47.896674],[-65.761937,47.863171],[-65.646474,47.631964],[-65.969655,47.097052],[-66.366506,46.72663],[-66.816274,46.356269],[-67.520375,46.136908],[-67.95403,46.038764],[-68.641957,45.959357],[-69.276906,45.324347],[-69.447377,44.939154],[-69.964833,44.451239],[-70.402882,43.905585],[-70.758595,43.578131],[-71.155446,43.18122],[-71.418752,42.72309],[-71.605275,42.202277],[-72.504872,41.630866],[-73.113393,41.355597],[-73.864064,41.086615],[-73.874084,41.078945],[-73.882227,41.170605],[-73.925342,41.218066],[-73.969922,41.249707],[-73.917676,41.135791],[-73.912462,41.049568],[-74.292165,40.758918],[-75.04485,40.472235],[-75.328664,40.201361],[-76.188649,40.084662],[-76.764638,39.70423],[-77.32311,39.225531],[-77.885121,38.477362],[-78.572926,37.683173],[-79.237782,36.938605],[-80.328053,35.981269],[-82.641591,34.598456],[-83.891469,33.880439],[-84.901967,33.508185],[-85.885915,33.002875],[-86.559987,32.914862],[-86.561451,32.946281],[-86.561452,32.946295],[-86.748219,32.783149],[-86.880544,32.650824],[-87.303883,32.615546],[-87.709584,32.620002],[-87.923451,32.635199],[-88.015859,32.605841],[-88.174977,32.870124],[-88.190846,33.02735],[-88.29601,33.253974],[-88.427358,33.432013],[-88.483449,33.713752],[-88.541127,33.969977],[-88.40685,34.109809],[-88.421986,34.297858],[-88.363698,34.467963],[-88.267384,34.671088],[-88.238698,35.049689],[-88.258473,35.259284],[-88.097646,35.420111],[-88.021779,35.605719],[-87.989247,35.781928],[-87.995412,36.069342],[-87.990224,36.302985],[-88.064076,36.488105],[-88.099172,36.696357],[-88.23998,36.954169],[-88.522084,37.05976],[-88.488911,37.12599],[-88.451894,37.199897],[-88.508107,37.343817],[-88.382802,37.418769],[-88.141042,37.467231],[-88.156789,37.622016],[-88.132619,37.700507],[-87.946095,37.789679],[-87.777577,37.881476],[-87.627736,37.832343],[-87.549184,37.914496],[-87.447865,37.943488],[-87.255605,37.879218],[-87.086964,37.806586],[-87.019765,37.920233],[-86.819081,37.996344],[-86.707509,37.899726],[-86.595876,37.905524],[-86.523732,38.02027],[-86.400075,38.107489],[-86.341176,38.155585],[-86.259694,38.060126],[-86.219899,38.04328],[-86.040273,37.969916],[-85.924977,38.038886],[-85.891591,38.203192],[-85.758534,38.27088],[-85.632802,38.387946],[-85.59026,38.462104],[-85.429128,38.53974],[-85.45287,38.705451],[-85.321095,38.744391],[-85.18517,38.688666],[-85.03484,38.758368],[-84.820058,38.829291],[-84.83318,38.958075],[-84.843068,39.089179],[-84.674977,39.102301],[-84.364369,39.048041],[-84.231801,38.886359],[-84.084218,38.778876],[-83.860097,38.758368],[-83.65099,38.637152],[-83.491689,38.700141],[-83.346791,38.641913],[-83.151845,38.620063],[-83.031239,38.716986],[-82.898488,38.752753],[-82.828175,38.583747],[-82.690602,38.536078],[-82.568898,38.403815],[-82.424733,38.434149],[-82.299001,38.520209],[-82.215382,38.593085],[-82.161488,38.832526],[-82.013234,39.017646],[-81.904408,38.937445],[-81.848744,38.914557],[-81.812856,39.081244],[-81.662526,39.276679],[-81.542287,39.34571],[-81.420766,39.407416],[-81.247304,39.392829],[-81.126027,39.454779],[-80.880849,39.620917],[-80.831838,39.821662],[-80.758229,39.97193],[-80.694631,40.158637],[-80.600392,40.319403],[-80.648549,40.620429],[-80.454213,40.637274],[-80.285817,40.700446],[-80.201833,40.547431],[-80.081044,40.497321],[-79.984731,40.457831],[-79.813954,40.545844],[-79.691762,40.670233],[-79.531728,40.792609],[-79.498158,40.921881],[-79.589162,40.982428],[-79.683156,41.153998],[-79.796132,41.258124],[-79.824086,41.325934],[-79.765126,41.41413],[-79.962026,41.611029],[-80.111623,41.805426],[-80.138051,41.990607],[-80.149709,42.142524],[-80.191335,42.354499],[-80.092397,42.398993],[-79.774892,42.520697],[-79.470265,42.635321],[-79.088368,42.777655],[-78.917653,42.901679],[-79.023183,43.018256],[-79.081654,43.086859],[-79.065785,43.27735],[-79.18224,43.467841],[-78.663625,43.637152],[-76.806264,43.631903],[-76.51714,43.477851],[-76.350636,43.261786],[-76.301442,43.232489],[-76.191884,43.244696],[-76.111256,43.253669],[-75.732045,43.22248],[-75.441762,43.244574],[-75.290639,43.13526],[-75.003285,43.037116],[-74.854726,43.06214],[-74.64977,42.99433],[-74.605397,42.929755],[-74.506459,42.915534],[-74.371266,42.956],[-74.225331,42.968573],[-74.142384,42.932807],[-74.034413,42.883979],[-73.888234,42.841315],[-73.705373,42.795111],[-73.673695,42.929755],[-73.584279,43.086859],[-73.527882,43.269416],[-73.430898,43.410529],[-73.398366,43.573676],[-73.424855,43.637152],[-73.351796,43.778876],[-73.394704,43.859809],[-73.42516,44.038459],[-73.372121,44.204047],[-73.293813,44.404975],[-73.329579,44.52088],[-73.366628,44.573798],[-73.339406,44.74079],[-73.297414,44.884711],[-73.328236,45.080329],[-73.457326,45.121466],[-73.609609,45.138373],[-73.609555,45.138398],[-73.25915,45.302254],[-73.245839,45.308478],[-73.106801,45.520453],[-72.460561,45.661994],[-72.105885,45.9383],[-71.607716,46.267646],[-71.092214,46.536872],[-70.783803,46.828498],[-70.535024,47.011786],[-70.492635,47.049769],[-70.388086,47.116943],[-70.217773,47.289844],[-70.06958,47.377783],[-70.026645,47.454458],[-69.935331,47.529301],[-69.802246,47.623437],[-69.621643,47.786937],[-69.314279,48.043181],[-69.306348,48.047021],[-69.15134,48.1577],[-68.833636,48.356476],[-68.815674,48.366016],[-68.746045,48.376416],[-68.552002,48.457324],[-68.475844,48.510647],[-68.377004,48.551642],[-67.928639,48.715827],[-67.369136,48.90275],[-67.11748,48.96416],[-66.767109,49.073583],[-66.526723,49.134528],[-66.45735,49.148247],[-66.319517,49.175504],[-66.115832,49.215783],[-65.882812,49.225684],[-65.843865,49.23007],[-65.831227,49.230414],[-65.349477,49.251166],[-65.236867,49.242056],[-64.836328,49.191748],[-64.638863,49.127817],[-64.563411,49.102206],[-64.506894,49.068413],[-64.337668,48.957028],[-64.22485,48.882771],[-64.216211,48.873633],[-64.208789,48.806201],[-64.370752,48.838965],[-64.513721,48.841113],[-64.414551,48.803613],[-64.246094,48.691113],[-64.25376,48.550391],[-64.348828,48.423193],[-64.633154,48.360498],[-64.641073,48.355056],[-64.662709,48.351386],[-64.963021,48.176327],[-64.975187,48.169235],[-65.158803,48.062201]]]}},{"type":"Feature","properties":{"id":"andes"},"geometry":{"type":"MultiPolygon","coordinates":[[[[-68.335817,10.736225],[-68.331244,10.653931],[-68.330333,10.637528],[-68.324452,10.531684],[-68.289484,10.53131],[-68.259276,10.530988],[-68.186118,10.530207],[-68.139941,10.492725],[-67.871631,10.47207],[-67.581348,10.52373],[-67.581145,10.523752],[-67.536104,10.523271],[-66.122426,10.508185],[-66.090643,10.477318],[-66.090479,10.472949],[-66.030133,10.418553],[-65.819692,10.214179],[-68.747792,9.790839],[-68.782634,9.769931],[-69.276906,9.473334],[-69.432601,9.348778],[-70.79016,8.262731],[-70.86443,8.203315],[-71.384219,7.725656],[-71.431773,7.681956],[-71.843373,7.303717],[-71.700169,6.44427],[-71.686635,6.363044],[-71.745716,6.291031],[-71.759205,6.27459],[-73.482567,4.174045],[-73.563161,4.075812],[-73.575768,3.979209],[-73.632427,3.545079],[-73.740461,2.717293],[-73.780775,2.408397],[-73.793935,2.307563],[-73.871225,2.262885],[-73.903604,2.244169],[-76.685292,0.636237],[-77.478993,-1.32171],[-77.320241,-4.549615],[-75.521108,-6.295831],[-75.317997,-9.03782],[-75.317701,-9.041814],[-75.309438,-9.153375],[-74.023221,-10.439517],[-73.91221,-10.550522],[-73.192738,-11.269952],[-72.291031,-11.778623],[-72.275509,-11.787379],[-71.589962,-12.174109],[-71.286338,-12.34539],[-71.129018,-12.434137],[-70.199023,-12.878787],[-68.745799,-13.573604],[-68.033864,-13.913995],[-66.653209,-15.412094],[-65.210439,-16.977594],[-64.690622,-17.214977],[-63.509005,-17.754584],[-63.456105,-17.778741],[-63.416084,-18.036014],[-63.138072,-19.823186],[-63.116418,-19.962391],[-63.085683,-20.159967],[-63.735779,-22.806733],[-63.826527,-23.176202],[-63.873582,-23.359197],[-64.302785,-25.028375],[-64.356641,-25.222256],[-64.567372,-25.98089],[-65.436906,-27.12503],[-65.508163,-27.21879],[-65.572743,-27.303766],[-65.565155,-27.320627],[-65.096486,-28.362115],[-66.631093,-29.420465],[-67.241347,-30.912118],[-67.491439,-31.523423],[-67.583608,-31.748712],[-67.964239,-32.049252],[-68.069763,-32.132572],[-68.588979,-32.542535],[-69.065236,-34.024225],[-69.382741,-35.505792],[-69.171071,-35.98211],[-68.694814,-36.087945],[-69.647328,-38.522149],[-70.811513,-41.697076],[-71.0761,-42.967096],[-70.705678,-44.55462],[-70.970265,-45.771661],[-72.34612,-49.634576],[-72.187367,-50.798761],[-71.975697,-52.06878],[-71.129018,-52.544976],[-70.80846,-52.805429],[-70.839062,-52.889551],[-70.821191,-52.963086],[-70.952051,-53.226953],[-70.984326,-53.373633],[-70.985107,-53.44834],[-70.947803,-53.57041],[-70.99585,-53.779297],[-71.082812,-53.825],[-71.297754,-53.883398],[-71.443896,-53.840918],[-71.693799,-53.803125],[-71.871875,-53.722656],[-72.100928,-53.66582],[-72.174414,-53.632324],[-72.376807,-53.471191],[-72.398242,-53.417773],[-72.412891,-53.350195],[-72.306055,-53.253711],[-72.248633,-53.24668],[-72.081152,-53.249609],[-71.941699,-53.234082],[-71.852734,-53.285742],[-71.828223,-53.39834],[-71.867334,-53.458398],[-71.902783,-53.495508],[-71.891699,-53.523535],[-71.791455,-53.48457],[-71.740527,-53.232617],[-71.400342,-53.107031],[-71.288965,-53.033691],[-71.180225,-52.920508],[-71.163281,-52.888086],[-71.155078,-52.845605],[-71.227148,-52.810645],[-71.387744,-52.764258],[-71.897998,-53.001758],[-72.129102,-53.064355],[-72.278027,-53.132324],[-72.458301,-53.254492],[-72.492578,-53.290625],[-72.530811,-53.37168],[-72.548926,-53.460742],[-72.726807,-53.42002],[-72.998389,-53.290723],[-73.052734,-53.243457],[-72.998242,-53.177246],[-72.915527,-53.121973],[-72.909912,-52.936523],[-72.88916,-52.871582],[-72.831885,-52.819531],[-72.727686,-52.762305],[-72.675977,-52.749023],[-72.63208,-52.773828],[-72.626611,-52.817578],[-72.453467,-52.814453],[-72.117578,-52.65],[-71.979297,-52.646094],[-71.79707,-52.682812],[-71.591211,-52.660742],[-71.55415,-52.643945],[-71.511279,-52.605371],[-71.664746,-52.560059],[-71.811914,-52.537012],[-72.225684,-52.520996],[-72.315381,-52.538574],[-72.437695,-52.625781],[-72.478271,-52.604004],[-72.504395,-52.560059],[-72.644824,-52.529102],[-72.712109,-52.535547],[-72.776562,-52.577441],[-72.766016,-52.642578],[-72.801904,-52.712402],[-72.931885,-52.781641],[-73.020264,-52.891797],[-73.016113,-52.977441],[-73.022998,-53.02207],[-73.055469,-53.045605],[-73.122461,-53.073926],[-73.338184,-53.054687],[-73.459863,-52.964844],[-73.50752,-52.903516],[-73.645215,-52.837012],[-73.345947,-52.754297],[-73.24082,-52.707129],[-73.144824,-52.601953],[-73.073193,-52.535059],[-73.123926,-52.487988],[-73.183789,-52.487891],[-73.178174,-52.562695],[-73.244141,-52.624023],[-73.382129,-52.595117],[-73.585693,-52.685742],[-73.684903,-52.666543],[-73.738377,-52.212031],[-73.702783,-52.198828],[-73.6854,-52.136719],[-73.684326,-52.077734],[-73.649023,-52.077734],[-73.532227,-52.153125],[-73.457959,-52.145996],[-73.326758,-52.165918],[-73.260449,-52.157812],[-73.137354,-52.129687],[-72.943701,-52.046875],[-72.843213,-51.961133],[-72.79502,-51.949512],[-72.7354,-51.960547],[-72.695459,-51.985156],[-72.694824,-52.044727],[-72.649561,-52.099902],[-72.587988,-52.145117],[-72.57085,-52.200098],[-72.583447,-52.254199],[-72.693604,-52.330273],[-72.714014,-52.356738],[-72.677051,-52.384668],[-72.631494,-52.371582],[-72.568701,-52.333984],[-72.53291,-52.282324],[-72.52334,-52.255469],[-72.519336,-52.21709],[-72.524121,-52.170313],[-72.613574,-52.037012],[-72.624756,-52.006934],[-72.624609,-51.946484],[-72.522852,-51.890918],[-72.494141,-51.847559],[-72.489648,-51.763672],[-72.542529,-51.706152],[-72.76123,-51.573242],[-73.126758,-51.439941],[-73.16875,-51.453906],[-73.197021,-51.478027],[-73.163379,-51.495605],[-73.11499,-51.504492],[-72.789355,-51.614258],[-72.70459,-51.67793],[-72.649072,-51.69502],[-72.583301,-51.737305],[-72.600049,-51.799121],[-72.928369,-51.859863],[-73.188672,-51.990625],[-73.383252,-52.07002],[-73.518164,-52.041016],[-73.582324,-51.960352],[-73.650293,-51.85625],[-73.752637,-51.795508],[-73.810645,-51.801172],[-73.85383,-51.790836],[-73.928791,-51.609467],[-73.895898,-51.331445],[-73.939502,-51.266309],[-74.095825,-51.205325],[-74.304677,-50.700006],[-74.311949,-50.589721],[-74.190186,-50.778027],[-74.156104,-50.797461],[-74.139404,-50.817773],[-73.847461,-50.940039],[-73.806543,-50.938379],[-73.824609,-50.83584],[-73.740576,-50.69668],[-73.659033,-50.650684],[-73.618164,-50.651172],[-73.613965,-50.62793],[-73.693262,-50.57002],[-73.654443,-50.492676],[-73.679932,-50.490234],[-73.750195,-50.539844],[-73.891504,-50.782715],[-73.978027,-50.827051],[-74.096729,-50.71709],[-74.164111,-50.637891],[-74.197217,-50.609766],[-74.185596,-50.485352],[-73.950342,-50.510547],[-74.031055,-50.469824],[-74.305566,-50.398047],[-74.325252,-50.38798],[-74.351458,-49.990573],[-74.33374,-49.974609],[-74.019434,-50.022754],[-73.958594,-49.994727],[-74.01123,-49.928516],[-74.073291,-49.948535],[-74.171338,-49.907324],[-74.323926,-49.783398],[-74.31875,-49.720117],[-74.29082,-49.604102],[-74.230371,-49.579297],[-74.102002,-49.555371],[-73.955518,-49.593066],[-73.891553,-49.62373],[-73.836377,-49.609375],[-73.89248,-49.523438],[-73.988037,-49.490918],[-74.094434,-49.429687],[-74.083496,-49.361816],[-74.049219,-49.305664],[-74.023438,-49.244141],[-74.005615,-49.158008],[-74.015381,-49.090918],[-73.984766,-49.059961],[-73.937891,-49.046094],[-73.934961,-49.020898],[-74.027734,-49.026172],[-74.061328,-49.111035],[-74.073877,-49.188379],[-74.139795,-49.250488],[-74.167871,-49.320508],[-74.18457,-49.404395],[-74.221289,-49.500586],[-74.301514,-49.463965],[-74.348535,-49.42627],[-74.366553,-49.400488],[-74.358154,-49.351367],[-74.37998,-49.047852],[-74.382129,-48.793652],[-74.341016,-48.595703],[-74.227686,-48.516992],[-74.176221,-48.494141],[-74.129297,-48.504199],[-74.056934,-48.503613],[-74.009082,-48.475],[-74.171533,-48.427441],[-74.270068,-48.45459],[-74.342969,-48.492578],[-74.402231,-48.479678],[-74.39662,-48.013907],[-74.250439,-48.044922],[-73.853809,-48.042188],[-73.528174,-48.198242],[-73.384473,-48.177344],[-73.391064,-48.145898],[-73.500977,-48.106641],[-73.56958,-48.019336],[-73.609912,-47.993945],[-73.628906,-47.941504],[-73.635107,-47.880371],[-73.715869,-47.655469],[-73.748242,-47.661328],[-73.779248,-47.738477],[-73.84668,-47.866992],[-73.940869,-47.929395],[-74.084766,-47.954687],[-74.227051,-47.968945],[-74.350586,-47.944336],[-74.379346,-47.891211],[-74.376221,-47.829687],[-74.394278,-47.81953],[-74.392262,-47.652276],[-74.384393,-47.616084],[-74.322559,-47.666699],[-74.242969,-47.679297],[-74.151953,-47.62666],[-74.134082,-47.59082],[-74.191016,-47.568359],[-74.24292,-47.559668],[-74.323682,-47.531445],[-74.360857,-47.507834],[-74.351903,-47.46665],[-74.350575,-47.460545],[-74.30873,-47.268088],[-74.215674,-47.20957],[-74.158398,-47.18252],[-74.208057,-47.083105],[-74.151904,-46.974414],[-74.209473,-46.884766],[-74.222716,-46.872479],[-74.217091,-46.846612],[-73.708051,-46.026511],[-73.708154,-46.070312],[-73.810645,-46.377344],[-73.934814,-46.500684],[-73.948633,-46.533105],[-73.94375,-46.571582],[-73.845361,-46.566016],[-73.770264,-46.499805],[-73.716211,-46.415234],[-73.662061,-46.297461],[-73.668213,-46.212109],[-73.65166,-46.159277],[-73.629443,-45.986523],[-73.591846,-45.899121],[-73.593025,-45.841196],[-73.586537,-45.830743],[-73.48018,-45.442699],[-73.378564,-45.382812],[-73.266211,-45.346191],[-73.202344,-45.353809],[-72.978174,-45.451172],[-72.933838,-45.452344],[-72.94082,-45.417285],[-72.975537,-45.392578],[-73.063867,-45.359766],[-73.226367,-45.255176],[-73.42456,-45.23977],[-73.352429,-44.976598],[-73.256445,-44.961035],[-73.078418,-44.920215],[-72.738965,-44.73418],[-72.680078,-44.593945],[-72.663867,-44.436426],[-72.827539,-44.39541],[-73.001025,-44.292383],[-73.140967,-44.2375],[-73.14868,-44.233222],[-73.073832,-43.960138],[-73.070115,-43.946577],[-72.822771,-43.044143],[-72.758008,-43.039453],[-72.755371,-42.992969],[-72.766016,-42.908203],[-72.780481,-42.889847],[-72.677582,-42.514419],[-72.654834,-42.516602],[-72.631836,-42.509668],[-72.665456,-42.470179],[-72.659291,-42.447686],[-72.659893,-42.207628],[-72.631055,-42.199805],[-72.548437,-42.255762],[-72.430273,-42.433887],[-72.412354,-42.388184],[-72.460107,-42.206641],[-72.499414,-41.980859],[-72.623975,-42.010547],[-72.6604,-42.00547],[-72.661058,-41.743309],[-72.659863,-41.74248],[-72.486035,-41.72207],[-72.3604,-41.649121],[-72.318262,-41.499023],[-72.359473,-41.513867],[-72.427734,-41.645898],[-72.542383,-41.690625],[-72.60083,-41.684082],[-72.661261,-41.662426],[-72.661743,-41.470487],[-72.663564,-40.744561],[-71.944428,-38.073384],[-71.92278,-37.992975],[-71.745945,-36.794451],[-71.52838,-35.319869],[-71.446523,-34.765069],[-71.645192,-33.56756],[-71.645248,-33.561851],[-71.636279,-33.519238],[-71.645808,-33.504722],[-71.649912,-33.085919],[-71.650434,-33.032614],[-71.635547,-33.022559],[-71.592041,-32.969531],[-71.452246,-32.65957],[-71.461426,-32.537891],[-71.421289,-32.386816],[-71.513037,-32.20791],[-71.525879,-31.805859],[-71.577295,-31.496387],[-71.661963,-31.169531],[-71.653906,-30.986621],[-71.671231,-30.910525],[-71.676404,-30.382593],[-71.669482,-30.330371],[-71.400391,-30.142969],[-71.348047,-29.933203],[-71.315723,-29.649707],[-71.326709,-29.443164],[-71.353271,-29.350391],[-71.389954,-29.30829],[-71.385386,-29.29184],[-70.833046,-27.302653],[-70.459523,-25.957452],[-70.487912,-25.405489],[-70.489419,-25.376186],[-70.452197,-25.251855],[-70.445361,-25.172656],[-70.51177,-24.941599],[-70.51513,-24.876277],[-70.540655,-24.379983],[-70.543834,-24.318174],[-70.507422,-24.129687],[-70.520068,-23.968555],[-70.507422,-23.885742],[-70.487793,-23.781738],[-70.409961,-23.655566],[-70.392334,-23.565918],[-70.419629,-23.528516],[-70.511963,-23.482812],[-70.588135,-23.368359],[-70.593359,-23.255469],[-70.568848,-23.17334],[-70.565822,-23.111216],[-70.552716,-23.065769],[-70.549395,-23.054256],[-70.449658,-23.03418],[-70.38916,-22.969629],[-70.331689,-22.848633],[-70.259521,-22.556055],[-70.228516,-22.193164],[-70.185449,-21.974609],[-70.155078,-21.866602],[-70.12959,-21.64082],[-70.087549,-21.493066],[-70.080029,-21.356836],[-70.088379,-21.253223],[-70.181002,-20.803221],[-70.194308,-20.569214],[-70.193652,-20.531445],[-70.147461,-20.229785],[-70.148145,-19.805078],[-70.157422,-19.705859],[-70.19834,-19.612988],[-70.2104,-19.486914],[-70.266567,-19.29849],[-70.292228,-18.847218],[-70.297203,-18.759729],[-70.315419,-18.439386],[-70.358291,-18.399839],[-70.780393,-18.010474],[-71.395798,-17.442797],[-71.399414,-17.421973],[-71.435889,-17.366016],[-71.532227,-17.294336],[-71.575042,-17.277455],[-71.605275,-17.249566],[-71.965065,-17.065678],[-71.966895,-17.064062],[-71.974903,-17.06065],[-72.150956,-16.970669],[-72.268604,-16.876172],[-72.3625,-16.775],[-72.467676,-16.708105],[-72.793945,-16.614551],[-72.957715,-16.520898],[-73.26377,-16.388574],[-73.400049,-16.304297],[-73.541395,-16.260018],[-73.985544,-16.033014],[-74.14707,-15.9125],[-74.150948,-15.911152],[-75.966828,-14.570909],[-76.006299,-14.495801],[-76.136475,-14.320312],[-76.175146,-14.22666],[-76.235967,-14.17669],[-76.281824,-13.809827],[-76.259229,-13.802832],[-76.183936,-13.515234],[-76.223633,-13.371191],[-76.427344,-13.109961],[-76.502148,-12.984375],[-76.555225,-12.823437],[-76.637109,-12.728027],[-76.758008,-12.527148],[-76.832129,-12.34873],[-76.994092,-12.219238],[-77.038135,-12.172754],[-77.062695,-12.106836],[-77.081619,-12.097066],[-77.156467,-11.955676],[-77.157617,-11.923437],[-77.220312,-11.663379],[-77.309912,-11.532422],[-77.427719,-11.44328],[-77.701388,-10.926315],[-77.736084,-10.836719],[-77.804455,-10.72712],[-78.363647,-9.629471],[-78.445654,-9.370605],[-78.580127,-9.156641],[-78.6646,-8.971094],[-78.75459,-8.74043],[-78.762256,-8.616992],[-78.925391,-8.40459],[-79.012256,-8.210156],[-79.164404,-8.047168],[-79.173229,-8.0398],[-80.019032,-5.872491],[-80.230702,-4.602472],[-79.966115,-3.403009],[-80.058969,-3.248251],[-80.02666,-3.228125],[-79.96333,-3.157715],[-79.921582,-3.090137],[-79.822705,-2.776953],[-79.729883,-2.579102],[-79.745508,-2.484668],[-79.822412,-2.356543],[-79.839746,-2.167871],[-79.832617,-2.110547],[-79.842139,-2.067383],[-79.893408,-2.145703],[-79.880322,-2.423633],[-79.925586,-2.548535],[-79.989014,-2.578711],[-80.030176,-2.556738],[-80.006641,-2.353809],[-80.053076,-2.390723],[-80.127148,-2.528418],[-80.248633,-2.630566],[-80.255273,-2.664648],[-80.284717,-2.706738],[-80.378564,-2.667969],[-80.428318,-2.638762],[-80.565846,-2.415338],[-80.601064,-1.850885],[-80.304459,-0.621841],[-80.282373,-0.620508],[-80.302412,-0.61336],[-80.230702,-0.316217],[-78.325673,1.377082],[-77.689039,2.862529],[-77.67002,2.878857],[-77.670721,2.905271],[-77.60412,3.060669],[-77.559131,3.075977],[-77.520264,3.160254],[-77.472217,3.233789],[-77.417139,3.341797],[-77.356543,3.348584],[-77.324414,3.474756],[-77.242773,3.585352],[-77.076807,3.913281],[-77.126855,3.906055],[-77.166602,3.862256],[-77.212012,3.867432],[-77.250172,3.88653],[-77.108571,4.216925],[-76.685292,5.557502],[-76.685948,5.570638],[-76.738149,6.61579],[-76.774597,7.950691],[-76.742334,8.002148],[-76.77207,8.310547],[-76.785651,8.355535],[-76.791127,8.556098],[-76.359035,8.710416],[-76.297231,8.732489],[-75.945668,8.127021],[-75.943057,8.122523],[-75.662221,7.638861],[-75.517932,7.680587],[-75.254872,7.756659],[-74.392201,8.732489],[-73.616078,9.261664],[-73.898366,9.896674],[-73.950234,10.259735],[-74.092172,11.253263],[-74.09951,11.304628],[-74.103168,11.330232],[-74.059131,11.340625],[-74.00722,11.329609],[-73.871429,11.265298],[-73.774831,11.21955],[-72.65929,11.293923],[-72.451955,11.307746],[-72.213791,11.166627],[-72.051438,11.070428],[-71.696724,10.86025],[-71.69043,10.835498],[-71.598437,10.726221],[-71.594336,10.657373],[-71.664844,10.44375],[-71.793506,10.315967],[-71.884766,10.167236],[-71.955713,10.108057],[-72.112842,9.815576],[-71.993262,9.641504],[-71.97627,9.553223],[-71.873047,9.427637],[-71.805664,9.386426],[-71.760742,9.335742],[-71.781348,9.25],[-71.740137,9.133887],[-71.686719,9.07251],[-71.619531,9.047949],[-71.536621,9.048291],[-71.297949,9.125635],[-71.241406,9.160449],[-71.205371,9.222461],[-71.08584,9.348242],[-71.078418,9.510791],[-71.052686,9.705811],[-71.081738,9.833203],[-71.207227,10.0146],[-71.262207,10.143604],[-71.386621,10.26377],[-71.462793,10.469238],[-71.494238,10.533203],[-71.517871,10.621826],[-71.543001,10.769164],[-71.49944,10.743354],[-70.546925,11.166632],[-69.929714,11.354479],[-69.735524,11.413581],[-69.269337,11.393743],[-68.927981,11.379217],[-68.906484,11.378302],[-68.468858,11.20888],[-68.398633,11.160986],[-68.354652,11.075232],[-68.335817,10.736225]]],[[[-70.064351,-53.410018],[-70.090381,-53.418164],[-70.212842,-53.413965],[-70.329297,-53.377637],[-70.415674,-53.304785],[-70.460254,-53.20625],[-70.459961,-53.143359],[-70.447207,-53.098947],[-70.064351,-53.410018]]],[[[-69.435658,-53.920831],[-66.631093,-54.397149],[-66.296076,-54.508807],[-66.235645,-54.533496],[-66.164707,-54.552591],[-66.057166,-54.588434],[-65.578557,-54.74795],[-65.349242,-54.824378],[-65.305141,-54.839077],[-65.345996,-54.87793],[-65.471143,-54.914648],[-65.60332,-54.928125],[-65.722754,-54.926367],[-65.841992,-54.909961],[-65.95376,-54.919336],[-66.060645,-54.956738],[-66.172021,-54.975293],[-66.286768,-54.977734],[-66.398682,-55.009375],[-66.511133,-55.032129],[-66.627686,-55.013281],[-66.930469,-54.924902],[-67.1271,-54.903809],[-67.793262,-54.868652],[-68.007129,-54.848437],[-68.220117,-54.817578],[-68.331689,-54.816309],[-68.491016,-54.83623],[-68.618652,-54.833789],[-68.653223,-54.853613],[-68.803857,-54.853613],[-68.843555,-54.876758],[-69.081641,-54.909863],[-69.486279,-54.858887],[-69.587549,-54.812793],[-69.723437,-54.712109],[-69.771826,-54.73916],[-69.899463,-54.781836],[-70.030294,-54.81547],[-70.255064,-54.760347],[-70.259082,-54.756348],[-70.281738,-54.751758],[-70.285725,-54.752828],[-70.73705,-54.642144],[-71.465025,-54.430136],[-71.393408,-54.400195],[-71.355225,-54.39541],[-71.158838,-54.450586],[-71.079932,-54.444238],[-70.966455,-54.419531],[-70.946191,-54.398047],[-70.928174,-54.360059],[-70.898242,-54.337891],[-70.797266,-54.327246],[-70.698828,-54.348828],[-70.687549,-54.414746],[-70.701123,-54.485449],[-70.572998,-54.504395],[-70.41792,-54.502246],[-70.310986,-54.528516],[-70.297656,-54.485547],[-70.468311,-54.373242],[-70.53999,-54.303418],[-70.636133,-54.262305],[-70.759863,-54.241309],[-70.863086,-54.110449],[-70.856738,-53.995801],[-70.867725,-53.88418],[-70.644482,-53.822852],[-70.695605,-53.727441],[-70.61875,-53.655078],[-70.531299,-53.627344],[-70.443164,-53.893457],[-70.379736,-53.986719],[-70.460547,-54.005664],[-70.629834,-54.005566],[-70.535303,-54.136133],[-70.37998,-54.180664],[-70.246094,-54.277441],[-70.243359,-54.347656],[-70.168994,-54.379297],[-69.990137,-54.381348],[-69.866992,-54.36748],[-69.809082,-54.320801],[-69.741846,-54.305859],[-69.62168,-54.364062],[-69.419287,-54.407129],[-69.364795,-54.437598],[-69.325098,-54.488184],[-69.322461,-54.542676],[-69.312061,-54.571484],[-69.253174,-54.557422],[-69.169189,-54.483301],[-69.127881,-54.457617],[-69.077246,-54.44502],[-69.045215,-54.428418],[-69.044336,-54.406738],[-69.195654,-54.354395],[-69.988135,-54.109082],[-70.085596,-54.011133],[-70.151123,-53.888086],[-70.148828,-53.761133],[-70.091113,-53.721777],[-69.949707,-53.671582],[-69.79441,-53.629345],[-69.435658,-53.920831]]],[[[-68.540665,-55.180788],[-68.381738,-55.191602],[-68.330078,-55.219434],[-68.30452,-55.238701],[-68.540665,-55.180788]]],[[[-69.51224,-54.942518],[-68.900781,-55.017773],[-68.653516,-54.95791],[-68.458008,-54.959668],[-68.399805,-55.041992],[-68.598096,-55.12832],[-68.613281,-55.155566],[-68.599901,-55.166261],[-69.51224,-54.942518]]],[[[-71.95171,-54.288399],[-71.972363,-54.207227],[-72.091553,-54.11875],[-72.210449,-54.047754],[-72.146045,-53.938867],[-72.068945,-53.921289],[-71.996484,-53.884863],[-71.705127,-53.92334],[-71.55415,-53.956055],[-71.390479,-54.032812],[-71.16875,-54.112598],[-71.021924,-54.111816],[-71.022852,-54.161719],[-71.004883,-54.24668],[-71.028027,-54.281152],[-71.082959,-54.316309],[-71.117529,-54.366309],[-71.143262,-54.374023],[-71.304639,-54.313574],[-71.473291,-54.231152],[-71.558105,-54.245605],[-71.670605,-54.225391],[-71.76123,-54.229785],[-71.817578,-54.276465],[-71.924344,-54.296369],[-71.95171,-54.288399]]],[[[-72.860983,-54.023591],[-72.781689,-53.954785],[-72.76377,-53.864844],[-72.871729,-53.848535],[-72.936133,-53.86084],[-72.984229,-53.860547],[-73.039453,-53.832813],[-73.073047,-53.875293],[-73.085547,-53.915918],[-73.082767,-53.927666],[-73.284341,-53.757591],[-73.313073,-53.733349],[-73.314355,-53.729199],[-73.324805,-53.722656],[-73.325705,-53.722691],[-73.586537,-53.502618],[-73.596196,-53.420519],[-73.44707,-53.410059],[-73.365869,-53.470215],[-73.099365,-53.511914],[-73.115332,-53.448047],[-73.110889,-53.425195],[-73.074316,-53.396777],[-73.053613,-53.394434],[-73.02207,-53.414551],[-72.970947,-53.423047],[-72.947266,-53.44248],[-72.923242,-53.481641],[-72.896289,-53.562793],[-72.882227,-53.57832],[-72.809375,-53.565332],[-72.685498,-53.55791],[-72.482275,-53.588086],[-72.459229,-53.598828],[-72.3729,-53.6875],[-72.306689,-53.725391],[-72.20542,-53.807422],[-72.30625,-53.862109],[-72.365967,-53.94082],[-72.369141,-53.980762],[-72.408545,-54.003809],[-72.470508,-54.027734],[-72.562891,-54.07373],[-72.671793,-54.078689],[-72.860983,-54.023591]]],[[[-73.636348,-53.07924],[-73.549268,-53.125684],[-73.504541,-53.140039],[-73.450586,-53.144336],[-73.310352,-53.247656],[-73.30249,-53.259473],[-73.143359,-53.340918],[-73.135205,-53.353906],[-73.225732,-53.358398],[-73.409375,-53.320508],[-73.501025,-53.318457],[-73.567285,-53.306836],[-73.582812,-53.300195],[-73.595947,-53.25293],[-73.61709,-53.229688],[-73.61877,-53.228649],[-73.636348,-53.07924]]],[[[-73.178741,-44.342899],[-73.028418,-44.384082],[-72.842432,-44.457715],[-72.776367,-44.508594],[-72.764063,-44.549023],[-72.845312,-44.638477],[-72.897168,-44.712012],[-72.986133,-44.780078],[-73.228467,-44.859961],[-73.315225,-44.84086],[-73.178741,-44.342899]]],[[[-80.264739,-2.905302],[-80.249805,-2.811914],[-80.223682,-2.753125],[-80.145703,-2.696289],[-80.080762,-2.668848],[-79.997266,-2.673828],[-79.909033,-2.725586],[-80.013232,-2.819531],[-80.071191,-2.833789],[-80.093408,-2.845898],[-80.131592,-2.973145],[-80.150684,-3.011719],[-80.201996,-3.009873],[-80.264739,-2.905302]]],[[[-67.874121,-54.929687],[-67.424561,-54.968945],[-67.245264,-54.977637],[-67.107324,-55.063574],[-67.085498,-55.115234],[-67.079932,-55.153809],[-67.109473,-55.19209],[-67.172559,-55.242578],[-67.257422,-55.281836],[-67.339697,-55.292578],[-67.399268,-55.272266],[-67.429395,-55.236523],[-67.443262,-55.201172],[-67.463477,-55.181738],[-67.494727,-55.177441],[-67.535254,-55.178516],[-67.585205,-55.191992],[-67.691455,-55.242969],[-67.736963,-55.256445],[-67.767773,-55.25957],[-68.07002,-55.221094],[-68.099512,-55.206836],[-68.135107,-55.172656],[-68.174316,-55.071289],[-68.301367,-54.980664],[-68.106934,-54.929395],[-67.874121,-54.929687]]]]}},{"type":"Feature","properties":{"id":"greatdividing"},"geometry":{"type":"Polygon","coordinates":[[[146.85377,-38.022149],[146.659679,-38.027032],[146.163829,-38.00921],[146.06422,-37.993341],[145.975108,-37.964654],[145.812144,-37.894708],[145.722667,-37.869928],[144.906016,-37.751642],[144.344859,-37.632379],[144.126231,-37.610894],[144.035655,-37.584405],[143.96046,-37.532159],[143.890758,-37.443902],[143.838878,-37.357599],[143.809337,-37.280694],[143.81068,-37.205987],[143.851695,-37.125787],[144.012706,-37.007501],[144.229137,-36.956353],[145.471202,-36.896539],[145.852306,-36.827325],[146.217052,-36.658258],[146.937144,-36.206109],[147.792369,-35.588311],[147.995128,-35.394952],[148.176646,-35.179742],[148.337657,-34.937677],[148.671886,-34.306573],[149.086192,-33.372247],[149.165538,-33.122491],[149.208263,-32.853204],[149.212413,-32.538995],[149.17982,-32.226251],[149.112315,-31.961847],[149.06129,-31.83941],[149.04005,-31.779962],[149.024425,-31.710626],[148.998057,-31.518487],[148.995372,-31.416803],[149.008922,-31.32464],[149.074351,-31.189264],[149.180064,-31.04815],[149.749889,-30.415948],[150.036632,-30.153009],[150.223155,-30.009942],[150.423595,-29.884576],[150.628429,-29.791925],[151.022227,-29.580499],[151.302989,-29.274713],[151.482432,-28.894342],[151.572765,-28.458551],[151.59547,-27.755548],[151.645763,-27.297174],[151.614635,-27.070855],[151.530772,-26.856256],[151.393443,-26.662896],[151.333263,-26.612115],[151.264171,-26.573175],[151.122569,-26.503351],[150.896983,-26.349054],[150.816661,-26.304376],[150.688121,-26.257257],[150.554454,-26.230523],[150.192321,-26.210092],[150.154185,-26.20794],[149.824817,-26.164529],[148.66212,-26.011285],[148.410411,-25.986749],[148.257823,-25.949395],[148.122569,-25.877618],[147.528087,-25.405694],[147.218394,-25.07818],[147.109752,-24.983453],[146.36378,-24.492608],[146.242931,-24.39068],[146.135142,-24.278375],[145.625499,-23.625421],[145.486827,-23.404474],[144.490489,-21.531427],[144.080089,-20.602105],[144.013682,-20.397393],[143.962169,-20.188775],[143.930186,-19.982232],[143.91627,-19.43731],[143.893077,-19.265313],[143.861705,-19.174493],[143.772594,-18.999933],[143.738048,-18.907403],[143.715831,-18.812555],[143.699474,-18.716485],[143.689342,-18.619561],[143.667491,-18.028863],[143.613536,-17.53338],[143.263682,-15.49627],[143.064859,-14.840455],[143.031383,-14.730035],[142.982921,-14.509942],[142.893809,-13.829278],[142.843272,-13.643853],[142.715099,-13.290704],[142.680797,-13.095636],[142.690196,-12.913385],[142.746471,-12.742852],[142.85963,-12.657525],[143.04005,-12.731134],[143.174449,-12.892511],[143.283946,-13.111139],[143.363292,-13.344659],[143.475841,-13.878839],[143.531261,-14.035943],[143.606212,-14.187799],[143.803233,-14.508233],[143.804685,-14.510186],[143.918224,-14.662896],[144.043101,-14.795465],[144.181163,-14.895929],[144.638682,-15.132989],[144.778697,-15.253228],[144.879283,-15.396173],[145.6143,-16.795818],[145.695079,-16.94964],[145.829234,-17.319146],[145.882213,-17.699395],[145.882823,-17.990167],[145.889507,-18.096932],[145.891856,-18.134454],[145.914073,-18.274957],[146.067149,-18.682794],[146.31129,-18.995172],[146.634898,-19.238458],[147.14088,-19.494806],[147.358287,-19.621148],[147.725597,-19.862481],[147.970103,-20.049249],[148.203502,-20.251642],[148.428722,-20.471612],[148.622203,-20.689874],[148.799083,-20.921319],[148.88148,-21.017511],[148.972911,-21.110528],[149.056651,-21.20794],[149.116588,-21.317682],[149.575206,-22.523248],[149.679576,-22.695733],[149.809093,-22.849786],[149.979503,-23.008233],[150.534068,-23.463311],[150.792979,-23.702325],[152.554576,-25.862481],[152.635997,-25.995294],[152.701915,-26.138849],[152.747203,-26.305108],[152.782848,-26.645074],[152.848888,-27.05877],[152.8744,-27.13421],[152.920421,-27.230279],[152.938853,-27.278009],[152.980479,-27.491266],[153.023204,-27.64483],[153.205943,-28.107476],[153.248546,-28.275689],[153.274791,-28.448419],[153.299571,-28.902398],[153.29005,-29.178521],[153.27296,-29.314874],[153.24171,-29.451104],[153.198619,-29.584405],[153.091197,-29.828668],[152.979747,-30.037652],[152.961558,-30.082818],[152.928477,-30.272638],[152.743297,-30.997979],[152.674815,-31.196588],[152.47523,-31.66253],[152.103282,-32.36651],[152.011119,-32.48211],[151.284434,-33.226007],[151.126231,-33.413751],[151.006847,-33.601251],[150.919444,-33.800836],[150.778331,-34.222833],[150.646495,-34.554742],[150.320445,-35.189386],[149.996471,-35.744073],[149.869273,-35.993829],[149.771739,-36.25506],[149.717296,-36.53631],[149.706554,-36.824518],[149.673839,-36.956598],[149.586192,-37.081476],[149.462779,-37.185846],[149.319347,-37.281305],[149.171153,-37.358941],[149.032725,-37.409478],[148.603404,-37.484796],[148.461192,-37.523126],[147.54835,-37.88482],[147.2317,-37.973565],[147.045909,-38.004693],[146.85377,-38.022149]]]}}]}
