{"type":"FeatureCollection","features":[{"type":"Feature","geometry":{"type":"LineString","coordinates":[[91.62834,27.85269],[91.68013,27.84982],[91.72987,27.80414],[91.82659,27.80763],[91.85637,27.76454],[91.86491,27.72999],[91.90874,27.7319],[91.95225,27.72482],[91.9889,27.7694],[92.06488,27.76172],[92.10616,27.78608],[92.12629,27.81272],[92.23957,27.86528],[92.24918,27.86264],[92.27523,27.81169],[92.28876,27.79309],[92.30385,27.78616],[92.31729,27.80368],[92.32918,27.83293],[92.33465,27.83127],[92.33982,27.81556],[92.35005,27.80254],[92.36793,27.80383],[92.38106,27.84246],[92.39284,27.85603],[92.40442,27.85383],[92.41734,27.82895],[92.42757,27.82117],[92.43904,27.82329],[92.47511,27.8466],[92.51815,27.83947],[92.57498,27.84781],[92.59291,27.86819],[92.63647,27.89537],[92.68367,27.91045],[92.73639,27.98591],[92.70135,28.02524],[92.70135,28.03783],[92.68926,28.04832],[92.65422,28.05209],[92.63892,28.05749],[92.63727,28.07198],[92.65484,28.10583],[92.67861,28.13306],[92.70786,28.15541],[92.77917,28.1959],[92.79023,28.1789],[92.8199,28.17926],[92.83478,28.18353],[92.86537,28.20521],[92.90382,28.2497],[92.96035,28.27021],[92.97492,28.28231],[93.12983,28.32596],[93.20783,28.34054],[93.21807,28.39465],[93.18629,28.432],[93.21884,28.45744],[93.28697,28.52052],[93.31717,28.60346],[93.44621,28.67189],[93.55174,28.67895],[93.62553,28.67236],[93.66491,28.69024],[93.70553,28.69189],[93.72248,28.69665],[93.78174,28.6805],[93.86308,28.70487],[93.92779,28.68275],[93.96109,28.72994],[93.98159,28.76813],[93.99314,28.80189],[93.99202,28.84465],[94.02685,28.86418],[94.07947,28.88307],[94.1354,28.89779],[94.17366,28.93016],[94.25018,28.93311],[94.29139,28.97726],[94.34731,29.02435],[94.27079,29.09793],[94.28751,29.14794],[94.32378,29.14603],[94.33577,29.14962],[94.37288,29.19631],[94.39644,29.20708],[94.47499,29.2108],[94.51478,29.22106],[94.52863,29.23124],[94.58268,29.30292],[94.59994,29.31664],[94.63043,29.31945],[94.66846,29.30661],[94.70422,29.2847],[94.75642,29.23052],[94.76768,29.21385],[94.76148,29.17471],[94.77657,29.1667],[94.85409,29.17],[94.89129,29.1605],[94.98907,29.15398],[95.04767,29.14081],[95.09903,29.11378],[95.11691,29.1081],[95.1997,29.09425],[95.20786,29.0896],[95.21634,29.065],[95.22492,29.05936],[95.28155,29.05267],[95.36741,29.0365],[95.42982,29.04653],[95.48758,29.06899],[95.51131,29.13179],[95.52144,29.13786],[95.52268,29.16119],[95.51193,29.19755],[95.51534,29.20943],[95.55017,29.21248],[95.55379,29.23904],[95.56443,29.24561],[95.59234,29.24969],[95.6467,29.22835],[95.71717,29.21828],[95.74737,29.27365],[95.74478,29.34043],[95.77641,29.34555],[95.79594,29.35289],[95.86313,29.32399],[95.95374,29.35922],[96.07454,29.36929],[96.14197,29.36847],[96.15096,29.35408],[96.16605,29.30317],[96.17628,29.28646],[96.20542,29.25695],[96.23529,29.24121],[96.26785,29.24173],[96.32325,29.27501],[96.3371,29.27971],[96.34991,29.27424],[96.36624,29.25723],[96.36686,29.24421],[96.34237,29.21065],[96.32748,29.18044],[96.31643,29.17186],[96.21008,29.14577],[96.19364,29.13693],[96.17463,29.10885],[96.17595,29.01735],[96.19532,28.94111],[96.24859,28.94534],[96.29734,28.99506]]},"properties":{"id":"mcmahon","kind":"trace","bdPov":"shown","nameEn":"McMahon Line","nameBn":"ম্যাকমাহন লাইন","status":"active"}},{"type":"Feature","geometry":{"type":"LineString","coordinates":[[96.29465,28.99232],[96.36657,29.03654],[96.45761,28.99459],[96.4512,28.98139],[96.45213,28.97038],[96.46009,28.96335],[96.47466,28.96206],[96.49223,28.948],[96.51083,28.88553],[96.52375,28.86442],[96.57667,28.80853],[96.59258,28.75788],[96.59801,28.70991],[96.50104,28.68763],[96.50238,28.64448],[96.40902,28.55893],[96.33646,28.47967],[96.30185,28.42071],[96.36964,28.37812],[96.44113,28.39542],[96.49523,28.42147],[96.56152,28.44729],[96.71692,28.43654],[96.93396,28.33662],[96.96579,28.33047],[96.99742,28.33708],[97.03297,28.35703],[97.07845,28.37514],[97.11555,28.36656],[97.18273,28.31499],[97.21053,28.30809],[97.22076,28.28339],[97.22965,28.27461],[97.28526,28.23567],[97.3235,28.21748]]},"properties":{"id":"mcmahon","kind":"trace","bdPov":"shown","nameEn":"McMahon Line","nameBn":"ম্যাকমাহন লাইন","status":"active"}},{"type":"Feature","geometry":{"type":"LineString","coordinates":[[75.2984,32.33243],[75.32691,32.31247],[75.35295,32.28439],[75.35905,32.26167],[75.34861,32.24201],[75.31657,32.21075],[75.29466,32.14889],[75.24991,32.14889],[75.19575,32.12863],[75.17312,32.10972],[75.17415,32.08683],[75.13839,32.09349],[75.11896,32.08104],[75.10211,32.07809],[75.04083,32.09799],[75.02263,32.09468],[75.03018,32.06642],[74.99556,32.0674],[74.98615,32.06321],[74.96786,32.03789],[74.95566,32.03221],[74.8891,32.0289],[74.87319,32.01169],[74.82864,32.02544],[74.81128,32.00373],[74.80249,31.96885],[74.78368,31.94286],[74.76301,31.93898],[74.69842,31.95025],[74.67,31.90415],[74.64106,31.89056],[74.55042,31.827],[74.5408,31.81088],[74.53512,31.77114],[74.52303,31.75848],[74.51621,31.73739],[74.50329,31.73057],[74.48944,31.71119],[74.55558,31.61223],[74.58452,31.51751],[74.6146,31.47782],[74.61718,31.45891],[74.61191,31.4402],[74.5716,31.38925],[74.53223,31.30321],[74.5253,31.28021],[74.52509,31.23541],[74.50907,31.19567],[74.50639,31.17541],[74.50959,31.15608],[74.51486,31.14182],[74.53677,31.11516],[74.5531,31.10896],[74.59692,31.11578],[74.61698,31.11526],[74.63196,31.10751],[74.65883,31.08379],[74.60096,31.05661],[74.57946,31.04271],[74.56427,31.02503],[74.56406,31.00436],[74.51931,30.96245],[74.49946,30.95651],[74.45854,30.95341],[74.44159,30.94617],[74.42433,30.93233],[74.40913,30.90101],[74.40128,30.8931],[74.34247,30.90194],[74.31922,30.89341],[74.30402,30.87403],[74.31136,30.85595],[74.3002,30.83817],[74.27994,30.82468],[74.2602,30.81941],[74.25669,30.81528],[74.26671,30.78835],[74.23571,30.76412],[74.21514,30.73745],[74.19116,30.71704],[74.18465,30.69684],[74.17008,30.68717],[74.16367,30.6649],[74.15571,30.65958],[74.13266,30.65549],[74.11148,30.64624],[74.09587,30.63715],[74.06745,30.61054],[74.05711,30.59157],[74.06145,30.5556],[74.05753,30.53137],[74.04409,30.51866],[74.0044,30.50894],[73.93908,30.42605],[73.92927,30.41908],[73.91666,30.41716],[73.89991,30.42212],[73.90611,30.39484],[73.88761,30.39654],[73.86767,30.38745],[73.85175,30.37267],[73.84234,30.35298],[73.89164,30.32978],[73.9119,30.30378],[73.93464,30.26105],[73.9489,30.21728],[73.94435,30.18829],[73.77827,30.06731],[73.73972,30.04845],[73.55782,30.01254],[73.38522,29.94231],[73.37033,29.92732],[73.32744,29.80521]]},"properties":{"id":"radcliffe","kind":"trace","bdPov":"shown","nameEn":"Radcliffe Line (Punjab)","nameBn":"র‍্যাডক্লিফ লাইন (পাঞ্জাব)","status":"active"}},{"type":"Feature","geometry":{"type":"LineString","coordinates":[[92.25156,25.0808],[92.23368,25.08496],[92.20805,25.09811],[92.1727,25.13196],[92.16474,25.13356],[92.151,25.12973],[92.13859,25.1364],[92.11617,25.13945],[92.09291,25.16472],[92.034,25.18167],[92.00175,25.18296],[91.95628,25.16978],[91.90057,25.17759],[91.7937,25.16534],[91.74534,25.16937],[91.73014,25.16746],[91.71071,25.14467],[91.6889,25.15299],[91.67743,25.15263],[91.67226,25.1365],[91.66203,25.1272],[91.63868,25.12405],[91.5962,25.12891],[91.58018,25.1409],[91.56612,25.15996],[91.54876,25.1611],[91.52344,25.14519],[91.48075,25.13526],[91.43187,25.13795],[91.28397,25.17898],[91.2357,25.20193],[91.22495,25.20162],[91.20315,25.19133],[91.19085,25.18947],[91.13535,25.19123],[90.97515,25.16782],[90.94342,25.15743],[90.82198,25.14229],[90.79397,25.14539],[90.75397,25.16756],[90.73796,25.16942],[90.72204,25.15661],[90.70767,25.15299],[90.67057,25.15878],[90.6376,25.17108],[90.62344,25.17144],[90.58334,25.16203],[90.50138,25.1688],[90.39978,25.14901],[90.36464,25.14999],[90.28692,25.18007],[90.13009,25.21159],[89.90813,25.29691],[89.8702,25.29556],[89.8346,25.28244],[89.81904,25.28497],[89.80737,25.3045],[89.79853,25.34006],[89.79502,25.37416],[89.8007,25.41287],[89.82323,25.48914],[89.82509,25.56449],[89.83439,25.63477],[89.82421,25.67409],[89.80153,25.72468],[89.78313,25.81445],[89.78695,25.83915],[89.83005,25.90798],[89.83439,25.93175],[89.82643,25.93749],[89.81072,25.93878],[89.79202,25.94912],[89.81155,25.95521],[89.82561,25.9657],[89.82866,25.9794],[89.81414,25.99614],[89.79553,25.98596],[89.78943,25.98798],[89.75584,26.03242],[89.75021,26.04156],[89.74985,26.08389],[89.72877,26.11417],[89.71848,26.14554],[89.70655,26.15417],[89.67037,26.15412],[89.6558,26.1613],[89.65838,26.20786],[89.65301,26.22269],[89.63492,26.22584],[89.61332,26.21938],[89.6064,26.21101],[89.60846,26.18068],[89.61528,26.1691],[89.61441,26.16419],[89.58676,26.16921],[89.57343,26.16073],[89.56278,26.14259],[89.5694,26.13009],[89.58578,26.1229],[89.60423,26.12073],[89.56692,26.09898],[89.56702,26.08709],[89.57694,26.08265],[89.60386,26.08466],[89.61136,26.07221],[89.60288,26.05526],[89.55916,26.02224],[89.55069,25.99506],[89.54909,25.96886],[89.5417,25.95971],[89.52842,25.95713],[89.51818,25.96209],[89.49534,25.99506],[89.48563,25.99872],[89.41127,25.9932],[89.39142,26.01547],[89.37974,26.01531],[89.35148,25.99686],[89.3353,25.99857],[89.29691,26.01816],[89.27298,26.04348],[89.23763,26.0581],[89.21262,26.09898],[89.13159,26.13376],[89.11919,26.14662],[89.1117,26.1645],[89.10338,26.22517],[89.06943,26.28739],[89.06886,26.31426],[89.08033,26.3156],[89.0948,26.30951],[89.10353,26.31369],[89.10291,26.32734],[89.09573,26.33452],[89.05522,26.34702],[89.05728,26.36263],[89.05263,26.37462],[89.04374,26.38108],[89.01088,26.39017],[88.98654,26.4127],[88.95016,26.43694],[88.94101,26.43942],[88.92458,26.43214],[88.91197,26.42123],[88.89125,26.38578],[88.89187,26.36878],[88.91243,26.34894],[88.96602,26.32847],[88.97532,26.29995],[88.98173,26.29183],[88.98969,26.2894],[89.00798,26.29716],[89.00437,26.27571],[89.0116,26.2692],[89.03434,26.26579],[89.03971,26.24719],[89.01946,26.23447],[88.97532,26.22434],[88.94685,26.23292],[88.90272,26.27292],[88.87579,26.27736],[88.85564,26.26512],[88.84065,26.23204],[88.82484,26.22657],[88.808,26.23344],[88.78402,26.27995],[88.74795,26.29251],[88.6634,26.26444],[88.64583,26.27602],[88.65328,26.2831],[88.69012,26.29984],[88.70299,26.30966],[88.71224,26.32827],[88.70971,26.34062],[88.67338,26.36072],[88.66744,26.36816],[88.66852,26.38573],[88.65224,26.39152],[88.64987,26.39839],[88.65627,26.41513],[88.63302,26.42009],[88.61152,26.43084],[88.59116,26.46123],[88.57917,26.46603],[88.54977,26.46665],[88.52682,26.47539],[88.50683,26.48764],[88.46238,26.52882],[88.41102,26.5451],[88.39789,26.55869],[88.39438,26.61802],[88.38528,26.62354],[88.37252,26.61161],[88.35283,26.57869],[88.33237,26.51466],[88.31387,26.48154],[88.31511,26.46505],[88.32255,26.45177],[88.33562,26.44821],[88.34022,26.45415],[88.34301,26.4772],[88.34652,26.48402],[88.35355,26.48459],[88.37691,26.47534],[88.43458,26.46516],[88.46114,26.45389],[88.47541,26.43203],[88.49546,26.37808],[88.49763,26.35271],[88.47541,26.35581],[88.44864,26.35343],[88.43169,26.36222],[88.41381,26.3402],[88.36678,26.31343],[88.3366,26.28181],[88.33293,26.26724],[88.33454,26.2308],[88.32627,26.21592],[88.3087,26.2061],[88.21888,26.18016],[88.19692,26.15965],[88.1638,26.14047],[88.15563,26.12848],[88.13992,26.08533],[88.14116,26.07546],[88.15641,26.06141],[88.15791,26.05045],[88.15103,26.03133],[88.12587,26.0134],[88.10654,25.97997],[88.08804,25.92323],[88.0744,25.90814],[88.08204,25.86385],[88.08897,25.84866],[88.08757,25.83098],[88.10334,25.81481],[88.11491,25.78726],[88.12773,25.77491],[88.14643,25.77574],[88.18271,25.79243],[88.22746,25.80427],[88.25992,25.78902],[88.32027,25.72525],[88.39298,25.68076],[88.41944,25.65378],[88.42378,25.59224],[88.43779,25.57984],[88.47541,25.56258],[88.48559,25.54263],[88.51277,25.52371],[88.52047,25.5093],[88.53029,25.5002],[88.59359,25.49509],[88.64542,25.46734],[88.66635,25.46289],[88.67808,25.46589],[88.70619,25.49168],[88.73265,25.491],[88.74257,25.49519],[88.74195,25.51276],[88.77234,25.50196],[88.80582,25.47168],[88.81492,25.4586],[88.81632,25.43721],[88.79931,25.40171],[88.79962,25.39561],[88.81037,25.38843],[88.81833,25.35964],[88.842,25.33282],[88.84903,25.32719],[88.88019,25.32347],[88.90287,25.30342],[88.92649,25.30047],[88.97532,25.30264],[88.98271,25.29448],[88.98494,25.28497],[88.97532,25.26523],[88.93775,25.24017],[88.92907,25.22942],[88.93078,25.20265],[88.92788,25.19273],[88.90964,25.18916],[88.92416,25.16787],[88.89864,25.16932],[88.81709,25.19681],[88.80913,25.19526],[88.80252,25.18813],[88.79234,25.16658],[88.78422,25.16095],[88.72454,25.16648],[88.66459,25.18689],[88.63426,25.19226],[88.59912,25.19314],[88.59013,25.19014],[88.5707,25.17325],[88.55938,25.17076],[88.47541,25.1951],[88.4413,25.18973],[88.43148,25.17304],[88.43417,25.11666],[88.4258,25.05106],[88.41412,25.02152],[88.39102,24.99509],[88.38787,24.96876],[88.37567,24.94561],[88.34089,24.90414],[88.32275,24.87468],[88.31361,24.8683],[88.24276,24.8806],[88.24188,24.89877],[88.23284,24.91827],[88.21878,24.93515],[88.20245,24.9453],[88.18302,24.94698],[88.16452,24.94111],[88.11491,24.91641],[88.13806,24.8635],[88.14096,24.84458],[88.11739,24.81926],[88.10778,24.8011],[88.09481,24.80311],[88.08825,24.79614],[88.08401,24.77045],[88.07698,24.76118],[88.05321,24.75498],[88.04846,24.71121],[88.02716,24.67573],[88.02179,24.6456],[88.05724,24.63411],[88.06727,24.61367],[88.08184,24.59987],[88.08499,24.59388],[88.08602,24.53672],[88.09879,24.52248],[88.10995,24.50099],[88.13879,24.49525],[88.4013,24.36942],[88.47541,24.31547],[88.49835,24.31097],[88.5631,24.30821],[88.61245,24.29289],[88.63452,24.29413],[88.66015,24.33826],[88.6818,24.33389],[88.71456,24.31542],[88.73751,24.2871],[88.74981,24.22325],[88.7464,24.21408],[88.73162,24.18984],[88.69379,24.17532],[88.68377,24.16654],[88.67808,24.15429],[88.68299,24.12429],[88.6741,24.08264],[88.67901,24.07122],[88.69782,24.05626],[88.70092,24.04365],[88.725,24.03838],[88.72547,24.0289],[88.70159,23.99528],[88.71436,23.9644],[88.71715,23.94314],[88.71415,23.92516],[88.65312,23.86978],[88.63395,23.86614],[88.59359,23.86692],[88.57762,23.85516],[88.57437,23.84563],[88.57752,23.81852],[88.55271,23.77498],[88.55251,23.76542],[88.56119,23.74101],[88.5401,23.64995],[88.54155,23.63877],[88.56636,23.62874],[88.56171,23.60202],[88.57142,23.59233],[88.58155,23.58833],[88.60925,23.58879],[88.62423,23.57386],[88.64764,23.53508],[88.66449,23.51831],[88.70464,23.49518],[88.71942,23.4681],[88.73193,23.47263],[88.74371,23.48932],[88.75684,23.4988],[88.77017,23.48883],[88.76789,23.46728],[88.71927,23.34829],[88.68594,23.29331],[88.68661,23.2716],[88.69658,23.25235],[88.71002,23.24122],[88.7757,23.22163],[88.78619,23.22153],[88.80955,23.23605],[88.82267,23.23796],[88.91807,23.20858],[88.95424,23.20742],[88.95998,23.20269],[88.9547,23.18381],[88.86479,23.10027],[88.8513,23.07513],[88.84872,23.02384],[88.83941,22.99537],[88.83879,22.97581],[88.84277,22.96457],[88.87218,22.92677],[88.89347,22.87964],[88.90515,22.86644],[88.9331,22.85812],[88.94452,22.84801],[88.94514,22.81509],[88.93688,22.78233],[88.90814,22.74078],[88.93,22.65862],[88.95202,22.6119],[88.95641,22.58498],[88.95031,22.56198],[88.92799,22.54813],[88.95905,22.53682],[88.97098,22.52793],[88.97997,22.49093],[88.99837,22.45124],[89.00251,22.42799],[88.98948,22.39667],[89.00152,22.33368],[89.02354,22.29482],[89.00912,22.28562],[89.01863,22.26469],[89.0623,22.21157],[89.0762,22.17503],[89.07816,22.15085],[89.06069,22.13049],[89.05506,22.11731],[89.04891,22.07886],[89.07248,22.0168],[89.07645,21.99246],[89.07496,21.95716],[89.06999,21.93608],[89.02648,21.91623],[89.02648,21.88394],[89.04023,21.78963],[89.07279,21.73945],[89.1072,21.69625],[89.13382,21.64581]]},"properties":{"id":"radcliffe","kind":"trace","bdPov":"shown","nameEn":"Radcliffe Line (Bengal)","nameBn":"র‍্যাডক্লিফ লাইন (বঙ্গ)","status":"active"}},{"type":"Feature","geometry":{"type":"LineString","coordinates":[[92.29683,23.44658],[92.29104,23.49529],[92.2528,23.60931],[92.25001,23.64262],[92.26169,23.68512],[92.25931,23.70649],[92.23874,23.71685],[92.2221,23.70778],[92.20939,23.66161],[92.1943,23.64814],[92.18076,23.66538],[92.17063,23.70365],[92.15079,23.73165],[92.10841,23.71824],[92.05963,23.65949],[92.04237,23.64556],[92.01901,23.64006],[92.00351,23.64742],[91.96165,23.69114],[91.93664,23.72354],[91.92269,23.72297],[91.91649,23.70987],[91.91442,23.68832],[91.91597,23.65016],[91.94233,23.53443],[91.94078,23.49518],[91.91814,23.45994],[91.90512,23.44663],[91.8891,23.43594],[91.83381,23.4139],[91.81768,23.40092],[91.79164,23.36834],[91.7626,23.32155],[91.74368,23.27233],[91.74916,23.23241],[91.76394,23.20063],[91.77903,23.13177],[91.79556,23.0895],[91.79133,23.08038],[91.77624,23.06526],[91.76094,23.06549],[91.75598,23.06154],[91.75505,23.04823],[91.73831,23.02467],[91.70699,22.99537],[91.69469,22.98813],[91.64694,22.97658],[91.62576,22.98154],[91.61666,22.97806],[91.6024,22.95297],[91.58607,22.94447],[91.57677,22.96881],[91.53656,22.98185],[91.52364,22.99521],[91.51941,23.00563],[91.51817,23.03508],[91.50328,23.04441],[91.4636,23.18412],[91.44644,23.19789],[91.44644,23.21554],[91.43993,23.22352],[91.43652,23.21486],[91.41357,23.24863],[91.39435,23.26266],[91.37213,23.26189],[91.36097,23.24752],[91.3557,23.22414],[91.3559,23.17965],[91.37461,23.09572],[91.37089,23.06278],[91.3374,23.07107],[91.31353,23.10105],[91.3005,23.14231],[91.27725,23.30326],[91.26578,23.32935],[91.28728,23.35555],[91.28397,23.36144],[91.27095,23.3646],[91.25813,23.37364],[91.2479,23.39377],[91.22733,23.46878],[91.22082,23.4779],[91.19508,23.49518],[91.18589,23.51156],[91.16987,23.56197],[91.14082,23.6121],[91.13628,23.62952],[91.13969,23.65357],[91.16646,23.65409],[91.17524,23.67031],[91.16894,23.68538],[91.13659,23.69889],[91.13235,23.72065],[91.14175,23.7399],[91.17658,23.74654],[91.19498,23.75517],[91.20521,23.77157],[91.22526,23.82614],[91.22816,23.84498],[91.21276,23.88074],[91.21193,23.89446],[91.21627,23.90839],[91.25038,23.96404],[91.27415,23.98823],[91.29162,23.99482],[91.32707,23.98787],[91.33906,23.99523],[91.34929,24.03605],[91.35084,24.07424],[91.36303,24.09985],[91.40458,24.10313],[91.48044,24.08801],[91.51755,24.0852],[91.55868,24.08967],[91.58183,24.0961],[91.59651,24.10499],[91.60602,24.11887],[91.61377,24.1401],[91.62906,24.21532],[91.6395,24.2117],[91.66617,24.15592],[91.68415,24.14548],[91.70368,24.14295],[91.72115,24.14899],[91.73262,24.16431],[91.72301,24.22098],[91.73293,24.23428],[91.80704,24.22113],[91.81376,24.18312],[91.84424,24.15532],[91.8645,24.15059],[91.87711,24.15804],[91.90595,24.26064],[91.90688,24.28035],[91.89644,24.32012],[91.89985,24.33805],[91.92186,24.34451],[91.95307,24.32299],[91.97219,24.31606],[91.97137,24.32968],[91.94884,24.36353],[91.94997,24.37539],[92.03338,24.36885],[92.06273,24.37102],[92.08826,24.38164],[92.10759,24.40598],[92.1112,24.4343],[92.10593,24.49525],[92.11089,24.51429],[92.15317,24.54455],[92.1636,24.5592],[92.18293,24.64726],[92.23378,24.77753],[92.23502,24.82477],[92.21766,24.87458],[92.22303,24.89138],[92.25218,24.90298],[92.29042,24.8913]]},"properties":{"id":"radcliffe","kind":"trace","bdPov":"shown","nameEn":"Radcliffe Line (Bengal)","nameBn":"র‍্যাডক্লিফ লাইন (বঙ্গ)","status":"active"}},{"type":"Feature","geometry":{"type":"LineString","coordinates":[[60.84438,29.85818],[60.87601,29.84552],[61.28042,29.73201],[62.02963,29.52164],[62.37447,29.42487],[62.47751,29.40782],[63.02363,29.45267],[63.56861,29.49748],[63.97199,29.42957],[64.08609,29.38661],[64.11338,29.3963],[64.14976,29.45846],[64.1726,29.4843],[64.20774,29.49998],[64.4777,29.57037],[64.82031,29.56789],[64.98661,29.54156],[65.03637,29.54016],[65.58781,29.68057],[66.19563,29.83534],[66.27521,29.88515],[66.32244,29.94655],[66.34053,29.95657],[66.26043,30.02313],[66.22524,30.04442],[66.2193,30.05786],[66.23635,30.1116],[66.30089,30.2256],[66.30529,30.24477],[66.30301,30.30528],[66.32182,30.43737],[66.31376,30.4783],[66.28193,30.51814],[66.26493,30.55783],[66.26798,30.60139],[66.36626,30.92287],[66.37536,30.93672],[66.39231,30.94462],[66.52749,30.96834],[66.55003,30.97697],[66.64397,31.06017],[66.66309,31.08312],[66.69699,31.19582],[66.72128,31.21029],[66.75952,31.21479],[66.78531,31.23179],[66.83848,31.27701],[66.90592,31.30553],[66.94328,31.31473],[67.00209,31.31587],[67.01682,31.30915],[67.0239,31.2953],[67.02597,31.27303],[67.01387,31.25267],[67.01527,31.24466],[67.03527,31.23592],[67.07847,31.23205],[67.11686,31.24032],[67.13676,31.24109],[67.21376,31.21226],[67.28218,31.21277],[67.3462,31.20776],[67.3646,31.21071],[67.4339,31.23608],[67.49333,31.24295],[67.53022,31.25665],[67.58366,31.26523],[67.60216,31.27112],[67.66593,31.30626],[67.6928,31.32522],[67.70902,31.3293],[67.74944,31.32801],[67.76473,31.33406],[67.77507,31.35276],[67.77036,31.39467],[67.73429,31.40475],[67.65115,31.39529],[67.63141,31.4001],[67.61146,31.4108],[67.59699,31.42568],[67.5911,31.4648],[67.5634,31.49725],[67.55611,31.51219],[67.56898,31.52986],[67.6005,31.53048],[67.66546,31.51813],[67.69631,31.52082],[67.7267,31.53141],[67.78117,31.56417],[67.84271,31.6235],[67.87067,31.63518],[67.9147,31.63135],[67.95521,31.63321],[67.96606,31.63823],[67.97733,31.65187],[67.99407,31.66344],[68.04658,31.6884],[68.05226,31.69543],[68.06048,31.72556],[68.0935,31.75155],[68.12574,31.8115],[68.13856,31.82467],[68.15913,31.82591],[68.20682,31.80788],[68.2323,31.79015],[68.25504,31.76638],[68.35607,31.76251],[68.46097,31.73047],[68.49802,31.72525],[68.53683,31.74101],[68.5498,31.75352],[68.5406,31.76251],[68.43957,31.76659],[68.42221,31.77315],[68.41875,31.78302],[68.43818,31.79605],[68.5051,31.82266],[68.52748,31.82297],[68.56107,31.81181],[68.61946,31.78349],[68.67579,31.7747],[68.68829,31.76861],[68.69491,31.75636],[68.69791,31.71595],[68.70545,31.70127],[68.73118,31.67554],[68.77728,31.61859],[68.80384,31.60257],[68.84353,31.6065],[68.90699,31.6343],[68.94099,31.64365],[68.97727,31.64148],[69.00404,31.65109],[69.04011,31.67311],[69.07163,31.69786],[69.08475,31.71579],[69.10005,31.72401],[69.11431,31.73775],[69.22376,31.88193],[69.25095,31.90705],[69.29885,31.93769],[69.30479,31.94694],[69.30216,31.95991],[69.27063,32.03598],[69.25105,32.13065],[69.2681,32.30134],[69.26443,32.32237],[69.23854,32.37828],[69.228,32.4213],[69.23286,32.46267],[69.25157,32.50055],[69.28195,32.5328],[69.30211,32.54378],[69.34355,32.55605],[69.36122,32.56848],[69.42603,32.65509],[69.42913,32.66736],[69.41466,32.72558],[69.38324,32.74446],[69.37807,32.75232],[69.37631,32.77188],[69.38717,32.78534],[69.42106,32.80681],[69.44556,32.83567],[69.47729,32.85683],[69.48721,32.88588],[69.4685,32.99429],[69.48773,33.02837],[69.51419,33.05669],[69.54752,33.07501],[69.64069,33.08424],[69.66777,33.077],[69.68601,33.08077],[69.73298,33.1093],[69.77184,33.11478],[69.83871,33.08666],[69.88093,33.08925],[69.95581,33.1277],[69.99473,33.12733],[70.00687,33.1318],[70.01452,33.14077],[70.048,33.19407],[70.05979,33.19805],[70.08366,33.19128],[70.10536,33.18981],[70.12479,33.19903],[70.29445,33.31895],[70.30158,33.35179],[70.28572,33.38287],[70.23301,33.43261],[70.22045,33.45602],[70.17761,33.47341],[70.16376,33.48866],[70.15497,33.50661],[70.15301,33.54475],[70.17347,33.60787],[70.17409,33.63211],[70.17022,33.63867],[70.14598,33.64988],[70.13255,33.66143],[70.11813,33.71652],[70.10815,33.7273],[70.06557,33.72102],[70.01183,33.74032],[69.97266,33.74484],[69.95752,33.7527],[69.93132,33.80644],[69.89876,33.8515],[69.88543,33.88946],[69.87649,33.90256],[69.84719,33.92695],[69.84109,33.94181],[69.87199,33.97152],[69.87261,34.01723],[69.88925,34.03121],[69.91602,34.03888],[69.96909,34.04573],[70.00284,34.04379],[70.21885,33.98069],[70.27559,33.97617],[70.32819,33.95728],[70.40896,33.95441],[70.49149,33.93961],[70.52198,33.93871],[70.65618,33.95475],[70.79132,33.95356],[70.86222,33.96478],[70.88433,34.00705],[70.89431,34.00937],[70.93973,34.00092],[70.95399,34.00482],[70.97714,34.02741],[71.0467,34.04188],[71.06262,34.05425],[71.06727,34.07301],[71.06277,34.10531],[71.07388,34.12526],[71.10179,34.15182],[71.10809,34.16523],[71.10949,34.18921],[71.09688,34.24435],[71.09709,34.26246],[71.12639,34.33222],[71.12205,34.35682],[71.05094,34.38979],[70.99151,34.44307],[70.97084,34.46888],[70.96123,34.48761],[70.95565,34.51001],[70.95699,34.532],[70.96867,34.54973],[70.98583,34.55619],[71.04753,34.55112],[71.06582,34.55846],[71.07657,34.57851],[71.07988,34.6029],[71.06877,34.64595],[71.07016,34.66125],[71.0806,34.67292],[71.15093,34.72031],[71.18954,34.73705],[71.20308,34.74816],[71.25563,34.81023],[71.28948,34.87503],[71.32493,34.89756],[71.45996,34.94267],[71.46957,34.9497],[71.48538,34.9835],[71.51133,35.00872],[71.51298,35.01812],[71.5075,35.0282],[71.50895,35.07202],[71.53499,35.09858],[71.60414,35.13817],[71.62925,35.1701],[71.63793,35.18969],[71.63369,35.20312],[71.60321,35.22338],[71.54781,35.27563],[71.52983,35.30089],[71.53158,35.32792],[71.56228,35.36058],[71.61106,35.39546],[71.62088,35.41014],[71.62243,35.42962],[71.58781,35.47091],[71.58171,35.49313],[71.59287,35.53018],[71.59349,35.54936],[71.58419,35.56419],[71.56786,35.57421],[71.51277,35.59628],[71.49272,35.60956],[71.48332,35.62656],[71.51401,35.66558],[71.5198,35.68377],[71.51536,35.70149],[71.50275,35.71906],[71.47556,35.74102],[71.47112,35.75229],[71.47091,35.77994],[71.4644,35.79471],[71.4167,35.85885],[71.37133,35.88515],[71.36069,35.90029],[71.3564,35.93305],[71.34157,35.94726],[71.25744,35.97155],[71.23191,35.99398],[71.17093,36.027],[71.16592,36.04571],[71.17538,36.06116],[71.20762,36.08762],[71.22307,36.12539],[71.30209,36.16332],[71.31914,36.20058],[71.38244,36.21857],[71.40275,36.23138],[71.47908,36.30052],[71.49582,36.30962],[71.53892,36.31928],[71.55835,36.32786],[71.54223,36.35639],[71.54719,36.37163],[71.58036,36.40233],[71.60073,36.4493],[71.61044,36.45793],[71.62915,36.45953],[71.6493,36.45276],[71.70687,36.42145],[71.73632,36.39592],[71.751,36.39111],[71.78263,36.39654],[71.79441,36.4076],[71.79151,36.42129],[71.77456,36.44842],[71.77322,36.48005],[71.79379,36.49074],[71.85859,36.49416],[71.87471,36.49907],[71.91347,36.52759],[71.96091,36.54961],[71.97703,36.56304],[71.99781,36.57245],[72.03884,36.58046],[72.05496,36.59286],[72.0563,36.6019],[72.05041,36.61865],[72.0591,36.62712],[72.0961,36.6389],[72.15418,36.64547],[72.17165,36.65363],[72.14963,36.68934],[72.15346,36.7021],[72.16968,36.71135],[72.21361,36.72644],[72.30197,36.74272],[72.34621,36.74489],[72.38734,36.75579],[72.43313,36.75342],[72.45411,36.75796],[72.51674,36.8006],[72.56521,36.8206],[72.6296,36.83295],[72.69585,36.83672],[72.77936,36.8268],[72.86773,36.83042],[72.94586,36.85222],[72.97677,36.84209],[72.99051,36.84158],[73.0425,36.86426],[73.19184,36.87703],[73.2675,36.86654],[73.33178,36.88209],[73.37974,36.87925],[73.44588,36.88648],[73.50934,36.87868],[73.64008,36.89664],[73.77289,36.89201],[73.83408,36.88287],[73.86508,36.87258],[73.94694,36.83088],[74.00637,36.81574],[74.0353,36.81558],[74.09432,36.83124],[74.10393,36.84132],[74.10879,36.87563],[74.1153,36.88953],[74.12967,36.89842],[74.146,36.9017],[74.21173,36.89514],[74.23571,36.90217],[74.28459,36.93423],[74.3681,36.97676],[74.39404,36.99402],[74.43559,37.00322],[74.45698,37.00438],[74.48034,36.99692],[74.50174,36.97242],[74.52137,36.9585],[74.53739,36.96224],[74.54928,37.00893],[74.54235,37.02167]]},"properties":{"id":"durand","kind":"trace","bdPov":"shown","nameEn":"Durand Line","nameBn":"ডুরান্ড লাইন","status":"active"}},{"type":"Feature","geometry":{"type":"LineString","coordinates":[[75.79582,34.50792],[75.77711,34.50381],[75.71365,34.50852],[75.65557,34.49697],[75.61164,34.49836],[75.34809,34.55722],[75.30696,34.57402],[75.26748,34.5983],[75.23689,34.63189],[75.21291,34.64497],[75.17632,34.64538],[75.111,34.63365],[75.01778,34.62972],[74.66493,34.68832],[74.41213,34.76449],[74.34888,34.77343],[74.28583,34.76889],[74.22175,34.74775],[74.14682,34.70186],[74.12088,34.69086],[73.96223,34.66817],[73.94859,34.66274],[73.91934,34.64254],[73.91748,34.61928],[73.92544,34.59339],[73.92596,34.56497],[73.91097,34.54497],[73.86312,34.51707],[73.847,34.49433],[73.84555,34.45648],[73.84038,34.44441],[73.8316,34.4364],[73.79625,34.41855],[73.77982,34.39607],[73.77486,34.37095],[73.78271,34.34682],[73.80421,34.32749],[73.8533,34.30742],[73.93774,34.30421],[73.95438,34.28719],[73.9767,34.23755],[73.99055,34.21851],[73.9983,34.1968],[73.99541,34.17644],[73.9767,34.16156],[73.91686,34.13526],[73.8933,34.11474],[73.88441,34.0842],[73.89371,34.05431],[73.91624,34.02795],[73.9458,34.00979],[73.9767,34.00459],[74.04502,34.01942],[74.06528,34.01834],[74.1184,34.00253],[74.15426,34.0041],[74.19209,34.01185],[74.22837,34.01289],[74.25968,33.99439],[74.27229,33.96214],[74.26247,33.92995],[74.23953,33.90101],[74.21255,33.87842],[74.17752,33.85755],[74.14228,33.84424],[74.03458,33.82861],[74.01133,33.81047],[73.9767,33.75892],[73.96616,33.73453],[73.96079,33.69229],[73.96833,33.66208],[73.9767,33.64839],[74.02425,33.61425],[74.08812,33.58529],[74.14155,33.54937],[74.15778,33.49424],[74.13628,33.41801],[74.09597,33.32848],[74.072,33.30228],[74.05536,33.29203],[74.01784,33.27949],[74.00172,33.27017],[73.99179,33.25257],[73.98849,33.20862],[74.00234,33.17769],[74.02941,33.15415],[74.06579,33.1326],[74.09845,33.10483],[74.15385,33.04018],[74.19085,33.02209],[74.28397,33.00881],[74.31126,32.99429],[74.32201,32.97205],[74.32449,32.9214],[74.33668,32.87014],[74.33379,32.84926],[74.3065,32.80991],[74.32934,32.77642],[74.34619,32.76689],[74.36769,32.76353],[74.38639,32.76777],[74.41895,32.78462],[74.43869,32.78598],[74.45533,32.7786],[74.48448,32.75353],[74.50091,32.74601],[74.52096,32.74529],[74.57377,32.75255],[74.59341,32.75787],[74.61408,32.7704],[74.63589,32.82208],[74.65356,32.83743],[74.67175,32.84058],[74.68529,32.83123],[74.68912,32.80883],[74.68229,32.78733],[74.65697,32.74534],[74.64974,32.72315],[74.65728,32.66059],[74.65604,32.64067],[74.62958,32.58809],[74.63258,32.56817],[74.66255,32.49838],[74.68932,32.47135],[74.72498,32.46081],[74.76353,32.46267],[74.79939,32.47267],[74.83815,32.47487],[74.90698,32.44518],[74.94843,32.44877],[74.9907,32.46337],[75.02367,32.46626],[75.05488,32.45554],[75.09219,32.42934],[75.12599,32.41174],[75.19616,32.3973],[75.23017,32.3802],[75.2984,32.33243]]},"properties":{"id":"loc","kind":"trace","bdPov":"shown","nameEn":"Line of Control (LoC)","nameBn":"নিয়ন্ত্রণ রেখা (LoC)","status":"active"}},{"type":"Feature","geometry":{"type":"LineString","coordinates":[[126.66746,37.82781],[126.66052,37.91381],[126.66579,37.93763],[126.67783,37.94458],[126.72212,37.95394],[126.76191,37.979],[126.84733,38.08202],[126.90334,38.11959],[126.91983,38.1346],[126.95373,38.20067],[126.97192,38.21891],[127.02675,38.25446],[127.09046,38.28586],[127.15749,38.30722],[127.37711,38.31852],[127.47194,38.29591],[127.50207,38.29808],[127.56082,38.31208],[127.75373,38.32536],[127.78701,38.29668],[127.80076,38.29392],[127.86685,38.30485],[127.97175,38.30004],[128.03986,38.30428],[128.10849,38.3235],[128.17236,38.35595],[128.22559,38.39978],[128.26807,38.45352],[128.28109,38.48437],[128.28543,38.51985],[128.27479,38.5715],[128.28109,38.58442],[128.30837,38.60134],[128.36492,38.62433]]},"properties":{"id":"koreanDmz","kind":"trace","bdPov":"shown","nameEn":"Korean DMZ (38th Parallel)","nameBn":"কোরীয় DMZ (৩৮তম প্যারালাল)","status":"active"}},{"type":"Feature","geometry":{"type":"LineString","coordinates":[[35.56096,32.38472],[35.45668,32.40761],[35.4328,32.40826],[35.40686,32.41479],[35.40138,32.44001],[35.4018,32.47097],[35.39291,32.49448],[35.36314,32.51011],[35.33338,32.51308],[35.27044,32.51047],[35.25225,32.51595],[35.20863,32.54264],[35.19075,32.54171],[35.15168,32.50791],[35.06435,32.46314],[35.04471,32.43412],[35.02156,32.34459],[35.00068,32.33573],[34.99655,32.32304],[34.98994,32.27847],[35.00244,32.27514],[35.00937,32.26764],[35.00761,32.24439],[35.00027,32.23201],[34.96141,32.20158],[34.95822,32.18645],[34.98694,32.12399],[34.98422,32.08958],[35.00724,32.02077],[34.99678,32.0111],[34.99784,31.97878],[34.98669,31.96723],[34.97897,31.96864],[34.99727,31.92808],[35.02,31.91691],[35.02767,31.89169],[35.02482,31.86888],[34.99848,31.87127],[34.96738,31.86425],[34.95907,31.85848],[34.96243,31.82934],[34.97383,31.8169],[35.00337,31.81465],[35.02779,31.81756],[35.04265,31.82429],[35.05972,31.84187],[35.06773,31.84201],[35.10193,31.82389],[35.11247,31.82396],[35.09759,31.83127],[35.08809,31.84813],[35.07632,31.85416],[35.05602,31.85332],[35.02749,31.83273],[35.01294,31.82934],[34.97743,31.83337],[34.99854,31.85384],[35.03011,31.85701],[35.03432,31.86111],[35.03901,31.90864],[35.0299,31.92443],[35.01635,31.92659],[35.00542,31.93377],[35.00378,31.93921],[35.00773,31.94492],[34.98669,31.96723]]},"properties":{"id":"greenLine","kind":"trace","bdPov":"unrecognized","nameEn":"Green Line","nameBn":"গ্রিন লাইন","status":"active"}},{"type":"Feature","geometry":{"type":"LineString","coordinates":[[35.45813,31.49193],[35.39012,31.48707],[35.33234,31.4588],[35.22331,31.38103],[35.16491,31.36227],[35.04017,31.3632],[34.98032,31.35618],[34.92741,31.34491],[34.90095,31.34848],[34.87883,31.36284],[34.86715,31.39643],[34.88173,31.42987],[34.92679,31.49441],[34.93733,31.582],[34.95531,31.61187],[34.97361,31.63037],[35.05923,31.6768],[35.11423,31.71769],[35.12574,31.7331],[35.149,31.73731],[35.16673,31.73205],[35.17942,31.7201],[35.20526,31.72319],[35.21939,31.71512],[35.22415,31.71916],[35.23797,31.70933],[35.24242,31.71085],[35.24922,31.72357],[35.25247,31.73805],[35.26281,31.74863],[35.25315,31.76252],[35.2527,31.76965],[35.2629,31.78968],[35.25587,31.81222],[35.26494,31.82627],[35.25157,31.83128],[35.25723,31.83859],[35.24998,31.84437],[35.23335,31.84261],[35.22746,31.85031],[35.22202,31.87918],[35.21205,31.88149],[35.20526,31.87725],[35.21613,31.83915],[35.21576,31.82011],[35.19664,31.82644],[35.18359,31.82512],[35.18617,31.80874],[35.19775,31.80987],[35.22381,31.80125],[35.22947,31.77129],[35.22265,31.73455],[35.21653,31.73591],[35.20933,31.74711],[35.149,31.73731]]},"properties":{"id":"greenLine","kind":"trace","bdPov":"unrecognized","nameEn":"Green Line","nameBn":"গ্রিন লাইন","status":"active"}},{"type":"Feature","geometry":{"type":"LineString","coordinates":[[35.11247,31.82396],[35.12139,31.82485],[35.13696,31.81429],[35.17392,31.80755],[35.18617,31.80874]]},"properties":{"id":"greenLine","kind":"trace","bdPov":"unrecognized","nameEn":"Green Line","nameBn":"গ্রিন লাইন","status":"active"}},{"type":"Feature","geometry":{"type":"LineString","coordinates":[[34.24835,31.21145],[34.31587,31.25691],[34.3509,31.28925],[34.3538,31.30636],[34.34553,31.34072],[34.34584,31.35773],[34.36734,31.39281],[34.48041,31.48562],[34.55603,31.53983],[34.4812,31.58314]]},"properties":{"id":"greenLine","kind":"trace","bdPov":"unrecognized","nameEn":"Green Line","nameBn":"গ্রিন লাইন","status":"active"}},{"type":"Feature","properties":{"id":"northernLimitLine","kind":"trace"},"geometry":{"type":"LineString","coordinates":[[124.63333,38.05],[124.85,38],[124.855,37.93013],[124.859,37.87412],[124.86667,37.76667],[124.97755,37.68737],[125.04722,37.6375],[125.24444,37.58333],[125.42631,37.64921],[125.51667,37.68193],[125.66667,37.69028],[125.695,37.69166],[125.75001,37.71471],[126.01444,37.67998],[126.10276,37.7077],[126.11111,37.71249]]}},{"type":"Feature","properties":{"id":"northernLimitLine","kind":"trace"},"geometry":{"type":"LineString","coordinates":[[128.3768,38.61547],[128.39321,38.6156],[128.52795,38.61669],[128.65379,38.6177]]}},{"type":"Feature","properties":{"id":"parallel17","kind":"generated"},"geometry":{"type":"LineString","coordinates":[[105.3,17],[105.53846,17],[105.77692,17],[106.01538,17],[106.25385,17],[106.49231,17],[106.73077,17],[106.96923,17],[107.20769,17],[107.44615,17],[107.68462,17],[107.92308,17],[108.16154,17],[108.4,17]]}},{"type":"Feature","properties":{"id":"parallel22","kind":"generated"},"geometry":{"type":"LineString","coordinates":[[24.9,22],[25.15,22],[25.4,22],[25.65,22],[25.9,22],[26.15,22],[26.4,22],[26.65,22],[26.9,22],[27.15,22],[27.4,22],[27.65,22],[27.9,22],[28.15,22],[28.4,22],[28.65,22],[28.9,22],[29.15,22],[29.4,22],[29.65,22],[29.9,22],[30.15,22],[30.4,22],[30.65,22],[30.9,22],[31.15,22],[31.4,22],[31.65,22],[31.9,22],[32.15,22],[32.4,22],[32.65,22],[32.9,22],[33.15,22],[33.4,22],[33.65,22],[33.9,22],[34.15,22],[34.4,22],[34.65,22],[34.9,22],[35.15,22],[35.4,22],[35.65,22],[35.9,22],[36.15,22],[36.4,22],[36.65,22],[36.9,22]]}},{"type":"Feature","properties":{"id":"parallel24","kind":"generated"},"geometry":{"type":"LineString","coordinates":[[68,24],[68.25,24],[68.5,24],[68.75,24],[69,24],[69.25,24],[69.5,24],[69.75,24],[70,24],[70.25,24],[70.5,24],[70.75,24],[71,24]]}},{"type":"Feature","properties":{"id":"parallel25","kind":"generated"},"geometry":{"type":"LineString","coordinates":[[-6.7,25],[-6.45,25],[-6.2,25],[-5.95,25],[-5.7,25],[-5.45,25],[-5.2,25],[-4.95,25],[-4.7,25]]}},{"type":"Feature","properties":{"id":"parallel38","kind":"generated"},"geometry":{"type":"LineString","coordinates":[[124.2,38],[124.44545,38],[124.69091,38],[124.93636,38],[125.18182,38],[125.42727,38],[125.67273,38],[125.91818,38],[126.16364,38],[126.40909,38],[126.65455,38],[126.9,38],[127.14545,38],[127.39091,38],[127.63636,38],[127.88182,38],[128.12727,38],[128.37273,38],[128.61818,38],[128.86364,38],[129.10909,38],[129.35455,38],[129.6,38]]}},{"type":"Feature","properties":{"id":"parallel49","kind":"generated"},"geometry":{"type":"LineString","coordinates":[[-123.4,49],[-123.15169,49],[-122.90339,49],[-122.65508,49],[-122.40678,49],[-122.15847,49],[-121.91017,49],[-121.66186,49],[-121.41356,49],[-121.16525,49],[-120.91695,49],[-120.66864,49],[-120.42034,49],[-120.17203,49],[-119.92373,49],[-119.67542,49],[-119.42712,49],[-119.17881,49],[-118.93051,49],[-118.6822,49],[-118.4339,49],[-118.18559,49],[-117.93729,49],[-117.68898,49],[-117.44068,49],[-117.19237,49],[-116.94407,49],[-116.69576,49],[-116.44746,49],[-116.19915,49],[-115.95085,49],[-115.70254,49],[-115.45424,49],[-115.20593,49],[-114.95763,49],[-114.70932,49],[-114.46102,49],[-114.21271,49],[-113.96441,49],[-113.7161,49],[-113.4678,49],[-113.21949,49],[-112.97119,49],[-112.72288,49],[-112.47458,49],[-112.22627,49],[-111.97797,49],[-111.72966,49],[-111.48136,49],[-111.23305,49],[-110.98475,49],[-110.73644,49],[-110.48814,49],[-110.23983,49],[-109.99153,49],[-109.74322,49],[-109.49492,49],[-109.24661,49],[-108.99831,49],[-108.75,49],[-108.50169,49],[-108.25339,49],[-108.00508,49],[-107.75678,49],[-107.50847,49],[-107.26017,49],[-107.01186,49],[-106.76356,49],[-106.51525,49],[-106.26695,49],[-106.01864,49],[-105.77034,49],[-105.52203,49],[-105.27373,49],[-105.02542,49],[-104.77712,49],[-104.52881,49],[-104.28051,49],[-104.0322,49],[-103.7839,49],[-103.53559,49],[-103.28729,49],[-103.03898,49],[-102.79068,49],[-102.54237,49],[-102.29407,49],[-102.04576,49],[-101.79746,49],[-101.54915,49],[-101.30085,49],[-101.05254,49],[-100.80424,49],[-100.55593,49],[-100.30763,49],[-100.05932,49],[-99.81102,49],[-99.56271,49],[-99.31441,49],[-99.0661,49],[-98.8178,49],[-98.56949,49],[-98.32119,49],[-98.07288,49],[-97.82458,49],[-97.57627,49],[-97.32797,49],[-97.07966,49],[-96.83136,49],[-96.58305,49],[-96.33475,49],[-96.08644,49],[-95.83814,49],[-95.58983,49],[-95.34153,49],[-95.09322,49],[-94.84492,49],[-94.59661,49],[-94.34831,49],[-94.1,49]]}},{"type":"Feature","properties":{"id":"tordesillas","kind":"generated"},"geometry":{"type":"LineString","coordinates":[[-46.5,-35],[-46.5,-34.75],[-46.5,-34.5],[-46.5,-34.25],[-46.5,-34],[-46.5,-33.75],[-46.5,-33.5],[-46.5,-33.25],[-46.5,-33],[-46.5,-32.75],[-46.5,-32.5],[-46.5,-32.25],[-46.5,-32],[-46.5,-31.75],[-46.5,-31.5],[-46.5,-31.25],[-46.5,-31],[-46.5,-30.75],[-46.5,-30.5],[-46.5,-30.25],[-46.5,-30],[-46.5,-29.75],[-46.5,-29.5],[-46.5,-29.25],[-46.5,-29],[-46.5,-28.75],[-46.5,-28.5],[-46.5,-28.25],[-46.5,-28],[-46.5,-27.75],[-46.5,-27.5],[-46.5,-27.25],[-46.5,-27],[-46.5,-26.75],[-46.5,-26.5],[-46.5,-26.25],[-46.5,-26],[-46.5,-25.75],[-46.5,-25.5],[-46.5,-25.25],[-46.5,-25],[-46.5,-24.75],[-46.5,-24.5],[-46.5,-24.25],[-46.5,-24],[-46.5,-23.75],[-46.5,-23.5],[-46.5,-23.25],[-46.5,-23],[-46.5,-22.75],[-46.5,-22.5],[-46.5,-22.25],[-46.5,-22],[-46.5,-21.75],[-46.5,-21.5],[-46.5,-21.25],[-46.5,-21],[-46.5,-20.75],[-46.5,-20.5],[-46.5,-20.25],[-46.5,-20],[-46.5,-19.75],[-46.5,-19.5],[-46.5,-19.25],[-46.5,-19],[-46.5,-18.75],[-46.5,-18.5],[-46.5,-18.25],[-46.5,-18],[-46.5,-17.75],[-46.5,-17.5],[-46.5,-17.25],[-46.5,-17],[-46.5,-16.75],[-46.5,-16.5],[-46.5,-16.25],[-46.5,-16],[-46.5,-15.75],[-46.5,-15.5],[-46.5,-15.25],[-46.5,-15],[-46.5,-14.75],[-46.5,-14.5],[-46.5,-14.25],[-46.5,-14],[-46.5,-13.75],[-46.5,-13.5],[-46.5,-13.25],[-46.5,-13],[-46.5,-12.75],[-46.5,-12.5],[-46.5,-12.25],[-46.5,-12],[-46.5,-11.75],[-46.5,-11.5],[-46.5,-11.25],[-46.5,-11],[-46.5,-10.75],[-46.5,-10.5],[-46.5,-10.25],[-46.5,-10],[-46.5,-9.75],[-46.5,-9.5],[-46.5,-9.25],[-46.5,-9],[-46.5,-8.75],[-46.5,-8.5],[-46.5,-8.25],[-46.5,-8],[-46.5,-7.75],[-46.5,-7.5],[-46.5,-7.25],[-46.5,-7],[-46.5,-6.75],[-46.5,-6.5],[-46.5,-6.25],[-46.5,-6],[-46.5,-5.75],[-46.5,-5.5],[-46.5,-5.25],[-46.5,-5],[-46.5,-4.75],[-46.5,-4.5],[-46.5,-4.25],[-46.5,-4],[-46.5,-3.75],[-46.5,-3.5],[-46.5,-3.25],[-46.5,-3],[-46.5,-2.75],[-46.5,-2.5],[-46.5,-2.25],[-46.5,-2],[-46.5,-1.75],[-46.5,-1.5],[-46.5,-1.25],[-46.5,-1],[-46.5,-0.75],[-46.5,-0.5],[-46.5,-0.25],[-46.5,0],[-46.5,0.25],[-46.5,0.5],[-46.5,0.75],[-46.5,1],[-46.5,1.25],[-46.5,1.5],[-46.5,1.75],[-46.5,2],[-46.5,2.25],[-46.5,2.5],[-46.5,2.75],[-46.5,3],[-46.5,3.25],[-46.5,3.5],[-46.5,3.75],[-46.5,4],[-46.5,4.25],[-46.5,4.5],[-46.5,4.75],[-46.5,5],[-46.5,5.25],[-46.5,5.5],[-46.5,5.75],[-46.5,6],[-46.5,6.25],[-46.5,6.5],[-46.5,6.75],[-46.5,7],[-46.5,7.25],[-46.5,7.5],[-46.5,7.75],[-46.5,8]]}}]}
