{"type":"FeatureCollection","features":[{"type":"Feature","properties":{"id":"bangladesh"},"geometry":{"type":"MultiPolygon","coordinates":[[[[88.415,26.632],[88.4145,26.6223],[88.4224,26.582],[88.4214,26.5696],[88.4315,26.5495],[88.4483,26.5356],[88.4627,26.5441],[88.4842,26.5417],[88.4899,26.5317],[88.4897,26.5115],[88.5077,26.5156],[88.5186,26.5112],[88.5184,26.502],[88.5273,26.481],[88.556,26.4853],[88.5594,26.4618],[88.5651,26.4579],[88.5948,26.4523],[88.5958,26.471],[88.6222,26.4711],[88.6274,26.441],[88.6255,26.4337],[88.651,26.426],[88.6757,26.4013],[88.6937,26.3566],[88.6953,26.3447],[88.7098,26.3347],[88.7134,26.3449],[88.7256,26.3439],[88.7372,26.354],[88.7496,26.3539],[88.7539,26.3392],[88.7614,26.3337],[88.7569,26.3107],[88.7626,26.2996],[88.7835,26.3041],[88.7925,26.3099],[88.8018,26.3076],[88.8192,26.2943],[88.812,26.2796],[88.8155,26.2556],[88.8273,26.2491],[88.8274,26.24],[88.8384,26.2319],[88.8539,26.2352],[88.8776,26.2334],[88.8674,26.2498],[88.8613,26.2526],[88.8617,26.2741],[88.8756,26.2867],[88.9178,26.288],[88.9301,26.2789],[88.9529,26.2422],[88.9639,26.239],[88.9919,26.2458],[89.0148,26.244],[89.0371,26.2469],[89.0453,26.2407],[89.0509,26.2549],[89.0623,26.2589],[89.0604,26.2907],[89.0464,26.2956],[89.0444,26.2752],[89.035,26.2839],[89.02,26.2899],[89.0156,26.3024],[89.0066,26.3044],[88.9999,26.2908],[88.9824,26.3104],[88.998,26.3232],[88.9979,26.3316],[88.9838,26.337],[88.9861,26.3485],[88.9611,26.3517],[88.9623,26.3356],[88.9518,26.3325],[88.9459,26.3435],[88.9506,26.3541],[88.9146,26.3648],[88.909,26.3793],[88.9163,26.3844],[88.9177,26.4025],[88.9259,26.406],[88.9264,26.4313],[88.9432,26.4244],[88.9513,26.4328],[88.9468,26.4469],[88.958,26.4536],[88.9752,26.4485],[88.9832,26.437],[88.9808,26.4243],[88.9921,26.4177],[88.9993,26.4221],[89.0089,26.413],[89.0182,26.4153],[89.0376,26.3998],[89.0663,26.4],[89.0872,26.3976],[89.0918,26.389],[89.0872,26.3656],[89.0961,26.3602],[89.1001,26.3386],[89.0855,26.3208],[89.1054,26.3261],[89.1164,26.3202],[89.1351,26.3209],[89.136,26.3076],[89.12,26.2868],[89.1091,26.3046],[89.102,26.2831],[89.1249,26.2633],[89.1204,26.2518],[89.1359,26.2361],[89.148,26.2077],[89.1402,26.1992],[89.1359,26.1825],[89.1406,26.1692],[89.1489,26.1696],[89.1553,26.1591],[89.1489,26.1532],[89.1543,26.1411],[89.1656,26.1317],[89.1811,26.1273],[89.2028,26.1282],[89.2274,26.1234],[89.2417,26.1042],[89.2519,26.1014],[89.266,26.0878],[89.2572,26.0804],[89.2545,26.0677],[89.2711,26.0605],[89.2789,26.049],[89.2979,26.0494],[89.3253,26.0367],[89.3387,26.0181],[89.3571,26.0086],[89.3719,26.0111],[89.3905,26.0087],[89.3913,26.0232],[89.4036,26.0282],[89.4083,26.0419],[89.4257,26.0456],[89.4342,26.0317],[89.4288,26.0128],[89.4494,26.0074],[89.4617,25.9987],[89.4798,25.9971],[89.492,26.0062],[89.5067,26.0015],[89.5132,26.0065],[89.5398,26.0057],[89.5377,25.9931],[89.5423,25.983],[89.5379,25.9736],[89.55,25.9659],[89.563,25.9706],[89.578,25.969],[89.5858,25.9785],[89.5859,25.9973],[89.5794,26.0022],[89.5776,26.025],[89.5893,26.0383],[89.6106,26.051],[89.6211,26.0538],[89.6365,26.074],[89.6326,26.0816],[89.6291,26.107],[89.6165,26.1037],[89.6048,26.0935],[89.6001,26.1067],[89.6178,26.1079],[89.6165,26.1201],[89.5978,26.1322],[89.5958,26.1394],[89.6039,26.1563],[89.613,26.1617],[89.6121,26.1778],[89.6365,26.1787],[89.6387,26.1669],[89.6497,26.1698],[89.6554,26.1812],[89.6391,26.1996],[89.6342,26.2287],[89.6557,26.219],[89.6718,26.2199],[89.6767,26.2331],[89.6887,26.2225],[89.673,26.204],[89.6955,26.1691],[89.6847,26.1613],[89.7079,26.154],[89.7434,26.1587],[89.753,26.1494],[89.7549,26.1385],[89.763,26.137],[89.7659,26.1247],[89.7559,26.1135],[89.7711,26.1041],[89.7849,26.1047],[89.7815,26.0843],[89.7967,26.0754],[89.7957,26.065],[89.7863,26.058],[89.7812,26.0415],[89.8112,26.0415],[89.815,26.0216],[89.8214,26.0087],[89.816,25.995],[89.8217,25.9861],[89.8362,25.9827],[89.83,26.0041],[89.8433,26.0073],[89.8508,25.9898],[89.8662,25.9829],[89.8713,25.9735],[89.8548,25.9684],[89.8414,25.9705],[89.8468,25.9565],[89.8317,25.9549],[89.8249,25.9461],[89.8484,25.9428],[89.8775,25.9467],[89.8867,25.9454],[89.8784,25.9242],[89.8606,25.907],[89.8484,25.8884],[89.8322,25.8704],[89.8348,25.8404],[89.8173,25.8175],[89.8258,25.8111],[89.8292,25.7966],[89.8386,25.7758],[89.8412,25.7593],[89.8271,25.7401],[89.834,25.717],[89.8495,25.7149],[89.8524,25.7072],[89.847,25.6955],[89.8588,25.6801],[89.8648,25.6638],[89.8713,25.6622],[89.8812,25.6324],[89.8824,25.6166],[89.8733,25.5878],[89.8756,25.5807],[89.8672,25.5608],[89.8634,25.5426],[89.8513,25.5385],[89.8601,25.5176],[89.8547,25.4979],[89.8495,25.4939],[89.8518,25.4667],[89.8446,25.4595],[89.8326,25.4388],[89.825,25.4085],[89.8267,25.4],[89.8197,25.3812],[89.8229,25.3482],[89.8267,25.3463],[89.8412,25.3153],[89.8411,25.3083],[89.8309,25.2962],[89.8394,25.2927],[89.8758,25.2856],[89.8845,25.288],[89.9007,25.3055],[89.9088,25.3082],[89.939,25.2991],[89.9679,25.3045],[89.9788,25.2974],[89.9828,25.2812],[89.9998,25.2771],[90.0068,25.2804],[90.0231,25.2732],[90.0369,25.2614],[90.0571,25.2602],[90.0749,25.2442],[90.0934,25.2384],[90.109,25.2268],[90.173,25.222],[90.2002,25.2103],[90.2386,25.2048],[90.2656,25.1976],[90.2843,25.1956],[90.3101,25.1883],[90.3294,25.1931],[90.3453,25.1785],[90.3721,25.1618],[90.4059,25.1592],[90.4143,25.1529],[90.4411,25.1441],[90.4507,25.1519],[90.4858,25.1611],[90.4983,25.168],[90.5252,25.1735],[90.5542,25.1717],[90.5861,25.1733],[90.6098,25.1788],[90.615,25.1744],[90.6396,25.1743],[90.6408,25.1837],[90.665,25.1852],[90.6829,25.1638],[90.6991,25.1566],[90.71,25.1678],[90.7379,25.1564],[90.7493,25.1669],[90.758,25.1681],[90.7627,25.1777],[90.774,25.1821],[90.7937,25.1814],[90.8041,25.1673],[90.8452,25.1593],[90.8729,25.1614],[90.8823,25.1672],[90.9042,25.1632],[90.9277,25.1638],[90.9727,25.1758],[90.984,25.1756],[91.0025,25.1813],[91.038,25.1862],[91.057,25.1921],[91.0865,25.196],[91.1323,25.1938],[91.1648,25.1963],[91.1981,25.2018],[91.2259,25.1998],[91.2315,25.1969],[91.2596,25.1998],[91.2678,25.2057],[91.2773,25.1973],[91.2893,25.1938],[91.2931,25.1834],[91.3189,25.1832],[91.3378,25.1734],[91.3608,25.177],[91.3749,25.1682],[91.3844,25.1698],[91.4106,25.1639],[91.4407,25.1498],[91.4663,25.1518],[91.4705,25.134],[91.4824,25.137],[91.5002,25.1358],[91.5022,25.1438],[91.5166,25.1479],[91.5265,25.1446],[91.5545,25.1491],[91.5776,25.1722],[91.6058,25.1742],[91.5996,25.1515],[91.621,25.1436],[91.6229,25.1283],[91.6378,25.123],[91.6641,25.1354],[91.6918,25.1373],[91.7036,25.1533],[91.7325,25.1506],[91.7492,25.1609],[91.748,25.1744],[91.7753,25.1635],[91.8054,25.1718],[91.8172,25.1716],[91.8329,25.1782],[91.8613,25.1729],[91.8752,25.1769],[91.895,25.1768],[91.8985,25.1804],[91.9211,25.1817],[91.9564,25.1782],[91.9846,25.173],[92.0026,25.186],[92.0164,25.1875],[92.0254,25.1793],[92.0405,25.1861],[92.0624,25.187],[92.1023,25.175],[92.1302,25.1614],[92.1363,25.1528],[92.1344,25.1434],[92.1429,25.1357],[92.1718,25.1277],[92.1832,25.118],[92.193,25.1342],[92.2073,25.1087],[92.2226,25.1039],[92.2274,25.0943],[92.2395,25.0931],[92.2545,25.0858],[92.3111,25.0693],[92.3221,25.0781],[92.3321,25.0791],[92.3483,25.0733],[92.3474,25.0594],[92.3395,25.0532],[92.3791,25.0394],[92.3919,25.0398],[92.3986,25.0328],[92.4255,25.0278],[92.4229,25.0059],[92.4166,24.9921],[92.4226,24.9876],[92.4198,24.9697],[92.4242,24.9656],[92.45,24.9665],[92.4615,24.9696],[92.4671,24.958],[92.4516,24.9523],[92.4525,24.9387],[92.488,24.9444],[92.484,24.9317],[92.4944,24.9165],[92.4967,24.9026],[92.491,24.8913],[92.4928,24.8757],[92.4753,24.8684],[92.4646,24.8724],[92.4443,24.8724],[92.4377,24.8569],[92.4261,24.853],[92.4057,24.8591],[92.4023,24.8507],[92.3859,24.8518],[92.3739,24.8727],[92.3628,24.8722],[92.3488,24.8892],[92.3397,24.878],[92.3278,24.8888],[92.3067,24.9006],[92.3061,24.9087],[92.2946,24.9151],[92.273,24.9051],[92.2469,24.9088],[92.2366,24.9042],[92.236,24.8931],[92.2474,24.885],[92.2457,24.8669],[92.2402,24.8578],[92.243,24.8403],[92.2537,24.8321],[92.2736,24.8274],[92.2766,24.8154],[92.2738,24.7993],[92.2889,24.7875],[92.2833,24.7644],[92.2896,24.7611],[92.2806,24.7485],[92.283,24.7419],[92.2963,24.7369],[92.2663,24.6913],[92.2602,24.687],[92.2512,24.6606],[92.2446,24.6179],[92.2387,24.6047],[92.2335,24.5795],[92.2294,24.5008],[92.2021,24.5074],[92.1679,24.532],[92.1556,24.5192],[92.1587,24.5065],[92.152,24.5019],[92.1544,24.4725],[92.1611,24.4571],[92.1674,24.426],[92.1381,24.4263],[92.1268,24.3987],[92.1103,24.3813],[92.0966,24.3745],[92.0494,24.3766],[92.0288,24.3809],[92.0234,24.3869],[92.0091,24.3827],[91.995,24.3892],[91.9878,24.3796],[91.9756,24.3828],[91.978,24.3585],[91.9963,24.3396],[91.9958,24.3233],[91.9765,24.3298],[91.9713,24.3432],[91.956,24.3566],[91.9403,24.3429],[91.9197,24.3367],[91.9399,24.269],[91.9116,24.1685],[91.913,24.1557],[91.9055,24.1395],[91.8909,24.1372],[91.8783,24.147],[91.8733,24.175],[91.8611,24.1834],[91.8511,24.1831],[91.8452,24.1999],[91.8554,24.213],[91.8443,24.2267],[91.8241,24.2109],[91.8077,24.221],[91.7931,24.2208],[91.7461,24.2473],[91.7508,24.2166],[91.7594,24.1424],[91.7283,24.1438],[91.7209,24.1522],[91.6929,24.1599],[91.6812,24.1755],[91.68,24.1934],[91.6681,24.2092],[91.6689,24.2304],[91.6579,24.2259],[91.6489,24.2155],[91.6532,24.196],[91.6597,24.1903],[91.6577,24.1786],[91.6472,24.1783],[91.6483,24.1562],[91.6361,24.1369],[91.6424,24.1131],[91.6375,24.1002],[91.6103,24.0912],[91.6009,24.0959],[91.5942,24.0885],[91.5929,24.0736],[91.587,24.0715],[91.5598,24.0763],[91.5466,24.0735],[91.5076,24.0853],[91.4992,24.0856],[91.4769,24.0988],[91.463,24.0946],[91.4508,24.0997],[91.4317,24.099],[91.4282,24.1075],[91.3997,24.1107],[91.3742,24.1069],[91.3773,24.0792],[91.3964,24.0494],[91.3909,24.025],[91.3732,24.0025],[91.3801,23.978],[91.3742,23.9747],[91.3586,23.9835],[91.3409,23.9819],[91.3244,23.9937],[91.317,23.99],[91.3036,23.9963],[91.2974,23.976],[91.2876,23.9678],[91.2824,23.979],[91.27,23.96],[91.2641,23.9454],[91.2724,23.9381],[91.2753,23.9247],[91.2411,23.9229],[91.2448,23.9074],[91.2288,23.8974],[91.2296,23.8808],[91.2545,23.8378],[91.2374,23.8139],[91.2264,23.7911],[91.2307,23.7664],[91.2188,23.7381],[91.2097,23.749],[91.1956,23.7514],[91.1677,23.7502],[91.1558,23.7366],[91.1485,23.7119],[91.1532,23.6888],[91.1935,23.6905],[91.2042,23.6795],[91.2006,23.6565],[91.1926,23.6544],[91.1695,23.6584],[91.1606,23.6641],[91.1573,23.6228],[91.1646,23.5936],[91.1858,23.5781],[91.1948,23.5634],[91.1942,23.5477],[91.2091,23.5469],[91.2003,23.5207],[91.2076,23.5125],[91.2232,23.5148],[91.2177,23.5003],[91.2313,23.4999],[91.2365,23.4897],[91.2492,23.4897],[91.2521,23.4813],[91.2515,23.453],[91.2568,23.4409],[91.27,23.4292],[91.2638,23.4232],[91.2763,23.413],[91.2799,23.377],[91.2912,23.3513],[91.3106,23.3516],[91.3105,23.3426],[91.2965,23.3408],[91.2902,23.3195],[91.3101,23.3143],[91.315,23.3034],[91.3002,23.293],[91.3097,23.2764],[91.3237,23.2376],[91.3247,23.1698],[91.3234,23.1602],[91.3326,23.1531],[91.3369,23.132],[91.347,23.1179],[91.3471,23.1014],[91.3698,23.0698],[91.3943,23.0566],[91.4106,23.0661],[91.4164,23.083],[91.4073,23.0835],[91.3996,23.0966],[91.4022,23.1135],[91.3878,23.153],[91.3835,23.1562],[91.3815,23.1846],[91.3859,23.2043],[91.3839,23.2123],[91.3985,23.2295],[91.3913,23.2468],[91.407,23.2478],[91.4105,23.2587],[91.4082,23.2846],[91.4195,23.2732],[91.4193,23.2579],[91.4314,23.2626],[91.4541,23.2604],[91.446,23.2499],[91.4579,23.2462],[91.4703,23.2278],[91.4539,23.2236],[91.4584,23.2133],[91.4754,23.2205],[91.4844,23.2094],[91.4849,23.1884],[91.5032,23.1922],[91.4982,23.1718],[91.491,23.1578],[91.4953,23.1472],[91.5052,23.1406],[91.5038,23.1304],[91.5145,23.1229],[91.5115,23.1045],[91.5194,23.0944],[91.5352,23.0635],[91.5306,23.0387],[91.5501,23.0384],[91.5385,23.0198],[91.5479,23.0191],[91.5424,22.999],[91.557,22.9961],[91.5563,22.9789],[91.5771,22.9672],[91.5897,22.9774],[91.5983,22.9766],[91.6035,22.9604],[91.6161,22.9513],[91.6255,22.9629],[91.6366,22.9635],[91.6408,22.9747],[91.6786,22.9824],[91.6936,22.9883],[91.7212,22.9903],[91.7244,22.9978],[91.742,23.0065],[91.7612,23.0305],[91.7835,23.0386],[91.7791,23.0586],[91.7728,23.066],[91.7841,23.0716],[91.7991,23.0655],[91.811,23.069],[91.8146,23.0807],[91.8337,23.0944],[91.8168,23.1033],[91.8099,23.1217],[91.8125,23.1459],[91.8054,23.1589],[91.8046,23.1797],[91.7937,23.187],[91.7973,23.1941],[91.7869,23.2076],[91.7889,23.2248],[91.7785,23.2526],[91.7756,23.2677],[91.7639,23.2734],[91.7593,23.288],[91.7635,23.3021],[91.7448,23.3038],[91.7469,23.3119],[91.7819,23.3359],[91.7873,23.3415],[91.7854,23.3533],[91.7972,23.3667],[91.7905,23.3916],[91.7993,23.3966],[91.8108,23.3859],[91.8147,23.396],[91.8265,23.399],[91.8284,23.3769],[91.8215,23.3587],[91.8372,23.3604],[91.8418,23.3752],[91.8423,23.3906],[91.851,23.4019],[91.8607,23.4061],[91.893,23.4323],[91.9224,23.4534],[91.9398,23.45],[91.9504,23.4649],[91.9666,23.4688],[91.9637,23.4975],[91.9675,23.5109],[91.9566,23.5219],[91.9643,23.5334],[91.9573,23.5513],[91.9511,23.6161],[91.9411,23.6346],[91.9463,23.6458],[91.9397,23.659],[91.9414,23.6694],[91.9342,23.6858],[91.9422,23.6938],[91.9534,23.6938],[91.9489,23.7148],[91.9566,23.7339],[91.9775,23.7339],[92.0005,23.6716],[92.0084,23.6642],[92.0248,23.6617],[92.0407,23.6484],[92.0623,23.6455],[92.0797,23.6485],[92.077,23.6674],[92.0832,23.6804],[92.0985,23.6758],[92.1071,23.6892],[92.1208,23.6935],[92.1239,23.705],[92.1433,23.7274],[92.1458,23.7342],[92.1596,23.7386],[92.1719,23.7378],[92.1699,23.7228],[92.1863,23.7103],[92.2061,23.7013],[92.2139,23.6839],[92.2061,23.6725],[92.2118,23.6534],[92.2256,23.6546],[92.2309,23.6659],[92.2327,23.6853],[92.2429,23.6956],[92.2373,23.7134],[92.2406,23.7196],[92.2563,23.7252],[92.2727,23.7209],[92.2893,23.7009],[92.2889,23.6739],[92.2751,23.6516],[92.2771,23.633],[92.2904,23.6294],[92.2873,23.6183],[92.289,23.5987],[92.3016,23.5897],[92.3125,23.5575],[92.3075,23.5344],[92.3169,23.5291],[92.3183,23.5037],[92.3308,23.4352],[92.3449,23.4314],[92.3469,23.4126],[92.3513,23.4045],[92.3568,23.3731],[92.3634,23.3667],[92.3785,23.364],[92.3813,23.3511],[92.3759,23.3361],[92.3655,23.3232],[92.3775,23.3205],[92.387,23.3054],[92.3823,23.2862],[92.3929,23.2654],[92.3921,23.2492],[92.3985,23.2362],[92.3504,23.235],[92.3543,23.2218],[92.3534,23.1842],[92.3638,23.1558],[92.3567,23.1341],[92.3672,23.1264],[92.3578,23.1069],[92.3739,23.0865],[92.379,23.0867],[92.3907,23.0587],[92.3796,23.012],[92.3854,22.993],[92.3815,22.977],[92.3744,22.9717],[92.3762,22.9294],[92.3956,22.931],[92.406,22.9181],[92.4141,22.915],[92.4364,22.8874],[92.4486,22.8916],[92.4479,22.8789],[92.4596,22.8713],[92.4569,22.8605],[92.4645,22.8566],[92.4583,22.8378],[92.4619,22.8074],[92.4701,22.7987],[92.4693,22.7875],[92.4752,22.7717],[92.4791,22.7474],[92.5004,22.7375],[92.5163,22.7222],[92.5137,22.7103],[92.5185,22.689],[92.5253,22.6733],[92.5249,22.64],[92.5322,22.6333],[92.5275,22.6212],[92.5302,22.6047],[92.5372,22.5939],[92.5374,22.5747],[92.5272,22.5727],[92.5275,22.557],[92.5374,22.5449],[92.5397,22.5283],[92.5469,22.5149],[92.5461,22.4638],[92.5504,22.4577],[92.5545,22.4308],[92.5528,22.4082],[92.5599,22.4007],[92.5617,22.3726],[92.5705,22.359],[92.5787,22.3244],[92.582,22.3029],[92.5771,22.2833],[92.5777,22.2683],[92.5861,22.2625],[92.5914,22.2399],[92.5879,22.2163],[92.5934,22.2064],[92.5956,22.1738],[92.6066,22.1719],[92.6101,22.1359],[92.5996,22.1239],[92.5904,22.1299],[92.5909,22.1403],[92.5788,22.1433],[92.5614,22.1283],[92.572,22.1184],[92.5886,22.0822],[92.5908,22.0669],[92.599,22.0607],[92.5922,22.0427],[92.599,22.0284],[92.5973,22.0084],[92.6064,21.9996],[92.6107,21.986],[92.6043,21.9818],[92.6122,21.9537],[92.6147,21.9315],[92.6232,21.9127],[92.632,21.8764],[92.6304,21.8614],[92.6206,21.8608],[92.6136,21.8508],[92.6146,21.831],[92.6203,21.8222],[92.6093,21.8164],[92.6072,21.8015],[92.6109,21.7757],[92.6046,21.7428],[92.6065,21.7286],[92.6,21.7021],[92.6059,21.69],[92.6015,21.6579],[92.6093,21.6236],[92.6085,21.5837],[92.6148,21.5684],[92.619,21.5343],[92.6182,21.5159],[92.6262,21.4871],[92.6252,21.476],[92.6323,21.4429],[92.6379,21.4322],[92.6522,21.3558],[92.6654,21.3167],[92.6781,21.2996],[92.6752,21.2842],[92.6305,21.2688],[92.6166,21.2482],[92.5947,21.2461],[92.5898,21.2788],[92.5622,21.3631],[92.5567,21.3844],[92.5417,21.381],[92.5239,21.3715],[92.5066,21.3773],[92.5076,21.3598],[92.4974,21.3515],[92.4567,21.3692],[92.4414,21.3653],[92.4278,21.38],[92.4272,21.3956],[92.4313,21.4105],[92.4265,21.4322],[92.412,21.442],[92.3905,21.4714],[92.3797,21.4812],[92.3676,21.4798],[92.3559,21.4667],[92.3417,21.4619],[92.3364,21.4473],[92.3374,21.4369],[92.3279,21.4327],[92.3302,21.4198],[92.2973,21.4191],[92.2916,21.431],[92.2692,21.4277],[92.2696,21.4],[92.2561,21.3911],[92.2588,21.3645],[92.2467,21.357],[92.2243,21.3519],[92.1974,21.3284],[92.1984,21.3095],[92.2175,21.2782],[92.219,21.2563],[92.212,21.2481],[92.219,21.2349],[92.2106,21.2239],[92.2062,21.2096],[92.1857,21.1939],[92.1734,21.18],[92.1767,21.1597],[92.1998,21.1615],[92.2031,21.1464],[92.1981,21.1382],[92.2014,21.1241],[92.2075,21.119],[92.2239,21.1204],[92.2341,21.0971],[92.2588,21.0792],[92.2646,21.0623],[92.2573,21.0501],[92.254,21.0237],[92.2636,21.0117],[92.2715,20.9808],[92.2709,20.9404],[92.2841,20.9192],[92.3149,20.8866],[92.3311,20.8392],[92.3467,20.7781],[92.3605,20.7536],[92.364,20.7276],[92.3462,20.7199],[92.3154,20.7424],[92.3046,20.7612],[92.2887,20.8089],[92.2658,20.8531],[92.2531,20.874],[92.2248,20.9125],[92.2115,20.9425],[92.2027,20.9576],[92.1882,21.0049],[92.174,21.0271],[92.0997,21.112],[92.0544,21.167],[92.0462,21.1846],[92.0467,21.2236],[92.0438,21.2345],[92.048,21.2862],[92.0337,21.3233],[92.0204,21.3627],[91.9864,21.4107],[91.9568,21.4431],[91.9466,21.4657],[91.9756,21.4806],[91.9618,21.4999],[91.9412,21.4978],[91.9218,21.491],[91.9213,21.4793],[91.9087,21.4725],[91.8939,21.4745],[91.8664,21.4956],[91.8473,21.519],[91.8419,21.5339],[91.8498,21.545],[91.8527,21.575],[91.8464,21.587],[91.8422,21.6246],[91.8436,21.6477],[91.8545,21.6722],[91.8589,21.6972],[91.8728,21.7222],[91.8557,21.7315],[91.8641,21.7554],[91.8927,21.82],[91.9033,21.8502],[91.9143,21.8578],[91.9127,21.8795],[91.9044,21.913],[91.9066,21.931],[91.8989,21.9405],[91.88,21.9408],[91.8776,21.9457],[91.8853,22.008],[91.8781,22.0308],[91.8807,22.0423],[91.8716,22.0559],[91.8646,22.0753],[91.8577,22.1082],[91.8426,22.1105],[91.8299,22.1321],[91.826,22.1454],[91.8153,22.162],[91.8087,22.1892],[91.8122,22.2078],[91.7983,22.2198],[91.7785,22.2321],[91.7733,22.263],[91.755,22.2851],[91.7423,22.3771],[91.7468,22.3851],[91.7451,22.399],[91.739,22.4089],[91.6449,22.4064],[91.6328,22.4572],[91.6157,22.4966],[91.5766,22.5477],[91.5563,22.5803],[91.5396,22.5949],[91.5199,22.6196],[91.5172,22.6322],[91.487,22.6569],[91.453,22.6907],[91.4396,22.6976],[91.4296,22.6979],[91.3829,22.716],[91.4068,22.6839],[91.4004,22.6705],[91.3791,22.6848],[91.3664,22.6544],[91.3315,22.6596],[91.3174,22.6555],[91.3112,22.6618],[91.2853,22.6513],[91.2727,22.6369],[91.2996,22.6053],[91.3087,22.5908],[91.3236,22.5585],[91.3382,22.5649],[91.3499,22.563],[91.3549,22.5517],[91.353,22.5259],[91.3278,22.5014],[91.3066,22.4947],[91.303,22.4871],[91.2909,22.4835],[91.282,22.5014],[91.2658,22.5204],[91.2697,22.5431],[91.2389,22.5444],[91.237,22.5397],[91.2633,22.5188],[91.2457,22.5042],[91.2241,22.5071],[91.2027,22.5046],[91.1841,22.5075],[91.1913,22.4697],[91.1907,22.4586],[91.2139,22.4589],[91.2214,22.453],[91.2249,22.416],[91.2275,22.3612],[91.2184,22.3614],[91.1873,22.3743],[91.2011,22.3234],[91.2086,22.2764],[91.2081,22.2694],[91.1871,22.2664],[91.1893,22.2425],[91.1793,22.2197],[91.1755,22.1911],[91.1601,22.1727],[91.1485,22.1658],[91.1255,22.1425],[91.1102,22.1409],[91.0477,22.0876],[91.0237,22.1034],[91.0211,22.1184],[90.9929,22.1216],[90.9791,22.0921],[90.9619,22.049],[90.9562,22.0276],[90.8558,22.0488],[90.8574,21.8385],[90.5953,21.8443],[90.5961,21.8948],[90.541,21.8751],[90.5334,21.8697],[90.4949,21.8187],[90.4859,21.8034],[90.4691,21.7998],[90.4361,21.8173],[90.4092,21.8156],[90.3239,21.831],[90.3034,21.8285],[90.2515,21.8292],[90.2191,21.8065],[90.2057,21.8048],[90.1774,21.7944],[90.1473,21.7971],[90.1257,21.8026],[90.1038,21.8111],[90.0871,21.8274],[90.0785,21.8451],[90.0402,21.8492],[90.0179,21.8602],[90.0092,21.8772],[90.0074,21.8913],[90.0088,21.9151],[90.0134,21.9343],[90.022,21.9504],[90.0494,21.9649],[90.0404,21.9761],[90.0304,21.976],[90.0263,21.9867],[89.9833,21.9812],[89.9666,21.9699],[89.9543,21.9665],[89.9097,21.9653],[89.895,21.9579],[89.9061,21.9189],[89.906,21.8959],[89.9026,21.8762],[89.9098,21.8318],[89.9101,21.8039],[89.9082,21.7804],[89.8887,21.7778],[89.844,21.7815],[89.8224,21.7904],[89.811,21.8017],[89.7894,21.8167],[89.7605,21.8319],[89.7477,21.8298],[89.7268,21.7823],[89.7157,21.7627],[89.6965,21.7445],[89.668,21.7311],[89.6504,21.7293],[89.6223,21.7459],[89.6215,21.7346],[89.6139,21.7125],[89.6158,21.6981],[89.6375,21.6638],[89.6167,21.6645],[89.5417,21.6635],[89.5083,21.6793],[89.4975,21.6924],[89.4842,21.6826],[89.4687,21.677],[89.4338,21.6726],[89.3489,21.6709],[89.3357,21.6752],[89.3259,21.6853],[89.3205,21.6734],[89.2663,21.6542],[89.1975,21.6565],[89.1743,21.6537],[89.1617,21.6455],[89.1355,21.6472],[89.0747,21.7202],[89.0495,21.7588],[89.0296,21.7817],[89.03,21.7979],[89.0422,21.8279],[89.0442,21.8624],[89.023,21.8922],[89.0276,21.9202],[89.0527,21.9275],[89.0728,21.9277],[89.0812,21.9563],[89.0789,21.9856],[89.0835,22.003],[89.0781,22.0201],[89.0641,22.0357],[89.0484,22.0575],[89.0392,22.0952],[89.0427,22.1064],[89.0548,22.1204],[89.0647,22.1239],[89.0958,22.1475],[89.0905,22.1604],[89.0783,22.1472],[89.071,22.1489],[89.0615,22.1714],[89.0704,22.1858],[89.0706,22.1973],[89.0456,22.2216],[89.0365,22.2373],[89.034,22.2587],[89.0197,22.2545],[89.0201,22.2688],[88.9969,22.2839],[88.998,22.2963],[89.024,22.2986],[88.9991,22.3247],[88.9851,22.3283],[88.989,22.3483],[88.9885,22.3666],[88.9825,22.3741],[88.9917,22.3898],[88.9717,22.4077],[88.9995,22.4327],[88.9897,22.4426],[88.9963,22.4678],[88.9817,22.4833],[88.9752,22.4968],[88.9706,22.5296],[88.9593,22.5524],[88.9225,22.5634],[88.9224,22.5703],[88.9445,22.5687],[88.9394,22.591],[88.9592,22.611],[88.9571,22.6171],[88.9392,22.6221],[88.934,22.6283],[88.9275,22.6487],[88.9449,22.6624],[88.9477,22.6777],[88.9612,22.6953],[88.9282,22.7181],[88.9255,22.7278],[88.9158,22.7362],[88.9207,22.7528],[88.9108,22.7581],[88.9244,22.7799],[88.9352,22.7818],[88.9494,22.7974],[88.9575,22.7962],[88.9673,22.8439],[88.9536,22.8636],[88.9492,22.876],[88.9285,22.872],[88.9098,22.879],[88.9075,22.8928],[88.8984,22.8978],[88.9063,22.9212],[88.8927,22.9258],[88.8923,22.9521],[88.8697,22.9511],[88.8594,22.9429],[88.8555,22.959],[88.8579,22.9699],[88.8685,22.9754],[88.8643,22.9903],[88.8729,23.018],[88.8842,23.0384],[88.8753,23.0449],[88.8736,23.0659],[88.8652,23.0777],[88.8746,23.0902],[88.8693,23.1001],[88.9001,23.1127],[88.9103,23.1299],[88.9178,23.1297],[88.923,23.1449],[88.9322,23.1547],[88.9282,23.1635],[88.9393,23.1769],[88.9571,23.1834],[88.9662,23.1937],[88.9808,23.1922],[88.9854,23.2084],[88.9846,23.2212],[88.9759,23.2243],[88.9634,23.2149],[88.9413,23.2064],[88.9137,23.2152],[88.9115,23.234],[88.8868,23.2317],[88.8618,23.2338],[88.8495,23.2308],[88.8373,23.2437],[88.8097,23.2549],[88.806,23.2386],[88.8087,23.2248],[88.8039,23.2191],[88.7744,23.2251],[88.7765,23.2367],[88.7671,23.2461],[88.752,23.2406],[88.7187,23.2545],[88.7236,23.27],[88.714,23.2755],[88.7092,23.2898],[88.6972,23.2932],[88.6966,23.3025],[88.7067,23.3107],[88.7268,23.3019],[88.7444,23.3068],[88.7488,23.3221],[88.7334,23.3272],[88.7384,23.3442],[88.7501,23.3631],[88.761,23.3623],[88.7644,23.37],[88.7531,23.3894],[88.7517,23.4029],[88.7653,23.4485],[88.7829,23.4406],[88.7909,23.4509],[88.7875,23.4699],[88.8,23.4988],[88.7833,23.5024],[88.7703,23.4976],[88.7555,23.4789],[88.7451,23.4819],[88.7319,23.4964],[88.7234,23.5128],[88.7122,23.5095],[88.6746,23.548],[88.6597,23.5492],[88.6438,23.5916],[88.6435,23.6074],[88.6331,23.6092],[88.6179,23.6018],[88.6008,23.6075],[88.5928,23.6033],[88.5935,23.641],[88.5622,23.6373],[88.5581,23.6496],[88.5706,23.6617],[88.5748,23.6768],[88.569,23.6905],[88.5652,23.7122],[88.5748,23.7402],[88.5727,23.7483],[88.5806,23.7653],[88.5787,23.7754],[88.5696,23.7834],[88.5904,23.7975],[88.6002,23.8215],[88.5886,23.828],[88.5882,23.8557],[88.5766,23.8551],[88.5873,23.8713],[88.5993,23.8693],[88.6179,23.8766],[88.6551,23.8689],[88.6638,23.8779],[88.6846,23.8905],[88.6883,23.9013],[88.7003,23.8992],[88.6993,23.9101],[88.7066,23.9164],[88.7355,23.9151],[88.7331,23.9229],[88.7401,23.9385],[88.7328,23.9609],[88.7369,23.9815],[88.7494,23.9851],[88.7676,23.9816],[88.7617,24.0048],[88.7462,24.0058],[88.7351,23.9954],[88.7285,23.9965],[88.7344,24.0215],[88.7417,24.0354],[88.725,24.0411],[88.73,24.0586],[88.7235,24.0686],[88.7287,24.0902],[88.7247,24.1036],[88.704,24.0944],[88.6971,24.1189],[88.708,24.1192],[88.7464,24.147],[88.7409,24.162],[88.7312,24.1728],[88.7349,24.2225],[88.741,24.2525],[88.7336,24.282],[88.7242,24.2982],[88.7057,24.3122],[88.6966,24.3154],[88.6593,24.3143],[88.6287,24.3052],[88.6239,24.3155],[88.6073,24.3152],[88.5998,24.3108],[88.5884,24.3141],[88.5876,24.3241],[88.5678,24.3265],[88.5558,24.2944],[88.5275,24.344],[88.5083,24.3427],[88.4953,24.354],[88.4853,24.3555],[88.4469,24.3779],[88.4295,24.3832],[88.4126,24.3764],[88.3909,24.3715],[88.3572,24.3734],[88.3284,24.3845],[88.3107,24.4016],[88.2862,24.4211],[88.2743,24.4395],[88.2639,24.4458],[88.2285,24.4554],[88.2038,24.4593],[88.1914,24.4682],[88.1826,24.4843],[88.1665,24.4982],[88.1485,24.5042],[88.101,24.5509],[88.0897,24.5658],[88.0835,24.5801],[88.04,24.6436],[88.0272,24.6497],[88.0082,24.6678],[88.0416,24.7049],[88.0534,24.711],[88.0621,24.7211],[88.0718,24.7444],[88.0662,24.7503],[88.0884,24.7828],[88.1058,24.7806],[88.1049,24.7997],[88.1143,24.8165],[88.1233,24.823],[88.1315,24.805],[88.1362,24.8054],[88.133,24.8336],[88.1511,24.8496],[88.1636,24.8501],[88.167,24.8631],[88.1525,24.885],[88.1662,24.8956],[88.1388,24.9208],[88.1383,24.9364],[88.1577,24.9339],[88.1588,24.9418],[88.1702,24.9505],[88.191,24.9528],[88.2049,24.9595],[88.2257,24.9606],[88.2382,24.9423],[88.2565,24.926],[88.2616,24.9174],[88.2641,24.894],[88.2575,24.8774],[88.2656,24.8769],[88.2679,24.8891],[88.2965,24.8882],[88.3009,24.873],[88.316,24.8809],[88.3329,24.8709],[88.3465,24.8941],[88.3281,24.9046],[88.3243,24.9168],[88.3346,24.9269],[88.3403,24.941],[88.355,24.9428],[88.3665,24.9524],[88.3706,24.9424],[88.3854,24.9388],[88.3955,24.9418],[88.4002,24.9545],[88.3928,24.9612],[88.403,24.9734],[88.4173,24.9746],[88.4122,24.9857],[88.422,25.007],[88.4365,25.0084],[88.4389,25.0222],[88.452,25.0399],[88.4376,25.0431],[88.4354,25.0549],[88.4513,25.0763],[88.4463,25.0821],[88.4441,25.1001],[88.4473,25.1089],[88.4413,25.1277],[88.4579,25.136],[88.4592,25.1604],[88.4428,25.1852],[88.4432,25.1979],[88.4633,25.1953],[88.4747,25.2128],[88.498,25.2107],[88.5002,25.2036],[88.5261,25.2001],[88.5405,25.1894],[88.5485,25.1953],[88.5598,25.1911],[88.5559,25.1807],[88.5639,25.1754],[88.5796,25.1771],[88.6079,25.1964],[88.6136,25.2044],[88.6313,25.2023],[88.6429,25.2065],[88.672,25.1989],[88.6802,25.2093],[88.7148,25.2072],[88.7332,25.1992],[88.7346,25.1849],[88.7503,25.1821],[88.7579,25.1857],[88.8011,25.1715],[88.8138,25.1751],[88.8147,25.1846],[88.8254,25.1915],[88.8314,25.207],[88.8424,25.2115],[88.85,25.2021],[88.8647,25.2005],[88.8753,25.1795],[88.9107,25.1805],[88.9118,25.1693],[88.924,25.1716],[88.9343,25.1816],[88.9433,25.1738],[88.9471,25.1934],[88.9342,25.198],[88.9412,25.2085],[88.9558,25.2095],[88.9583,25.2284],[88.9498,25.2361],[88.9565,25.2548],[88.975,25.2602],[88.9875,25.2741],[89.0036,25.2684],[89.0087,25.2982],[88.9927,25.2958],[88.9845,25.3054],[88.9446,25.3013],[88.9164,25.3123],[88.9076,25.3263],[88.9067,25.3379],[88.8763,25.3369],[88.8672,25.3431],[88.8695,25.3527],[88.8575,25.3543],[88.8384,25.3686],[88.8418,25.3933],[88.8377,25.402],[88.8247,25.4008],[88.8206,25.4159],[88.8304,25.4179],[88.8346,25.4275],[88.8259,25.4435],[88.8383,25.4544],[88.8374,25.4723],[88.8295,25.4901],[88.813,25.4899],[88.8092,25.4997],[88.8104,25.523],[88.7922,25.5227],[88.7766,25.5163],[88.7596,25.5258],[88.76,25.5121],[88.7693,25.5003],[88.7647,25.4945],[88.7462,25.4926],[88.7421,25.5043],[88.7132,25.4989],[88.7082,25.4914],[88.7071,25.477],[88.6633,25.4736],[88.6605,25.4819],[88.6464,25.478],[88.6449,25.4983],[88.6236,25.4969],[88.6198,25.5039],[88.6029,25.5155],[88.5982,25.5065],[88.5723,25.5092],[88.5373,25.521],[88.5403,25.5298],[88.5193,25.5445],[88.5,25.5508],[88.4937,25.5592],[88.4998,25.584],[88.484,25.5863],[88.4686,25.5841],[88.4659,25.592],[88.448,25.6012],[88.4451,25.6145],[88.4536,25.627],[88.4559,25.644],[88.4541,25.6639],[88.4387,25.6679],[88.4017,25.6724],[88.4051,25.6834],[88.3904,25.6841],[88.3915,25.6931],[88.3702,25.7012],[88.3749,25.7125],[88.3591,25.7266],[88.3441,25.7297],[88.3378,25.7378],[88.3204,25.745],[88.3133,25.7551],[88.2993,25.7605],[88.2904,25.7738],[88.2787,25.7741],[88.2684,25.7807],[88.2719,25.7919],[88.2694,25.8076],[88.2489,25.8121],[88.2352,25.8081],[88.2315,25.7975],[88.215,25.801],[88.2091,25.7882],[88.1998,25.7902],[88.1934,25.8017],[88.1841,25.8017],[88.1728,25.7871],[88.1596,25.7879],[88.155,25.7774],[88.1421,25.7826],[88.1386,25.7969],[88.1146,25.7985],[88.12,25.8123],[88.1011,25.8289],[88.1078,25.8356],[88.1064,25.8452],[88.1137,25.8526],[88.1067,25.8676],[88.0937,25.8741],[88.1028,25.8892],[88.0898,25.898],[88.0908,25.927],[88.0993,25.9352],[88.1109,25.9335],[88.1123,25.9436],[88.1222,25.9482],[88.1143,25.9579],[88.1236,25.9657],[88.1308,25.9894],[88.1297,25.9969],[88.1438,26.0009],[88.1418,26.0145],[88.164,26.0213],[88.1715,26.0311],[88.1777,26.0522],[88.1854,26.0628],[88.1819,26.0736],[88.1725,26.0761],[88.1583,26.0959],[88.1651,26.1085],[88.1725,26.1106],[88.1783,26.1231],[88.1772,26.1475],[88.1963,26.1591],[88.223,26.1662],[88.2338,26.1801],[88.2475,26.1904],[88.2602,26.1867],[88.2745,26.1881],[88.286,26.2003],[88.2993,26.1979],[88.3085,26.2041],[88.3259,26.2054],[88.3308,26.2162],[88.3499,26.2204],[88.3594,26.2425],[88.3486,26.2523],[88.3489,26.2785],[88.3685,26.3007],[88.384,26.3138],[88.4019,26.3179],[88.4126,26.3377],[88.4354,26.3364],[88.4439,26.3609],[88.4572,26.3666],[88.4801,26.3506],[88.4881,26.3587],[88.5078,26.3622],[88.5225,26.3598],[88.5126,26.3775],[88.5151,26.3848],[88.4947,26.4092],[88.4889,26.4288],[88.492,26.4378],[88.4846,26.4603],[88.4621,26.4658],[88.4403,26.465],[88.4283,26.473],[88.4156,26.4692],[88.405,26.4805],[88.389,26.4786],[88.3726,26.4882],[88.3603,26.4817],[88.3645,26.4693],[88.3615,26.4544],[88.3526,26.451],[88.3471,26.4685],[88.3407,26.4689],[88.3313,26.4845],[88.3322,26.4932],[88.3462,26.506],[88.3582,26.5288],[88.3575,26.542],[88.3705,26.5597],[88.3713,26.5767],[88.3773,26.5963],[88.3877,26.6018],[88.3899,26.6147],[88.399,26.6268],[88.415,26.632]]],[[[92.3234,20.637],[92.3297,20.6351],[92.3261,20.6188],[92.3151,20.6281],[92.3234,20.637]]],[[[91.8702,21.9231],[91.8798,21.9211],[91.8944,21.8906],[91.8946,21.8608],[91.8773,21.8214],[91.8678,21.7914],[91.8507,21.7451],[91.8452,21.7406],[91.8434,21.7221],[91.8294,21.7232],[91.8292,21.7393],[91.8331,21.7603],[91.8447,21.7754],[91.8421,21.8051],[91.8512,21.8258],[91.85,21.8369],[91.8409,21.8585],[91.8467,21.8797],[91.8461,21.8963],[91.8702,21.9231]]],[[[91.0827,22.0535],[91.0661,22.0367],[91.055,22.0379],[91.0566,22.0509],[91.069,22.0632],[91.0803,22.0646],[91.0827,22.0535]]],[[[91.0338,22.0838],[91.043,22.0839],[91.0498,22.072],[91.0373,22.0425],[91.0243,22.0438],[90.9978,22.0253],[90.9811,22.0302],[90.9749,22.0497],[90.9749,22.0717],[90.984,22.0857],[91.0004,22.0996],[91.0104,22.0978],[91.0338,22.0838]]],[[[91.3767,22.3521],[91.3706,22.3534],[91.3637,22.3712],[91.3916,22.3885],[91.4,22.3813],[91.3917,22.3669],[91.3767,22.3521]]],[[[91.2562,22.4098],[91.246,22.4249],[91.2586,22.4351],[91.2664,22.4232],[91.2562,22.4098]]],[[[91.3534,22.5995],[91.3494,22.5861],[91.3378,22.5892],[91.3235,22.6104],[91.3465,22.6094],[91.3534,22.5995]]],[[[91.559,22.4791],[91.5698,22.4542],[91.5711,22.44],[91.5778,22.4232],[91.5702,22.4154],[91.57,22.4051],[91.5567,22.3958],[91.5448,22.3945],[91.5311,22.3873],[91.5157,22.3858],[91.4864,22.3929],[91.4768,22.4006],[91.4607,22.3938],[91.4474,22.3951],[91.4315,22.4034],[91.4067,22.4284],[91.3849,22.4366],[91.3987,22.4435],[91.3933,22.4507],[91.3898,22.4759],[91.3829,22.4865],[91.3831,22.5465],[91.3904,22.5655],[91.4138,22.5656],[91.4096,22.5806],[91.4241,22.6072],[91.4394,22.6181],[91.4561,22.6133],[91.4781,22.594],[91.5023,22.5667],[91.5399,22.5145],[91.559,22.4791]]],[[[88.9273,26.3317],[88.94,26.3327],[88.9403,26.3219],[88.952,26.3172],[88.9616,26.3056],[88.9615,26.2952],[88.9746,26.2965],[88.9807,26.2834],[88.9702,26.2782],[88.951,26.2758],[88.9359,26.2919],[88.9254,26.2932],[88.9186,26.3262],[88.9273,26.3317]]]]}},{"type":"Feature","properties":{"id":"antipode"},"geometry":{"type":"MultiPolygon","coordinates":[[[[-91.585,-26.632],[-91.601,-26.6268],[-91.6101,-26.6147],[-91.6123,-26.6018],[-91.6227,-26.5963],[-91.6287,-26.5767],[-91.6295,-26.5597],[-91.6425,-26.542],[-91.6418,-26.5288],[-91.6538,-26.506],[-91.6678,-26.4932],[-91.6687,-26.4845],[-91.6593,-26.4689],[-91.6529,-26.4685],[-91.6474,-26.451],[-91.6385,-26.4544],[-91.6355,-26.4693],[-91.6397,-26.4817],[-91.6274,-26.4882],[-91.611,-26.4786],[-91.595,-26.4805],[-91.5844,-26.4692],[-91.5717,-26.473],[-91.5597,-26.465],[-91.5379,-26.4658],[-91.5154,-26.4603],[-91.508,-26.4378],[-91.5111,-26.4288],[-91.5053,-26.4092],[-91.4849,-26.3848],[-91.4874,-26.3775],[-91.4775,-26.3598],[-91.4922,-26.3622],[-91.5119,-26.3587],[-91.5199,-26.3506],[-91.5428,-26.3666],[-91.5561,-26.3609],[-91.5646,-26.3364],[-91.5874,-26.3377],[-91.5981,-26.3179],[-91.616,-26.3138],[-91.6315,-26.3007],[-91.6511,-26.2785],[-91.6514,-26.2523],[-91.6406,-26.2425],[-91.6501,-26.2204],[-91.6692,-26.2162],[-91.6741,-26.2054],[-91.6915,-26.2041],[-91.7007,-26.1979],[-91.714,-26.2003],[-91.7255,-26.1881],[-91.7398,-26.1867],[-91.7525,-26.1904],[-91.7662,-26.1801],[-91.777,-26.1662],[-91.8037,-26.1591],[-91.8228,-26.1475],[-91.8217,-26.1231],[-91.8275,-26.1106],[-91.8349,-26.1085],[-91.8417,-26.0959],[-91.8275,-26.0761],[-91.8181,-26.0736],[-91.8146,-26.0628],[-91.8223,-26.0522],[-91.8285,-26.0311],[-91.836,-26.0213],[-91.8582,-26.0145],[-91.8562,-26.0009],[-91.8703,-25.9969],[-91.8692,-25.9894],[-91.8764,-25.9657],[-91.8857,-25.9579],[-91.8778,-25.9482],[-91.8877,-25.9436],[-91.8891,-25.9335],[-91.9007,-25.9352],[-91.9092,-25.927],[-91.9102,-25.898],[-91.8972,-25.8892],[-91.9063,-25.8741],[-91.8933,-25.8676],[-91.8863,-25.8526],[-91.8936,-25.8452],[-91.8922,-25.8356],[-91.8989,-25.8289],[-91.88,-25.8123],[-91.8854,-25.7985],[-91.8614,-25.7969],[-91.8579,-25.7826],[-91.845,-25.7774],[-91.8404,-25.7879],[-91.8272,-25.7871],[-91.8159,-25.8017],[-91.8066,-25.8017],[-91.8002,-25.7902],[-91.7909,-25.7882],[-91.785,-25.801],[-91.7685,-25.7975],[-91.7648,-25.8081],[-91.7511,-25.8121],[-91.7306,-25.8076],[-91.7281,-25.7919],[-91.7316,-25.7807],[-91.7213,-25.7741],[-91.7096,-25.7738],[-91.7007,-25.7605],[-91.6867,-25.7551],[-91.6796,-25.745],[-91.6622,-25.7378],[-91.6559,-25.7297],[-91.6409,-25.7266],[-91.6251,-25.7125],[-91.6298,-25.7012],[-91.6085,-25.6931],[-91.6096,-25.6841],[-91.5949,-25.6834],[-91.5983,-25.6724],[-91.5613,-25.6679],[-91.5459,-25.6639],[-91.5441,-25.644],[-91.5464,-25.627],[-91.5549,-25.6145],[-91.552,-25.6012],[-91.5341,-25.592],[-91.5314,-25.5841],[-91.516,-25.5863],[-91.5002,-25.584],[-91.5063,-25.5592],[-91.5,-25.5508],[-91.4807,-25.5445],[-91.4597,-25.5298],[-91.4627,-25.521],[-91.4277,-25.5092],[-91.4018,-25.5065],[-91.3971,-25.5155],[-91.3802,-25.5039],[-91.3764,-25.4969],[-91.3551,-25.4983],[-91.3536,-25.478],[-91.3395,-25.4819],[-91.3367,-25.4736],[-91.2929,-25.477],[-91.2918,-25.4914],[-91.2868,-25.4989],[-91.2579,-25.5043],[-91.2538,-25.4926],[-91.2353,-25.4945],[-91.2307,-25.5003],[-91.24,-25.5121],[-91.2404,-25.5258],[-91.2234,-25.5163],[-91.2078,-25.5227],[-91.1896,-25.523],[-91.1908,-25.4997],[-91.187,-25.4899],[-91.1705,-25.4901],[-91.1626,-25.4723],[-91.1617,-25.4544],[-91.1741,-25.4435],[-91.1654,-25.4275],[-91.1696,-25.4179],[-91.1794,-25.4159],[-91.1753,-25.4008],[-91.1623,-25.402],[-91.1582,-25.3933],[-91.1616,-25.3686],[-91.1425,-25.3543],[-91.1305,-25.3527],[-91.1328,-25.3431],[-91.1237,-25.3369],[-91.0933,-25.3379],[-91.0924,-25.3263],[-91.0836,-25.3123],[-91.0554,-25.3013],[-91.0155,-25.3054],[-91.0073,-25.2958],[-90.9913,-25.2982],[-90.9964,-25.2684],[-91.0125,-25.2741],[-91.025,-25.2602],[-91.0435,-25.2548],[-91.0502,-25.2361],[-91.0417,-25.2284],[-91.0442,-25.2095],[-91.0588,-25.2085],[-91.0658,-25.198],[-91.0529,-25.1934],[-91.0567,-25.1738],[-91.0657,-25.1816],[-91.076,-25.1716],[-91.0882,-25.1693],[-91.0893,-25.1805],[-91.1247,-25.1795],[-91.1353,-25.2005],[-91.15,-25.2021],[-91.1576,-25.2115],[-91.1686,-25.207],[-91.1746,-25.1915],[-91.1853,-25.1846],[-91.1862,-25.1751],[-91.1989,-25.1715],[-91.2421,-25.1857],[-91.2497,-25.1821],[-91.2654,-25.1849],[-91.2668,-25.1992],[-91.2852,-25.2072],[-91.3198,-25.2093],[-91.328,-25.1989],[-91.3571,-25.2065],[-91.3687,-25.2023],[-91.3864,-25.2044],[-91.3921,-25.1964],[-91.4204,-25.1771],[-91.4361,-25.1754],[-91.4441,-25.1807],[-91.4402,-25.1911],[-91.4515,-25.1953],[-91.4595,-25.1894],[-91.4739,-25.2001],[-91.4998,-25.2036],[-91.502,-25.2107],[-91.5253,-25.2128],[-91.5367,-25.1953],[-91.5568,-25.1979],[-91.5572,-25.1852],[-91.5408,-25.1604],[-91.5421,-25.136],[-91.5587,-25.1277],[-91.5527,-25.1089],[-91.5559,-25.1001],[-91.5537,-25.0821],[-91.5487,-25.0763],[-91.5646,-25.0549],[-91.5624,-25.0431],[-91.548,-25.0399],[-91.5611,-25.0222],[-91.5635,-25.0084],[-91.578,-25.007],[-91.5878,-24.9857],[-91.5827,-24.9746],[-91.597,-24.9734],[-91.6072,-24.9612],[-91.5998,-24.9545],[-91.6045,-24.9418],[-91.6146,-24.9388],[-91.6294,-24.9424],[-91.6335,-24.9524],[-91.645,-24.9428],[-91.6597,-24.941],[-91.6654,-24.9269],[-91.6757,-24.9168],[-91.6719,-24.9046],[-91.6535,-24.8941],[-91.6671,-24.8709],[-91.684,-24.8809],[-91.6991,-24.873],[-91.7035,-24.8882],[-91.7321,-24.8891],[-91.7344,-24.8769],[-91.7425,-24.8774],[-91.7359,-24.894],[-91.7384,-24.9174],[-91.7435,-24.926],[-91.7618,-24.9423],[-91.7743,-24.9606],[-91.7951,-24.9595],[-91.809,-24.9528],[-91.8298,-24.9505],[-91.8412,-24.9418],[-91.8423,-24.9339],[-91.8617,-24.9364],[-91.8612,-24.9208],[-91.8338,-24.8956],[-91.8475,-24.885],[-91.833,-24.8631],[-91.8364,-24.8501],[-91.8489,-24.8496],[-91.867,-24.8336],[-91.8638,-24.8054],[-91.8685,-24.805],[-91.8767,-24.823],[-91.8857,-24.8165],[-91.8951,-24.7997],[-91.8942,-24.7806],[-91.9116,-24.7828],[-91.9338,-24.7503],[-91.9282,-24.7444],[-91.9379,-24.7211],[-91.9466,-24.711],[-91.9584,-24.7049],[-91.9918,-24.6678],[-91.9728,-24.6497],[-91.96,-24.6436],[-91.9165,-24.5801],[-91.9103,-24.5658],[-91.899,-24.5509],[-91.8515,-24.5042],[-91.8335,-24.4982],[-91.8174,-24.4843],[-91.8086,-24.4682],[-91.7962,-24.4593],[-91.7715,-24.4554],[-91.7361,-24.4458],[-91.7257,-24.4395],[-91.7138,-24.4211],[-91.6893,-24.4016],[-91.6716,-24.3845],[-91.6428,-24.3734],[-91.6091,-24.3715],[-91.5874,-24.3764],[-91.5705,-24.3832],[-91.5531,-24.3779],[-91.5147,-24.3555],[-91.5047,-24.354],[-91.4917,-24.3427],[-91.4725,-24.344],[-91.4442,-24.2944],[-91.4322,-24.3265],[-91.4124,-24.3241],[-91.4116,-24.3141],[-91.4002,-24.3108],[-91.3927,-24.3152],[-91.3761,-24.3155],[-91.3713,-24.3052],[-91.3407,-24.3143],[-91.3034,-24.3154],[-91.2943,-24.3122],[-91.2758,-24.2982],[-91.2664,-24.282],[-91.259,-24.2525],[-91.2651,-24.2225],[-91.2688,-24.1728],[-91.2591,-24.162],[-91.2536,-24.147],[-91.292,-24.1192],[-91.3029,-24.1189],[-91.296,-24.0944],[-91.2753,-24.1036],[-91.2713,-24.0902],[-91.2765,-24.0686],[-91.27,-24.0586],[-91.275,-24.0411],[-91.2583,-24.0354],[-91.2656,-24.0215],[-91.2715,-23.9965],[-91.2649,-23.9954],[-91.2538,-24.0058],[-91.2383,-24.0048],[-91.2324,-23.9816],[-91.2506,-23.9851],[-91.2631,-23.9815],[-91.2672,-23.9609],[-91.2599,-23.9385],[-91.2669,-23.9229],[-91.2645,-23.9151],[-91.2934,-23.9164],[-91.3007,-23.9101],[-91.2997,-23.8992],[-91.3117,-23.9013],[-91.3154,-23.8905],[-91.3362,-23.8779],[-91.3449,-23.8689],[-91.3821,-23.8766],[-91.4007,-23.8693],[-91.4127,-23.8713],[-91.4234,-23.8551],[-91.4118,-23.8557],[-91.4114,-23.828],[-91.3998,-23.8215],[-91.4096,-23.7975],[-91.4304,-23.7834],[-91.4213,-23.7754],[-91.4194,-23.7653],[-91.4273,-23.7483],[-91.4252,-23.7402],[-91.4348,-23.7122],[-91.431,-23.6905],[-91.4252,-23.6768],[-91.4294,-23.6617],[-91.4419,-23.6496],[-91.4378,-23.6373],[-91.4065,-23.641],[-91.4072,-23.6033],[-91.3992,-23.6075],[-91.3821,-23.6018],[-91.3669,-23.6092],[-91.3565,-23.6074],[-91.3562,-23.5916],[-91.3403,-23.5492],[-91.3254,-23.548],[-91.2878,-23.5095],[-91.2766,-23.5128],[-91.2681,-23.4964],[-91.2549,-23.4819],[-91.2445,-23.4789],[-91.2297,-23.4976],[-91.2167,-23.5024],[-91.2,-23.4988],[-91.2125,-23.4699],[-91.2091,-23.4509],[-91.2171,-23.4406],[-91.2347,-23.4485],[-91.2483,-23.4029],[-91.2469,-23.3894],[-91.2356,-23.37],[-91.239,-23.3623],[-91.2499,-23.3631],[-91.2616,-23.3442],[-91.2666,-23.3272],[-91.2512,-23.3221],[-91.2556,-23.3068],[-91.2732,-23.3019],[-91.2933,-23.3107],[-91.3034,-23.3025],[-91.3028,-23.2932],[-91.2908,-23.2898],[-91.286,-23.2755],[-91.2764,-23.27],[-91.2813,-23.2545],[-91.248,-23.2406],[-91.2329,-23.2461],[-91.2235,-23.2367],[-91.2256,-23.2251],[-91.1961,-23.2191],[-91.1913,-23.2248],[-91.194,-23.2386],[-91.1903,-23.2549],[-91.1627,-23.2437],[-91.1505,-23.2308],[-91.1382,-23.2338],[-91.1132,-23.2317],[-91.0885,-23.234],[-91.0863,-23.2152],[-91.0587,-23.2064],[-91.0366,-23.2149],[-91.0241,-23.2243],[-91.0154,-23.2212],[-91.0146,-23.2084],[-91.0192,-23.1922],[-91.0338,-23.1937],[-91.0429,-23.1834],[-91.0607,-23.1769],[-91.0718,-23.1635],[-91.0678,-23.1547],[-91.077,-23.1449],[-91.0822,-23.1297],[-91.0897,-23.1299],[-91.0999,-23.1127],[-91.1307,-23.1001],[-91.1254,-23.0902],[-91.1348,-23.0777],[-91.1264,-23.0659],[-91.1247,-23.0449],[-91.1158,-23.0384],[-91.1271,-23.018],[-91.1357,-22.9903],[-91.1315,-22.9754],[-91.1421,-22.9699],[-91.1445,-22.959],[-91.1406,-22.9429],[-91.1303,-22.9511],[-91.1077,-22.9521],[-91.1073,-22.9258],[-91.0937,-22.9212],[-91.1016,-22.8978],[-91.0925,-22.8928],[-91.0902,-22.879],[-91.0715,-22.872],[-91.0508,-22.876],[-91.0464,-22.8636],[-91.0327,-22.8439],[-91.0425,-22.7962],[-91.0506,-22.7974],[-91.0648,-22.7818],[-91.0756,-22.7799],[-91.0892,-22.7581],[-91.0793,-22.7528],[-91.0842,-22.7362],[-91.0745,-22.7278],[-91.0718,-22.7181],[-91.0388,-22.6953],[-91.0523,-22.6777],[-91.0551,-22.6624],[-91.0725,-22.6487],[-91.066,-22.6283],[-91.0608,-22.6221],[-91.0429,-22.6171],[-91.0408,-22.611],[-91.0606,-22.591],[-91.0555,-22.5687],[-91.0776,-22.5703],[-91.0775,-22.5634],[-91.0407,-22.5524],[-91.0294,-22.5296],[-91.0248,-22.4968],[-91.0183,-22.4833],[-91.0037,-22.4678],[-91.0103,-22.4426],[-91.0005,-22.4327],[-91.0283,-22.4077],[-91.0083,-22.3898],[-91.0175,-22.3741],[-91.0115,-22.3666],[-91.011,-22.3483],[-91.0149,-22.3283],[-91.0009,-22.3247],[-90.976,-22.2986],[-91.002,-22.2963],[-91.0031,-22.2839],[-90.9799,-22.2688],[-90.9803,-22.2545],[-90.966,-22.2587],[-90.9635,-22.2373],[-90.9544,-22.2216],[-90.9294,-22.1973],[-90.9296,-22.1858],[-90.9385,-22.1714],[-90.929,-22.1489],[-90.9217,-22.1472],[-90.9095,-22.1604],[-90.9042,-22.1475],[-90.9353,-22.1239],[-90.9452,-22.1204],[-90.9573,-22.1064],[-90.9608,-22.0952],[-90.9516,-22.0575],[-90.9359,-22.0357],[-90.9219,-22.0201],[-90.9165,-22.003],[-90.9211,-21.9856],[-90.9188,-21.9563],[-90.9272,-21.9277],[-90.9473,-21.9275],[-90.9724,-21.9202],[-90.977,-21.8922],[-90.9558,-21.8624],[-90.9578,-21.8279],[-90.97,-21.7979],[-90.9704,-21.7817],[-90.9505,-21.7588],[-90.9253,-21.7202],[-90.8645,-21.6472],[-90.8383,-21.6455],[-90.8257,-21.6537],[-90.8025,-21.6565],[-90.7337,-21.6542],[-90.6795,-21.6734],[-90.6741,-21.6853],[-90.6643,-21.6752],[-90.6511,-21.6709],[-90.5662,-21.6726],[-90.5313,-21.677],[-90.5158,-21.6826],[-90.5025,-21.6924],[-90.4917,-21.6793],[-90.4583,-21.6635],[-90.3833,-21.6645],[-90.3625,-21.6638],[-90.3842,-21.6981],[-90.3861,-21.7125],[-90.3785,-21.7346],[-90.3777,-21.7459],[-90.3496,-21.7293],[-90.332,-21.7311],[-90.3035,-21.7445],[-90.2843,-21.7627],[-90.2732,-21.7823],[-90.2523,-21.8298],[-90.2395,-21.8319],[-90.2106,-21.8167],[-90.189,-21.8017],[-90.1776,-21.7904],[-90.156,-21.7815],[-90.1113,-21.7778],[-90.0918,-21.7804],[-90.0899,-21.8039],[-90.0902,-21.8318],[-90.0974,-21.8762],[-90.094,-21.8959],[-90.0939,-21.9189],[-90.105,-21.9579],[-90.0903,-21.9653],[-90.0457,-21.9665],[-90.0334,-21.9699],[-90.0167,-21.9812],[-89.9737,-21.9867],[-89.9696,-21.976],[-89.9596,-21.9761],[-89.9506,-21.9649],[-89.978,-21.9504],[-89.9866,-21.9343],[-89.9912,-21.9151],[-89.9926,-21.8913],[-89.9908,-21.8772],[-89.9821,-21.8602],[-89.9598,-21.8492],[-89.9215,-21.8451],[-89.9129,-21.8274],[-89.8962,-21.8111],[-89.8743,-21.8026],[-89.8527,-21.7971],[-89.8226,-21.7944],[-89.7943,-21.8048],[-89.7809,-21.8065],[-89.7485,-21.8292],[-89.6966,-21.8285],[-89.6761,-21.831],[-89.5908,-21.8156],[-89.5639,-21.8173],[-89.5309,-21.7998],[-89.5141,-21.8034],[-89.5051,-21.8187],[-89.4666,-21.8697],[-89.459,-21.8751],[-89.4039,-21.8948],[-89.4047,-21.8443],[-89.1426,-21.8385],[-89.1442,-22.0488],[-89.0438,-22.0276],[-89.0381,-22.049],[-89.0209,-22.0921],[-89.0071,-22.1216],[-88.9789,-22.1184],[-88.9763,-22.1034],[-88.9523,-22.0876],[-88.8898,-22.1409],[-88.8745,-22.1425],[-88.8515,-22.1658],[-88.8399,-22.1727],[-88.8245,-22.1911],[-88.8207,-22.2197],[-88.8107,-22.2425],[-88.8129,-22.2664],[-88.7919,-22.2694],[-88.7914,-22.2764],[-88.7989,-22.3234],[-88.8127,-22.3743],[-88.7816,-22.3614],[-88.7725,-22.3612],[-88.7751,-22.416],[-88.7786,-22.453],[-88.7861,-22.4589],[-88.8093,-22.4586],[-88.8087,-22.4697],[-88.8159,-22.5075],[-88.7973,-22.5046],[-88.7759,-22.5071],[-88.7543,-22.5042],[-88.7367,-22.5188],[-88.763,-22.5397],[-88.7611,-22.5444],[-88.7303,-22.5431],[-88.7342,-22.5204],[-88.718,-22.5014],[-88.7091,-22.4835],[-88.697,-22.4871],[-88.6934,-22.4947],[-88.6722,-22.5014],[-88.647,-22.5259],[-88.6451,-22.5517],[-88.6501,-22.563],[-88.6618,-22.5649],[-88.6764,-22.5585],[-88.6913,-22.5908],[-88.7004,-22.6053],[-88.7273,-22.6369],[-88.7147,-22.6513],[-88.6888,-22.6618],[-88.6826,-22.6555],[-88.6685,-22.6596],[-88.6336,-22.6544],[-88.6209,-22.6848],[-88.5996,-22.6705],[-88.5932,-22.6839],[-88.6171,-22.716],[-88.5704,-22.6979],[-88.5604,-22.6976],[-88.547,-22.6907],[-88.513,-22.6569],[-88.4828,-22.6322],[-88.4801,-22.6196],[-88.4604,-22.5949],[-88.4437,-22.5803],[-88.4234,-22.5477],[-88.3843,-22.4966],[-88.3672,-22.4572],[-88.3551,-22.4064],[-88.261,-22.4089],[-88.2549,-22.399],[-88.2532,-22.3851],[-88.2577,-22.3771],[-88.245,-22.2851],[-88.2267,-22.263],[-88.2215,-22.2321],[-88.2017,-22.2198],[-88.1878,-22.2078],[-88.1913,-22.1892],[-88.1847,-22.162],[-88.174,-22.1454],[-88.1701,-22.1321],[-88.1574,-22.1105],[-88.1423,-22.1082],[-88.1354,-22.0753],[-88.1284,-22.0559],[-88.1193,-22.0423],[-88.1219,-22.0308],[-88.1147,-22.008],[-88.1224,-21.9457],[-88.12,-21.9408],[-88.1011,-21.9405],[-88.0934,-21.931],[-88.0956,-21.913],[-88.0873,-21.8795],[-88.0857,-21.8578],[-88.0967,-21.8502],[-88.1073,-21.82],[-88.1359,-21.7554],[-88.1443,-21.7315],[-88.1272,-21.7222],[-88.1411,-21.6972],[-88.1455,-21.6722],[-88.1564,-21.6477],[-88.1578,-21.6246],[-88.1536,-21.587],[-88.1473,-21.575],[-88.1502,-21.545],[-88.1581,-21.5339],[-88.1527,-21.519],[-88.1336,-21.4956],[-88.1061,-21.4745],[-88.0913,-21.4725],[-88.0787,-21.4793],[-88.0782,-21.491],[-88.0588,-21.4978],[-88.0382,-21.4999],[-88.0244,-21.4806],[-88.0534,-21.4657],[-88.0432,-21.4431],[-88.0136,-21.4107],[-87.9796,-21.3627],[-87.9663,-21.3233],[-87.952,-21.2862],[-87.9562,-21.2345],[-87.9533,-21.2236],[-87.9538,-21.1846],[-87.9456,-21.167],[-87.9003,-21.112],[-87.826,-21.0271],[-87.8118,-21.0049],[-87.7973,-20.9576],[-87.7885,-20.9425],[-87.7752,-20.9125],[-87.7469,-20.874],[-87.7342,-20.8531],[-87.7113,-20.8089],[-87.6954,-20.7612],[-87.6846,-20.7424],[-87.6538,-20.7199],[-87.636,-20.7276],[-87.6395,-20.7536],[-87.6533,-20.7781],[-87.6689,-20.8392],[-87.6851,-20.8866],[-87.7159,-20.9192],[-87.7291,-20.9404],[-87.7285,-20.9808],[-87.7364,-21.0117],[-87.746,-21.0237],[-87.7427,-21.0501],[-87.7354,-21.0623],[-87.7412,-21.0792],[-87.7659,-21.0971],[-87.7761,-21.1204],[-87.7925,-21.119],[-87.7986,-21.1241],[-87.8019,-21.1382],[-87.7969,-21.1464],[-87.8002,-21.1615],[-87.8233,-21.1597],[-87.8266,-21.18],[-87.8143,-21.1939],[-87.7938,-21.2096],[-87.7894,-21.2239],[-87.781,-21.2349],[-87.788,-21.2481],[-87.781,-21.2563],[-87.7825,-21.2782],[-87.8016,-21.3095],[-87.8026,-21.3284],[-87.7757,-21.3519],[-87.7533,-21.357],[-87.7412,-21.3645],[-87.7439,-21.3911],[-87.7304,-21.4],[-87.7308,-21.4277],[-87.7084,-21.431],[-87.7027,-21.4191],[-87.6698,-21.4198],[-87.6721,-21.4327],[-87.6626,-21.4369],[-87.6636,-21.4473],[-87.6583,-21.4619],[-87.6441,-21.4667],[-87.6324,-21.4798],[-87.6203,-21.4812],[-87.6095,-21.4714],[-87.588,-21.442],[-87.5735,-21.4322],[-87.5687,-21.4105],[-87.5728,-21.3956],[-87.5722,-21.38],[-87.5586,-21.3653],[-87.5433,-21.3692],[-87.5026,-21.3515],[-87.4924,-21.3598],[-87.4934,-21.3773],[-87.4761,-21.3715],[-87.4583,-21.381],[-87.4433,-21.3844],[-87.4378,-21.3631],[-87.4102,-21.2788],[-87.4053,-21.2461],[-87.3834,-21.2482],[-87.3695,-21.2688],[-87.3248,-21.2842],[-87.3219,-21.2996],[-87.3346,-21.3167],[-87.3478,-21.3558],[-87.3621,-21.4322],[-87.3677,-21.4429],[-87.3748,-21.476],[-87.3738,-21.4871],[-87.3818,-21.5159],[-87.381,-21.5343],[-87.3852,-21.5684],[-87.3915,-21.5837],[-87.3907,-21.6236],[-87.3985,-21.6579],[-87.3941,-21.69],[-87.4,-21.7021],[-87.3935,-21.7286],[-87.3954,-21.7428],[-87.3891,-21.7757],[-87.3928,-21.8015],[-87.3907,-21.8164],[-87.3797,-21.8222],[-87.3854,-21.831],[-87.3864,-21.8508],[-87.3794,-21.8608],[-87.3696,-21.8614],[-87.368,-21.8764],[-87.3768,-21.9127],[-87.3853,-21.9315],[-87.3878,-21.9537],[-87.3957,-21.9818],[-87.3893,-21.986],[-87.3936,-21.9996],[-87.4027,-22.0084],[-87.401,-22.0284],[-87.4078,-22.0427],[-87.401,-22.0607],[-87.4092,-22.0669],[-87.4114,-22.0822],[-87.428,-22.1184],[-87.4386,-22.1283],[-87.4212,-22.1433],[-87.4091,-22.1403],[-87.4096,-22.1299],[-87.4004,-22.1239],[-87.3899,-22.1359],[-87.3934,-22.1719],[-87.4044,-22.1738],[-87.4066,-22.2064],[-87.4121,-22.2163],[-87.4086,-22.2399],[-87.4139,-22.2625],[-87.4223,-22.2683],[-87.4229,-22.2833],[-87.418,-22.3029],[-87.4213,-22.3244],[-87.4295,-22.359],[-87.4383,-22.3726],[-87.4401,-22.4007],[-87.4472,-22.4082],[-87.4455,-22.4308],[-87.4496,-22.4577],[-87.4539,-22.4638],[-87.4531,-22.5149],[-87.4603,-22.5283],[-87.4626,-22.5449],[-87.4725,-22.557],[-87.4728,-22.5727],[-87.4626,-22.5747],[-87.4628,-22.5939],[-87.4698,-22.6047],[-87.4725,-22.6212],[-87.4678,-22.6333],[-87.4751,-22.64],[-87.4747,-22.6733],[-87.4815,-22.689],[-87.4863,-22.7103],[-87.4837,-22.7222],[-87.4996,-22.7375],[-87.5209,-22.7474],[-87.5248,-22.7717],[-87.5307,-22.7875],[-87.5299,-22.7987],[-87.5381,-22.8074],[-87.5417,-22.8378],[-87.5355,-22.8566],[-87.5431,-22.8605],[-87.5404,-22.8713],[-87.5521,-22.8789],[-87.5514,-22.8916],[-87.5636,-22.8874],[-87.5859,-22.915],[-87.594,-22.9181],[-87.6044,-22.931],[-87.6238,-22.9294],[-87.6256,-22.9717],[-87.6185,-22.977],[-87.6146,-22.993],[-87.6204,-23.012],[-87.6093,-23.0587],[-87.621,-23.0867],[-87.6261,-23.0865],[-87.6422,-23.1069],[-87.6328,-23.1264],[-87.6433,-23.1341],[-87.6362,-23.1558],[-87.6466,-23.1842],[-87.6457,-23.2218],[-87.6496,-23.235],[-87.6015,-23.2362],[-87.6079,-23.2492],[-87.6071,-23.2654],[-87.6177,-23.2862],[-87.613,-23.3054],[-87.6225,-23.3205],[-87.6345,-23.3232],[-87.6241,-23.3361],[-87.6187,-23.3511],[-87.6215,-23.364],[-87.6366,-23.3667],[-87.6432,-23.3731],[-87.6487,-23.4045],[-87.6531,-23.4126],[-87.6551,-23.4314],[-87.6692,-23.4352],[-87.6817,-23.5037],[-87.6831,-23.5291],[-87.6925,-23.5344],[-87.6875,-23.5575],[-87.6984,-23.5897],[-87.711,-23.5987],[-87.7127,-23.6183],[-87.7096,-23.6294],[-87.7229,-23.633],[-87.7249,-23.6516],[-87.7111,-23.6739],[-87.7107,-23.7009],[-87.7273,-23.7209],[-87.7437,-23.7252],[-87.7594,-23.7196],[-87.7627,-23.7134],[-87.7571,-23.6956],[-87.7673,-23.6853],[-87.7691,-23.6659],[-87.7744,-23.6546],[-87.7882,-23.6534],[-87.7939,-23.6725],[-87.7861,-23.6839],[-87.7939,-23.7013],[-87.8137,-23.7103],[-87.8301,-23.7228],[-87.8281,-23.7378],[-87.8404,-23.7386],[-87.8542,-23.7342],[-87.8567,-23.7274],[-87.8761,-23.705],[-87.8792,-23.6935],[-87.8929,-23.6892],[-87.9015,-23.6758],[-87.9168,-23.6804],[-87.923,-23.6674],[-87.9203,-23.6485],[-87.9377,-23.6455],[-87.9593,-23.6484],[-87.9752,-23.6617],[-87.9916,-23.6642],[-87.9995,-23.6716],[-88.0225,-23.7339],[-88.0434,-23.7339],[-88.0511,-23.7148],[-88.0466,-23.6938],[-88.0578,-23.6938],[-88.0658,-23.6858],[-88.0586,-23.6694],[-88.0603,-23.659],[-88.0537,-23.6458],[-88.0589,-23.6346],[-88.0489,-23.6161],[-88.0427,-23.5513],[-88.0357,-23.5334],[-88.0434,-23.5219],[-88.0325,-23.5109],[-88.0363,-23.4975],[-88.0334,-23.4688],[-88.0496,-23.4649],[-88.0602,-23.45],[-88.0776,-23.4534],[-88.107,-23.4323],[-88.1393,-23.4061],[-88.149,-23.4019],[-88.1577,-23.3906],[-88.1582,-23.3752],[-88.1628,-23.3604],[-88.1785,-23.3587],[-88.1716,-23.3769],[-88.1735,-23.399],[-88.1853,-23.396],[-88.1892,-23.3859],[-88.2007,-23.3966],[-88.2095,-23.3916],[-88.2028,-23.3667],[-88.2146,-23.3533],[-88.2127,-23.3415],[-88.2181,-23.3359],[-88.2531,-23.3119],[-88.2552,-23.3038],[-88.2365,-23.3021],[-88.2407,-23.288],[-88.2361,-23.2734],[-88.2244,-23.2677],[-88.2215,-23.2526],[-88.2111,-23.2248],[-88.2131,-23.2076],[-88.2027,-23.1941],[-88.2063,-23.187],[-88.1954,-23.1797],[-88.1946,-23.1589],[-88.1875,-23.1459],[-88.1901,-23.1217],[-88.1832,-23.1033],[-88.1663,-23.0944],[-88.1854,-23.0807],[-88.189,-23.069],[-88.2009,-23.0655],[-88.2159,-23.0716],[-88.2272,-23.066],[-88.2209,-23.0586],[-88.2165,-23.0386],[-88.2388,-23.0305],[-88.258,-23.0065],[-88.2756,-22.9978],[-88.2788,-22.9903],[-88.3064,-22.9883],[-88.3214,-22.9824],[-88.3592,-22.9747],[-88.3634,-22.9635],[-88.3745,-22.9629],[-88.3839,-22.9513],[-88.3965,-22.9604],[-88.4017,-22.9766],[-88.4103,-22.9774],[-88.4229,-22.9672],[-88.4437,-22.9789],[-88.443,-22.9961],[-88.4576,-22.999],[-88.4521,-23.0191],[-88.4615,-23.0198],[-88.4499,-23.0384],[-88.4694,-23.0387],[-88.4648,-23.0635],[-88.4806,-23.0944],[-88.4885,-23.1045],[-88.4855,-23.1229],[-88.4962,-23.1304],[-88.4948,-23.1406],[-88.5047,-23.1472],[-88.509,-23.1578],[-88.5018,-23.1718],[-88.4968,-23.1922],[-88.5151,-23.1884],[-88.5156,-23.2094],[-88.5246,-23.2205],[-88.5416,-23.2133],[-88.5461,-23.2236],[-88.5297,-23.2278],[-88.5421,-23.2462],[-88.554,-23.2499],[-88.5459,-23.2604],[-88.5686,-23.2626],[-88.5807,-23.2579],[-88.5805,-23.2732],[-88.5918,-23.2846],[-88.5895,-23.2587],[-88.593,-23.2478],[-88.6087,-23.2468],[-88.6015,-23.2295],[-88.6161,-23.2123],[-88.6141,-23.2043],[-88.6185,-23.1846],[-88.6165,-23.1562],[-88.6122,-23.153],[-88.5978,-23.1135],[-88.6004,-23.0966],[-88.5927,-23.0835],[-88.5836,-23.083],[-88.5894,-23.0661],[-88.6057,-23.0566],[-88.6302,-23.0698],[-88.6529,-23.1014],[-88.653,-23.1179],[-88.6631,-23.132],[-88.6674,-23.1531],[-88.6766,-23.1602],[-88.6753,-23.1698],[-88.6763,-23.2376],[-88.6903,-23.2764],[-88.6998,-23.293],[-88.685,-23.3034],[-88.6899,-23.3143],[-88.7098,-23.3195],[-88.7035,-23.3408],[-88.6895,-23.3426],[-88.6894,-23.3516],[-88.7088,-23.3513],[-88.7201,-23.377],[-88.7237,-23.413],[-88.7362,-23.4232],[-88.73,-23.4292],[-88.7432,-23.4409],[-88.7485,-23.453],[-88.7479,-23.4813],[-88.7508,-23.4897],[-88.7635,-23.4897],[-88.7687,-23.4999],[-88.7823,-23.5003],[-88.7768,-23.5148],[-88.7924,-23.5125],[-88.7997,-23.5207],[-88.7909,-23.5469],[-88.8058,-23.5477],[-88.8052,-23.5634],[-88.8142,-23.5781],[-88.8354,-23.5936],[-88.8427,-23.6228],[-88.8394,-23.6641],[-88.8305,-23.6584],[-88.8074,-23.6544],[-88.7994,-23.6565],[-88.7958,-23.6795],[-88.8065,-23.6905],[-88.8468,-23.6888],[-88.8515,-23.7119],[-88.8442,-23.7366],[-88.8323,-23.7502],[-88.8044,-23.7514],[-88.7903,-23.749],[-88.7812,-23.7381],[-88.7693,-23.7664],[-88.7736,-23.7911],[-88.7626,-23.8139],[-88.7455,-23.8378],[-88.7704,-23.8808],[-88.7712,-23.8974],[-88.7552,-23.9074],[-88.7589,-23.9229],[-88.7247,-23.9247],[-88.7276,-23.9381],[-88.7359,-23.9454],[-88.73,-23.96],[-88.7176,-23.979],[-88.7124,-23.9678],[-88.7026,-23.976],[-88.6964,-23.9963],[-88.683,-23.99],[-88.6756,-23.9937],[-88.6591,-23.9819],[-88.6414,-23.9835],[-88.6258,-23.9747],[-88.6199,-23.978],[-88.6268,-24.0025],[-88.6091,-24.025],[-88.6036,-24.0494],[-88.6227,-24.0792],[-88.6258,-24.1069],[-88.6003,-24.1107],[-88.5718,-24.1075],[-88.5683,-24.099],[-88.5492,-24.0997],[-88.537,-24.0946],[-88.5231,-24.0988],[-88.5008,-24.0856],[-88.4924,-24.0853],[-88.4534,-24.0735],[-88.4402,-24.0763],[-88.413,-24.0715],[-88.4071,-24.0736],[-88.4058,-24.0885],[-88.3991,-24.0959],[-88.3897,-24.0912],[-88.3625,-24.1002],[-88.3576,-24.1131],[-88.3639,-24.1369],[-88.3517,-24.1562],[-88.3528,-24.1783],[-88.3423,-24.1786],[-88.3403,-24.1903],[-88.3468,-24.196],[-88.3511,-24.2155],[-88.3421,-24.2259],[-88.3311,-24.2304],[-88.3319,-24.2092],[-88.32,-24.1934],[-88.3188,-24.1755],[-88.3071,-24.1599],[-88.2791,-24.1522],[-88.2717,-24.1438],[-88.2406,-24.1424],[-88.2492,-24.2166],[-88.2539,-24.2473],[-88.2069,-24.2208],[-88.1923,-24.221],[-88.1759,-24.2109],[-88.1557,-24.2267],[-88.1446,-24.213],[-88.1548,-24.1999],[-88.1489,-24.1831],[-88.1389,-24.1834],[-88.1267,-24.175],[-88.1217,-24.147],[-88.1091,-24.1372],[-88.0945,-24.1395],[-88.087,-24.1557],[-88.0884,-24.1685],[-88.0601,-24.269],[-88.0803,-24.3367],[-88.0597,-24.3429],[-88.044,-24.3566],[-88.0287,-24.3432],[-88.0235,-24.3298],[-88.0042,-24.3233],[-88.0037,-24.3396],[-88.022,-24.3585],[-88.0244,-24.3828],[-88.0122,-24.3796],[-88.005,-24.3892],[-87.9909,-24.3827],[-87.9766,-24.3869],[-87.9712,-24.3809],[-87.9506,-24.3766],[-87.9034,-24.3745],[-87.8897,-24.3813],[-87.8732,-24.3987],[-87.8619,-24.4263],[-87.8326,-24.426],[-87.8389,-24.4571],[-87.8456,-24.4725],[-87.848,-24.5019],[-87.8413,-24.5065],[-87.8444,-24.5192],[-87.8321,-24.532],[-87.7979,-24.5074],[-87.7706,-24.5008],[-87.7665,-24.5795],[-87.7613,-24.6047],[-87.7554,-24.6179],[-87.7488,-24.6606],[-87.7398,-24.687],[-87.7337,-24.6913],[-87.7037,-24.7369],[-87.717,-24.7419],[-87.7194,-24.7485],[-87.7104,-24.7611],[-87.7167,-24.7644],[-87.7111,-24.7875],[-87.7262,-24.7993],[-87.7234,-24.8154],[-87.7264,-24.8274],[-87.7463,-24.8321],[-87.757,-24.8403],[-87.7598,-24.8578],[-87.7543,-24.8669],[-87.7526,-24.885],[-87.764,-24.8931],[-87.7634,-24.9042],[-87.7531,-24.9088],[-87.727,-24.9051],[-87.7054,-24.9151],[-87.6939,-24.9087],[-87.6933,-24.9006],[-87.6722,-24.8888],[-87.6603,-24.878],[-87.6512,-24.8892],[-87.6372,-24.8722],[-87.6261,-24.8727],[-87.6141,-24.8518],[-87.5977,-24.8507],[-87.5943,-24.8591],[-87.5739,-24.853],[-87.5623,-24.8569],[-87.5557,-24.8724],[-87.5354,-24.8724],[-87.5247,-24.8684],[-87.5072,-24.8757],[-87.509,-24.8913],[-87.5033,-24.9026],[-87.5056,-24.9165],[-87.516,-24.9317],[-87.512,-24.9444],[-87.5475,-24.9387],[-87.5484,-24.9523],[-87.5329,-24.958],[-87.5385,-24.9696],[-87.55,-24.9665],[-87.5758,-24.9656],[-87.5802,-24.9697],[-87.5774,-24.9876],[-87.5834,-24.9921],[-87.5771,-25.0059],[-87.5745,-25.0278],[-87.6014,-25.0328],[-87.6081,-25.0398],[-87.6209,-25.0394],[-87.6605,-25.0532],[-87.6526,-25.0594],[-87.6517,-25.0733],[-87.6679,-25.0791],[-87.6779,-25.0781],[-87.6889,-25.0693],[-87.7455,-25.0858],[-87.7605,-25.0931],[-87.7726,-25.0943],[-87.7774,-25.1039],[-87.7927,-25.1087],[-87.807,-25.1342],[-87.8168,-25.118],[-87.8282,-25.1277],[-87.8571,-25.1357],[-87.8656,-25.1434],[-87.8637,-25.1528],[-87.8698,-25.1614],[-87.8977,-25.175],[-87.9376,-25.187],[-87.9595,-25.1861],[-87.9746,-25.1793],[-87.9836,-25.1875],[-87.9974,-25.186],[-88.0154,-25.173],[-88.0436,-25.1782],[-88.0789,-25.1817],[-88.1015,-25.1804],[-88.105,-25.1768],[-88.1248,-25.1769],[-88.1387,-25.1729],[-88.1671,-25.1782],[-88.1828,-25.1716],[-88.1946,-25.1718],[-88.2247,-25.1635],[-88.252,-25.1744],[-88.2508,-25.1609],[-88.2675,-25.1506],[-88.2964,-25.1533],[-88.3082,-25.1373],[-88.3359,-25.1354],[-88.3622,-25.123],[-88.3771,-25.1283],[-88.379,-25.1436],[-88.4004,-25.1515],[-88.3942,-25.1742],[-88.4224,-25.1722],[-88.4455,-25.1491],[-88.4735,-25.1446],[-88.4834,-25.1479],[-88.4978,-25.1438],[-88.4998,-25.1358],[-88.5176,-25.137],[-88.5295,-25.134],[-88.5337,-25.1518],[-88.5593,-25.1498],[-88.5894,-25.1639],[-88.6156,-25.1698],[-88.6251,-25.1682],[-88.6392,-25.177],[-88.6622,-25.1734],[-88.6811,-25.1832],[-88.7069,-25.1834],[-88.7107,-25.1938],[-88.7227,-25.1973],[-88.7322,-25.2057],[-88.7404,-25.1998],[-88.7685,-25.1969],[-88.7741,-25.1998],[-88.8019,-25.2018],[-88.8352,-25.1963],[-88.8677,-25.1938],[-88.9135,-25.196],[-88.943,-25.1921],[-88.962,-25.1862],[-88.9975,-25.1813],[-89.016,-25.1756],[-89.0273,-25.1758],[-89.0723,-25.1638],[-89.0958,-25.1632],[-89.1177,-25.1672],[-89.1271,-25.1614],[-89.1548,-25.1593],[-89.1959,-25.1673],[-89.2063,-25.1814],[-89.226,-25.1821],[-89.2373,-25.1777],[-89.242,-25.1681],[-89.2507,-25.1669],[-89.2621,-25.1564],[-89.29,-25.1678],[-89.3009,-25.1566],[-89.3171,-25.1638],[-89.335,-25.1852],[-89.3592,-25.1837],[-89.3604,-25.1743],[-89.385,-25.1744],[-89.3902,-25.1788],[-89.4139,-25.1733],[-89.4458,-25.1717],[-89.4748,-25.1735],[-89.5017,-25.168],[-89.5142,-25.1611],[-89.5493,-25.1519],[-89.5589,-25.1441],[-89.5857,-25.1529],[-89.5941,-25.1592],[-89.6279,-25.1618],[-89.6547,-25.1785],[-89.6706,-25.1931],[-89.6899,-25.1883],[-89.7157,-25.1956],[-89.7344,-25.1976],[-89.7614,-25.2048],[-89.7998,-25.2103],[-89.827,-25.222],[-89.891,-25.2268],[-89.9066,-25.2384],[-89.9251,-25.2442],[-89.9429,-25.2602],[-89.9631,-25.2614],[-89.9769,-25.2732],[-89.9932,-25.2804],[-90.0002,-25.2771],[-90.0172,-25.2812],[-90.0212,-25.2974],[-90.0321,-25.3045],[-90.061,-25.2991],[-90.0912,-25.3082],[-90.0993,-25.3055],[-90.1155,-25.288],[-90.1242,-25.2856],[-90.1606,-25.2927],[-90.1691,-25.2962],[-90.1589,-25.3083],[-90.1588,-25.3153],[-90.1733,-25.3463],[-90.1771,-25.3482],[-90.1803,-25.3812],[-90.1733,-25.4],[-90.175,-25.4085],[-90.1674,-25.4388],[-90.1554,-25.4595],[-90.1482,-25.4667],[-90.1505,-25.4939],[-90.1453,-25.4979],[-90.1399,-25.5176],[-90.1487,-25.5385],[-90.1366,-25.5426],[-90.1328,-25.5608],[-90.1244,-25.5807],[-90.1267,-25.5878],[-90.1176,-25.6166],[-90.1188,-25.6324],[-90.1287,-25.6622],[-90.1352,-25.6638],[-90.1412,-25.6801],[-90.153,-25.6955],[-90.1476,-25.7072],[-90.1505,-25.7149],[-90.166,-25.717],[-90.1729,-25.7401],[-90.1588,-25.7593],[-90.1614,-25.7758],[-90.1708,-25.7966],[-90.1742,-25.8111],[-90.1827,-25.8175],[-90.1652,-25.8404],[-90.1678,-25.8704],[-90.1516,-25.8884],[-90.1394,-25.907],[-90.1216,-25.9242],[-90.1133,-25.9454],[-90.1225,-25.9467],[-90.1516,-25.9428],[-90.1751,-25.9461],[-90.1683,-25.9549],[-90.1532,-25.9565],[-90.1586,-25.9705],[-90.1452,-25.9684],[-90.1287,-25.9735],[-90.1338,-25.9829],[-90.1492,-25.9898],[-90.1567,-26.0073],[-90.17,-26.0041],[-90.1638,-25.9827],[-90.1783,-25.9861],[-90.184,-25.995],[-90.1786,-26.0087],[-90.185,-26.0216],[-90.1888,-26.0415],[-90.2188,-26.0415],[-90.2137,-26.058],[-90.2043,-26.065],[-90.2033,-26.0754],[-90.2185,-26.0843],[-90.2151,-26.1047],[-90.2289,-26.1041],[-90.2441,-26.1135],[-90.2341,-26.1247],[-90.237,-26.137],[-90.2451,-26.1385],[-90.247,-26.1494],[-90.2566,-26.1587],[-90.2921,-26.154],[-90.3153,-26.1613],[-90.3045,-26.1691],[-90.327,-26.204],[-90.3113,-26.2225],[-90.3233,-26.2331],[-90.3282,-26.2199],[-90.3443,-26.219],[-90.3658,-26.2287],[-90.3609,-26.1996],[-90.3446,-26.1812],[-90.3503,-26.1698],[-90.3613,-26.1669],[-90.3635,-26.1787],[-90.3879,-26.1778],[-90.387,-26.1617],[-90.3961,-26.1563],[-90.4042,-26.1394],[-90.4022,-26.1322],[-90.3835,-26.1201],[-90.3822,-26.1079],[-90.3999,-26.1067],[-90.3952,-26.0935],[-90.3835,-26.1037],[-90.3709,-26.107],[-90.3674,-26.0816],[-90.3635,-26.074],[-90.3789,-26.0538],[-90.3894,-26.051],[-90.4107,-26.0383],[-90.4224,-26.025],[-90.4206,-26.0022],[-90.4141,-25.9973],[-90.4142,-25.9785],[-90.422,-25.969],[-90.437,-25.9706],[-90.45,-25.9659],[-90.4621,-25.9736],[-90.4577,-25.983],[-90.4623,-25.9931],[-90.4602,-26.0057],[-90.4868,-26.0065],[-90.4933,-26.0015],[-90.508,-26.0062],[-90.5202,-25.9971],[-90.5383,-25.9987],[-90.5506,-26.0074],[-90.5712,-26.0128],[-90.5658,-26.0317],[-90.5743,-26.0456],[-90.5917,-26.0419],[-90.5964,-26.0282],[-90.6087,-26.0232],[-90.6095,-26.0087],[-90.6281,-26.0111],[-90.6429,-26.0086],[-90.6613,-26.0181],[-90.6747,-26.0367],[-90.7021,-26.0494],[-90.7211,-26.049],[-90.7289,-26.0605],[-90.7455,-26.0677],[-90.7428,-26.0804],[-90.734,-26.0878],[-90.7481,-26.1014],[-90.7583,-26.1042],[-90.7726,-26.1234],[-90.7972,-26.1282],[-90.8189,-26.1273],[-90.8344,-26.1317],[-90.8457,-26.1411],[-90.8511,-26.1532],[-90.8447,-26.1591],[-90.8511,-26.1696],[-90.8594,-26.1692],[-90.8641,-26.1825],[-90.8598,-26.1992],[-90.852,-26.2077],[-90.8641,-26.2361],[-90.8796,-26.2518],[-90.8751,-26.2633],[-90.898,-26.2831],[-90.8909,-26.3046],[-90.88,-26.2868],[-90.864,-26.3076],[-90.8649,-26.3209],[-90.8836,-26.3202],[-90.8946,-26.3261],[-90.9145,-26.3208],[-90.8999,-26.3386],[-90.9039,-26.3602],[-90.9128,-26.3656],[-90.9082,-26.389],[-90.9128,-26.3976],[-90.9337,-26.4],[-90.9624,-26.3998],[-90.9818,-26.4153],[-90.9911,-26.413],[-91.0007,-26.4221],[-91.0079,-26.4177],[-91.0192,-26.4243],[-91.0168,-26.437],[-91.0248,-26.4485],[-91.042,-26.4536],[-91.0532,-26.4469],[-91.0487,-26.4328],[-91.0568,-26.4244],[-91.0736,-26.4313],[-91.0741,-26.406],[-91.0823,-26.4025],[-91.0837,-26.3844],[-91.091,-26.3793],[-91.0854,-26.3648],[-91.0494,-26.3541],[-91.0541,-26.3435],[-91.0482,-26.3325],[-91.0377,-26.3356],[-91.0389,-26.3517],[-91.0139,-26.3485],[-91.0162,-26.337],[-91.0021,-26.3316],[-91.002,-26.3232],[-91.0176,-26.3104],[-91.0001,-26.2908],[-90.9934,-26.3044],[-90.9844,-26.3024],[-90.98,-26.2899],[-90.965,-26.2839],[-90.9556,-26.2752],[-90.9536,-26.2956],[-90.9396,-26.2907],[-90.9377,-26.2589],[-90.9491,-26.2549],[-90.9547,-26.2407],[-90.9629,-26.2469],[-90.9852,-26.244],[-91.0081,-26.2458],[-91.0361,-26.239],[-91.0471,-26.2422],[-91.0699,-26.2789],[-91.0822,-26.288],[-91.1244,-26.2867],[-91.1383,-26.2741],[-91.1387,-26.2526],[-91.1326,-26.2498],[-91.1224,-26.2334],[-91.1461,-26.2352],[-91.1616,-26.2319],[-91.1726,-26.24],[-91.1727,-26.2491],[-91.1845,-26.2556],[-91.188,-26.2796],[-91.1808,-26.2943],[-91.1982,-26.3076],[-91.2075,-26.3099],[-91.2165,-26.3041],[-91.2374,-26.2996],[-91.2431,-26.3107],[-91.2386,-26.3337],[-91.2461,-26.3392],[-91.2504,-26.3539],[-91.2628,-26.354],[-91.2744,-26.3439],[-91.2866,-26.3449],[-91.2902,-26.3347],[-91.3047,-26.3447],[-91.3063,-26.3566],[-91.3243,-26.4013],[-91.349,-26.426],[-91.3745,-26.4337],[-91.3726,-26.441],[-91.3778,-26.4711],[-91.4042,-26.471],[-91.4052,-26.4523],[-91.4349,-26.4579],[-91.4406,-26.4618],[-91.444,-26.4853],[-91.4727,-26.481],[-91.4816,-26.502],[-91.4814,-26.5112],[-91.4923,-26.5156],[-91.5103,-26.5115],[-91.5101,-26.5317],[-91.5158,-26.5417],[-91.5373,-26.5441],[-91.5517,-26.5356],[-91.5685,-26.5495],[-91.5786,-26.5696],[-91.5776,-26.582],[-91.5855,-26.6223],[-91.585,-26.632]]],[[[-87.6766,-20.637],[-87.6849,-20.6281],[-87.6739,-20.6188],[-87.6703,-20.6351],[-87.6766,-20.637]]],[[[-88.1298,-21.9231],[-88.1539,-21.8963],[-88.1533,-21.8797],[-88.1591,-21.8585],[-88.15,-21.8369],[-88.1488,-21.8258],[-88.1579,-21.8051],[-88.1553,-21.7754],[-88.1669,-21.7603],[-88.1708,-21.7393],[-88.1706,-21.7232],[-88.1566,-21.7221],[-88.1548,-21.7406],[-88.1493,-21.7451],[-88.1322,-21.7914],[-88.1227,-21.8214],[-88.1054,-21.8608],[-88.1056,-21.8906],[-88.1202,-21.9211],[-88.1298,-21.9231]]],[[[-88.9173,-22.0535],[-88.9197,-22.0646],[-88.931,-22.0632],[-88.9434,-22.0509],[-88.945,-22.0379],[-88.9339,-22.0367],[-88.9173,-22.0535]]],[[[-88.9662,-22.0838],[-88.9896,-22.0978],[-88.9996,-22.0996],[-89.016,-22.0857],[-89.0251,-22.0717],[-89.0251,-22.0497],[-89.0189,-22.0302],[-89.0022,-22.0253],[-88.9757,-22.0438],[-88.9627,-22.0425],[-88.9502,-22.072],[-88.957,-22.0839],[-88.9662,-22.0838]]],[[[-88.6233,-22.3521],[-88.6083,-22.3669],[-88.6,-22.3813],[-88.6084,-22.3885],[-88.6363,-22.3712],[-88.6294,-22.3534],[-88.6233,-22.3521]]],[[[-88.7438,-22.4098],[-88.7336,-22.4232],[-88.7414,-22.4351],[-88.754,-22.4249],[-88.7438,-22.4098]]],[[[-88.6466,-22.5995],[-88.6535,-22.6094],[-88.6765,-22.6104],[-88.6622,-22.5892],[-88.6506,-22.5861],[-88.6466,-22.5995]]],[[[-88.441,-22.4791],[-88.4601,-22.5145],[-88.4977,-22.5667],[-88.5219,-22.594],[-88.5439,-22.6133],[-88.5606,-22.6181],[-88.5759,-22.6072],[-88.5904,-22.5806],[-88.5862,-22.5656],[-88.6096,-22.5655],[-88.6169,-22.5465],[-88.6171,-22.4865],[-88.6102,-22.4759],[-88.6067,-22.4507],[-88.6013,-22.4435],[-88.6151,-22.4366],[-88.5933,-22.4284],[-88.5685,-22.4034],[-88.5526,-22.3951],[-88.5393,-22.3938],[-88.5232,-22.4006],[-88.5136,-22.3929],[-88.4843,-22.3858],[-88.4689,-22.3873],[-88.4552,-22.3945],[-88.4433,-22.3958],[-88.43,-22.4051],[-88.4298,-22.4154],[-88.4222,-22.4232],[-88.4289,-22.44],[-88.4302,-22.4542],[-88.441,-22.4791]]],[[[-91.0727,-26.3317],[-91.0814,-26.3262],[-91.0746,-26.2932],[-91.0641,-26.2919],[-91.049,-26.2758],[-91.0298,-26.2782],[-91.0193,-26.2834],[-91.0254,-26.2965],[-91.0385,-26.2952],[-91.0384,-26.3056],[-91.048,-26.3172],[-91.0597,-26.3219],[-91.06,-26.3327],[-91.0727,-26.3317]]]]}}]}
