{"type":"FeatureCollection","features":[{"type":"Feature","properties":{"kind":"parallel","deg":-75},"geometry":{"type":"LineString","coordinates":[[-180,-75],[-150,-75],[-120,-75],[-60,-75],[-30,-75],[0,-75],[30,-75],[60,-75],[120,-75],[150,-75],[180,-75]]}},{"type":"Feature","properties":{"kind":"parallel","deg":-60},"geometry":{"type":"LineString","coordinates":[[-180,-60],[-150,-60],[-120,-60],[-60,-60],[-30,-60],[0,-60],[30,-60],[60,-60],[120,-60],[150,-60],[180,-60]]}},{"type":"Feature","properties":{"kind":"parallel","deg":-45},"geometry":{"type":"LineString","coordinates":[[-180,-45],[-150,-45],[-120,-45],[-60,-45],[-30,-45],[0,-45],[30,-45],[60,-45],[120,-45],[150,-45],[180,-45]]}},{"type":"Feature","properties":{"kind":"parallel","deg":-30},"geometry":{"type":"LineString","coordinates":[[-180,-30],[-150,-30],[-120,-30],[-60,-30],[-30,-30],[0,-30],[30,-30],[60,-30],[120,-30],[150,-30],[180,-30]]}},{"type":"Feature","properties":{"kind":"parallel","deg":-15},"geometry":{"type":"LineString","coordinates":[[-180,-15],[-150,-15],[-120,-15],[-60,-15],[-30,-15],[0,-15],[30,-15],[60,-15],[120,-15],[150,-15],[180,-15]]}},{"type":"Feature","properties":{"kind":"parallel","deg":15},"geometry":{"type":"LineString","coordinates":[[-180,15],[-150,15],[-120,15],[-60,15],[-30,15],[0,15],[30,15],[60,15],[120,15],[150,15],[180,15]]}},{"type":"Feature","properties":{"kind":"parallel","deg":30},"geometry":{"type":"LineString","coordinates":[[-180,30],[-150,30],[-120,30],[-60,30],[-30,30],[0,30],[30,30],[60,30],[120,30],[150,30],[180,30]]}},{"type":"Feature","properties":{"kind":"parallel","deg":45},"geometry":{"type":"LineString","coordinates":[[-180,45],[-150,45],[-120,45],[-60,45],[-30,45],[0,45],[30,45],[60,45],[120,45],[150,45],[180,45]]}},{"type":"Feature","properties":{"kind":"parallel","deg":60},"geometry":{"type":"LineString","coordinates":[[-180,60],[-150,60],[-120,60],[-60,60],[-30,60],[0,60],[30,60],[60,60],[120,60],[150,60],[180,60]]}},{"type":"Feature","properties":{"kind":"parallel","deg":75},"geometry":{"type":"LineString","coordinates":[[-180,75],[-150,75],[-120,75],[-60,75],[-30,75],[0,75],[30,75],[60,75],[120,75],[150,75],[180,75]]}},{"type":"Feature","properties":{"kind":"meridian","deg":-180},"geometry":{"type":"LineString","coordinates":[[-180,-90],[-180,0],[-180,90]]}},{"type":"Feature","properties":{"kind":"meridian","deg":-165},"geometry":{"type":"LineString","coordinates":[[-165,-90],[-165,0],[-165,90]]}},{"type":"Feature","properties":{"kind":"meridian","deg":-150},"geometry":{"type":"LineString","coordinates":[[-150,-90],[-150,0],[-150,90]]}},{"type":"Feature","properties":{"kind":"meridian","deg":-135},"geometry":{"type":"LineString","coordinates":[[-135,-90],[-135,0],[-135,90]]}},{"type":"Feature","properties":{"kind":"meridian","deg":-120},"geometry":{"type":"LineString","coordinates":[[-120,-90],[-120,0],[-120,90]]}},{"type":"Feature","properties":{"kind":"meridian","deg":-105},"geometry":{"type":"LineString","coordinates":[[-105,-90],[-105,0],[-105,90]]}},{"type":"Feature","properties":{"kind":"meridian","deg":-90},"geometry":{"type":"LineString","coordinates":[[-90,-90],[-90,0],[-90,90]]}},{"type":"Feature","properties":{"kind":"meridian","deg":-75},"geometry":{"type":"LineString","coordinates":[[-75,-90],[-75,0],[-75,90]]}},{"type":"Feature","properties":{"kind":"meridian","deg":-60},"geometry":{"type":"LineString","coordinates":[[-60,-90],[-60,0],[-60,90]]}},{"type":"Feature","properties":{"kind":"meridian","deg":-45},"geometry":{"type":"LineString","coordinates":[[-45,-90],[-45,0],[-45,90]]}},{"type":"Feature","properties":{"kind":"meridian","deg":-30},"geometry":{"type":"LineString","coordinates":[[-30,-90],[-30,0],[-30,90]]}},{"type":"Feature","properties":{"kind":"meridian","deg":-15},"geometry":{"type":"LineString","coordinates":[[-15,-90],[-15,0],[-15,90]]}},{"type":"Feature","properties":{"kind":"meridian","deg":15},"geometry":{"type":"LineString","coordinates":[[15,-90],[15,0],[15,90]]}},{"type":"Feature","properties":{"kind":"meridian","deg":30},"geometry":{"type":"LineString","coordinates":[[30,-90],[30,0],[30,90]]}},{"type":"Feature","properties":{"kind":"meridian","deg":45},"geometry":{"type":"LineString","coordinates":[[45,-90],[45,0],[45,90]]}},{"type":"Feature","properties":{"kind":"meridian","deg":60},"geometry":{"type":"LineString","coordinates":[[60,-90],[60,0],[60,90]]}},{"type":"Feature","properties":{"kind":"meridian","deg":75},"geometry":{"type":"LineString","coordinates":[[75,-90],[75,0],[75,90]]}},{"type":"Feature","properties":{"kind":"meridian","deg":105},"geometry":{"type":"LineString","coordinates":[[105,-90],[105,0],[105,90]]}},{"type":"Feature","properties":{"kind":"meridian","deg":120},"geometry":{"type":"LineString","coordinates":[[120,-90],[120,0],[120,90]]}},{"type":"Feature","properties":{"kind":"meridian","deg":135},"geometry":{"type":"LineString","coordinates":[[135,-90],[135,0],[135,90]]}},{"type":"Feature","properties":{"kind":"meridian","deg":150},"geometry":{"type":"LineString","coordinates":[[150,-90],[150,0],[150,90]]}},{"type":"Feature","properties":{"kind":"meridian","deg":165},"geometry":{"type":"LineString","coordinates":[[165,-90],[165,0],[165,90]]}}]}
