{"type":"FeatureCollection","features":[{"type":"Feature","properties":{"label":"আনুমানিক"},"geometry":{"type":"LineString","coordinates":[[92.402528,20.379472],[92.395682,20.382836],[92.38739,20.380778],[92.37902,20.379037],[92.370585,20.377616],[92.362102,20.376515],[92.353583,20.375737],[92.345046,20.375283],[92.336505,20.375151],[92.327974,20.375342],[92.31947,20.375854],[92.311007,20.376685],[92.302599,20.377831],[92.29426,20.37929],[92.286006,20.381056],[92.277849,20.383126],[92.269803,20.385493],[92.261881,20.388151],[92.254096,20.391095],[92.24646,20.394315],[92.238984,20.397806],[92.231681,20.401558],[92.224559,20.405563],[92.21763,20.409812],[92.210904,20.414296],[92.204354,20.418953],[92.198018,20.423824],[92.191906,20.428902],[92.186024,20.434177],[92.180381,20.439638],[92.174981,20.445275],[92.164083,20.444222]]}}]}
