{"type":"FeatureCollection","features":[{"type":"Feature","properties":{},"geometry":{"type":"Polygon","coordinates":[[[89.25376,21.82777],[89.25085,21.82184],[89.24391,21.81937],[89.23574,21.8211],[89.23032,21.82389],[89.2121,21.82433],[89.19152,21.83051],[89.18553,21.83039],[89.18208,21.82844],[89.17665,21.82147],[89.17019,21.81195],[89.16712,21.80433],[89.15994,21.80007],[89.15666,21.79614],[89.15554,21.64464],[89.18255,21.44931],[89.23216,21.13068],[89.26757,20.3671],[89.3144,19.34395],[89.36823,18.15197],[89.43049,16.75246],[89.4335,16.74571],[89.44007,16.74326],[89.44662,16.74592],[89.76556,17.19579],[89.93368,17.43201],[90.20757,17.81517],[90.37807,18.05267],[90.67219,18.46053],[90.94182,18.83231],[91.24877,19.25307],[91.5333,19.64073],[91.84225,20.05899],[92.0023,20.21863],[92.16417,20.44296],[92.17202,20.44474],[92.17682,20.44305],[92.20434,20.41896],[92.23897,20.39781],[92.26187,20.38815],[92.286,20.38106],[92.31947,20.37585],[92.34505,20.37528],[92.37907,20.37905],[92.39752,20.38304],[92.40224,20.38554],[92.40424,20.3884],[92.41459,20.43662],[92.42917,20.55282],[92.41623,20.59078],[92.39504,20.62047],[92.35318,20.66419],[92.34538,20.6746],[92.34469,20.67993],[92.34615,20.68328],[92.36472,20.70074],[92.36741,20.70557],[92.35678,20.74578],[92.35167,20.75025],[92.34286,20.75032],[92.33761,20.75214],[92.32559,20.75957],[92.31455,20.77059],[92.30406,20.78603],[92.27394,20.84316],[92.25232,20.87844],[92.23216,20.90451],[92.21991,20.92524],[92.21115,20.94589],[92.20293,20.9598],[92.20165,20.9672],[92.18588,21.01296],[92.1669,21.03853],[92.11261,21.09902],[92.07945,21.14068],[92.07049,21.14994],[92.05634,21.16759],[92.05016,21.17875],[92.04771,21.18672],[92.04876,21.20515],[92.04532,21.23412],[92.04724,21.26453],[92.04563,21.27741],[92.04737,21.28586],[92.04338,21.29555],[92.03557,21.30843],[92.03482,21.31698],[92.02735,21.33612],[92.02827,21.34583],[92.01725,21.36715],[91.98607,21.40985],[91.95199,21.44926],[91.94664,21.45894],[91.9479,21.46538],[91.95784,21.47313],[91.97516,21.47894],[91.98014,21.48221],[91.99284,21.49954],[91.99934,21.5117],[92.00187,21.52277],[92.00249,21.53436],[91.99863,21.54527],[91.99614,21.54793],[91.99085,21.54976],[91.98304,21.54699],[91.98063,21.54242],[91.97911,21.53416],[91.97389,21.52485],[91.97324,21.51581],[91.97004,21.50883],[91.96487,21.50599],[91.95126,21.50338],[91.94005,21.50368],[91.93663,21.50218],[91.93328,21.49798],[91.93349,21.48967],[91.9318,21.48488],[91.92323,21.4765],[91.91861,21.47461],[91.90842,21.47341],[91.89314,21.47615],[91.86737,21.495],[91.84795,21.51749],[91.8453,21.52382],[91.84226,21.53288],[91.84442,21.53948],[91.8491,21.54237],[91.86137,21.54552],[91.8651,21.5493],[91.86615,21.55517],[91.86191,21.5633],[91.8615,21.568],[91.86822,21.5814],[91.86849,21.59048],[91.87507,21.59715],[91.88149,21.6085],[91.88239,21.61593],[91.88599,21.62228],[91.88637,21.62953],[91.89101,21.63776],[91.88965,21.64647],[91.8907,21.65422],[91.88779,21.66786],[91.88262,21.67875],[91.88263,21.68611],[91.88719,21.69119],[91.90086,21.69551],[91.91125,21.70356],[91.91382,21.70973],[91.91161,21.72314],[91.91295,21.72824],[91.91712,21.73177],[91.92827,21.73498],[91.9362,21.74412],[91.93921,21.75594],[91.93496,21.76198],[91.92809,21.76409],[91.92272,21.76362],[91.91698,21.7607],[91.91149,21.76076],[91.89579,21.76791],[91.89239,21.77249],[91.89208,21.77623],[91.89457,21.78391],[91.90143,21.79476],[91.90372,21.80279],[91.90819,21.8101],[91.9167,21.84691],[91.91721,21.86301],[91.91462,21.87818],[91.91135,21.88255],[91.90268,21.88669],[91.89659,21.87919],[91.89389,21.85878],[91.88256,21.83461],[91.86186,21.78229],[91.85782,21.77876],[91.85236,21.77787],[91.84727,21.77991],[91.84422,21.78421],[91.8428,21.8086],[91.85063,21.82469],[91.84784,21.84231],[91.84187,21.85736],[91.84099,21.86803],[91.84154,21.87299],[91.84629,21.88273],[91.84677,21.89854],[91.84878,21.90175],[91.85843,21.9094],[91.86606,21.91875],[91.87294,21.9214],[91.87981,21.91874],[91.89086,21.90084],[91.90039,21.89594],[91.9072,21.90541],[91.90583,21.91778],[91.90167,21.93697],[91.88912,21.95325],[91.88673,21.96243],[91.88051,21.97451],[91.87847,21.98951],[91.8721,22.00432],[91.87324,22.00946],[91.87668,22.0141],[91.87881,22.02338],[91.87684,22.03822],[91.87772,22.04974],[91.86176,22.09122],[91.86569,22.11014],[91.86096,22.11575],[91.84779,22.11698],[91.84411,22.11861],[91.83586,22.12812],[91.82754,22.14494],[91.8179,22.18137],[91.81286,22.19291],[91.80997,22.20439],[91.81055,22.2192],[91.80722,22.22358],[91.79752,22.22832],[91.78346,22.24566],[91.77557,22.2595],[91.7739,22.26716],[91.76808,22.2767],[91.76571,22.28925],[91.75836,22.30347],[91.75752,22.31204],[91.76225,22.32171],[91.76199,22.32907],[91.75849,22.33813],[91.75741,22.34861],[91.75074,22.36297],[91.75062,22.37345],[91.74356,22.39062],[91.74351,22.39952],[91.74021,22.4084],[91.73997,22.41887],[91.73264,22.43429],[91.72248,22.46435],[91.71754,22.47066],[91.70849,22.49003],[91.69998,22.50078],[91.69413,22.51304],[91.6841,22.52041],[91.67924,22.52955],[91.6669,22.54172],[91.66438,22.54596],[91.64708,22.56273],[91.62894,22.58338],[91.61597,22.59431],[91.59491,22.62238],[91.58572,22.63753],[91.5656,22.65952],[91.55239,22.66841],[91.54427,22.66883],[91.53943,22.67056],[91.52172,22.68823],[91.50597,22.69855],[91.44449,22.72943],[91.4275,22.7438],[91.42422,22.75453],[91.41877,22.75914],[91.40833,22.76045],[91.40053,22.76523],[91.39096,22.76855],[91.38561,22.76699],[91.37966,22.76038],[91.37405,22.75845],[91.34029,22.76243],[91.32148,22.76258],[91.30175,22.75744],[91.2816,22.74645],[91.26929,22.74526],[91.2581,22.73437],[91.25322,22.72718],[91.24814,22.71384],[91.24452,22.69477],[91.24882,22.68452],[91.25707,22.67813],[91.26613,22.66711],[91.28151,22.64099],[91.28484,22.6279],[91.28506,22.61711],[91.28216,22.60736],[91.27803,22.60158],[91.25288,22.57642],[91.22323,22.55902],[91.2095,22.54644],[91.19454,22.52939],[91.18778,22.52511],[91.18428,22.51943],[91.16782,22.50309],[91.15184,22.4767],[91.13937,22.46129],[91.13807,22.45599],[91.13921,22.45263],[91.24718,22.33277],[91.24821,22.32646],[91.15298,22.11441],[91.09057,22.03555],[91.08729,22.03372],[91.04281,22.0194],[90.95272,22.01691],[90.83184,22.02412],[90.76937,22.06005],[90.76396,22.06142],[90.75862,22.05977],[90.75602,22.05722],[90.75071,22.04122],[90.73063,22.02103],[90.72411,22.01819],[90.71617,22.02022],[90.7106,22.01987],[90.70233,22.01233],[90.69288,22.00628],[90.69082,22.00161],[90.69115,21.99823],[90.69833,21.99011],[90.69958,21.98654],[90.6983,21.9811],[90.69393,21.97692],[90.68864,21.97595],[90.66604,21.97881],[90.66122,21.98236],[90.65583,21.99087],[90.65099,21.99304],[90.6456,21.9931],[90.63716,21.99042],[90.63144,21.99132],[90.62039,22.00146],[90.60987,22.02065],[90.59703,22.03288],[90.596,22.03803],[90.59936,22.04807],[90.59704,22.05441],[90.59064,22.05751],[90.58249,22.05596],[90.57729,22.05703],[90.5732,22.06085],[90.57205,22.06603],[90.57425,22.07092],[90.5833,22.07569],[90.59368,22.08866],[90.59504,22.09378],[90.59434,22.10015],[90.59696,22.10477],[90.6038,22.10744],[90.61574,22.10583],[90.62145,22.11025],[90.62292,22.11792],[90.62034,22.14212],[90.62258,22.16448],[90.62156,22.17437],[90.62961,22.18609],[90.62994,22.19674],[90.6316,22.20023],[90.63626,22.20413],[90.64647,22.20739],[90.65159,22.21483],[90.65846,22.23155],[90.65849,22.23702],[90.65655,22.24024],[90.65149,22.24308],[90.60796,22.24448],[90.6028,22.24327],[90.59546,22.23549],[90.5901,22.23395],[90.58324,22.23653],[90.57646,22.24439],[90.56902,22.24496],[90.55628,22.23632],[90.52668,22.20696],[90.51417,22.18735],[90.50701,22.17179],[90.49903,22.16277],[90.49585,22.15244],[90.49211,22.14637],[90.47712,22.12823],[90.46537,22.10996],[90.45007,22.09298],[90.43736,22.08185],[90.42308,22.07785],[90.41832,22.07172],[90.39291,22.05098],[90.38784,22.04954],[90.37965,22.04968],[90.37154,22.04527],[90.36574,22.04561],[90.36245,22.04757],[90.36026,22.05057],[90.35846,22.05906],[90.35439,22.06282],[90.34684,22.06339],[90.3388,22.05762],[90.32703,22.04066],[90.32591,22.03573],[90.32669,22.02532],[90.31857,22.01423],[90.31277,21.99383],[90.30339,21.97692],[90.30273,21.96619],[90.29801,21.95825],[90.29704,21.94756],[90.28232,21.91543],[90.27864,21.90399],[90.26433,21.8763],[90.26244,21.86554],[90.25659,21.84948],[90.2448,21.82546],[90.22957,21.81214],[90.21966,21.80618],[90.20199,21.80424],[90.19448,21.80063],[90.18766,21.79997],[90.17807,21.80127],[90.16698,21.80071],[90.15395,21.80382],[90.11937,21.81486],[90.1063,21.82139],[90.09521,21.8301],[90.08685,21.84026],[90.08357,21.8484],[90.07171,21.86158],[90.04905,21.86715],[90.03444,21.87693],[90.02705,21.88536],[90.02469,21.92662],[90.02695,21.93996],[90.03223,21.94628],[90.05156,21.95347],[90.06215,21.96216],[90.06377,21.96522],[90.06365,21.9703],[90.0575,21.97794],[90.0542,21.97958],[90.04196,21.98035],[90.03042,21.9797],[90.02039,21.9765],[90.0128,21.97773],[89.99943,21.97536],[89.98948,21.97138],[89.97764,21.95669],[89.9657,21.95233],[89.96053,21.95339],[89.95246,21.96155],[89.94468,21.96359],[89.94056,21.9669],[89.93028,21.98493],[89.93161,22.00185],[89.93061,22.01049],[89.9287,22.01408],[89.91541,22.02731],[89.9102,22.03978],[89.90204,22.07047],[89.90314,22.08692],[89.90778,22.09518],[89.90926,22.10115],[89.91211,22.13778],[89.90807,22.15468],[89.89986,22.16021],[89.89674,22.16471],[89.8988,22.17688],[89.89427,22.19062],[89.89036,22.19753],[89.8878,22.20848],[89.88082,22.22008],[89.87438,22.22248],[89.86134,22.21928],[89.84271,22.21775],[89.83256,22.21312],[89.81828,22.21169],[89.81257,22.20687],[89.81247,22.19972],[89.83164,22.16415],[89.82894,22.15781],[89.81585,22.15122],[89.81221,22.1477],[89.81072,22.14465],[89.81097,22.13968],[89.81693,22.13283],[89.83563,22.1248],[89.83836,22.11969],[89.83851,22.11388],[89.83087,22.10168],[89.82593,22.09764],[89.81709,22.09469],[89.80497,22.08138],[89.79993,22.07907],[89.79435,22.07975],[89.77641,22.09072],[89.767,22.11985],[89.75806,22.13328],[89.74807,22.13823],[89.74471,22.14226],[89.74219,22.16055],[89.74673,22.18096],[89.74639,22.18656],[89.74316,22.19073],[89.73652,22.19437],[89.73346,22.19907],[89.73658,22.21242],[89.73477,22.21751],[89.73014,22.22075],[89.71824,22.22221],[89.71396,22.22752],[89.71478,22.23411],[89.72197,22.24368],[89.72806,22.25769],[89.73619,22.26955],[89.73564,22.27635],[89.73008,22.28083],[89.72636,22.28129],[89.7167,22.27891],[89.71284,22.27975],[89.70852,22.28343],[89.70728,22.28876],[89.70996,22.29777],[89.70941,22.30447],[89.70486,22.31007],[89.6936,22.31613],[89.68919,22.3282],[89.67919,22.3364],[89.67403,22.34824],[89.67167,22.35947],[89.66636,22.36714],[89.6631,22.36887],[89.65692,22.36919],[89.65039,22.36653],[89.64253,22.36606],[89.63796,22.36294],[89.63454,22.35367],[89.62795,22.34758],[89.62504,22.33561],[89.62139,22.32763],[89.60555,22.30413],[89.58471,22.28022],[89.58296,22.27265],[89.57873,22.26734],[89.57572,22.25963],[89.56958,22.25595],[89.56207,22.25601],[89.5569,22.25879],[89.55447,22.26383],[89.55364,22.28227],[89.5515,22.29119],[89.55314,22.29804],[89.55224,22.30293],[89.5378,22.31402],[89.52656,22.33191],[89.52649,22.33565],[89.53056,22.343],[89.53097,22.34661],[89.52571,22.35477],[89.50827,22.36492],[89.50161,22.37172],[89.4943,22.3728],[89.48944,22.37019],[89.48678,22.36655],[89.48433,22.3574],[89.48405,22.34717],[89.48159,22.34277],[89.47101,22.33868],[89.46323,22.33104],[89.4578,22.33008],[89.45269,22.33202],[89.43409,22.34587],[89.43116,22.35051],[89.43162,22.35587],[89.43842,22.37006],[89.44451,22.37646],[89.44741,22.38182],[89.44739,22.39081],[89.44939,22.39668],[89.448,22.41184],[89.44309,22.41931],[89.4334,22.42775],[89.4287,22.45195],[89.42278,22.45611],[89.41715,22.45591],[89.40988,22.45053],[89.39678,22.44449],[89.39136,22.44504],[89.3774,22.45176],[89.3735,22.45233],[89.368,22.45045],[89.36544,22.44767],[89.36336,22.44154],[89.3644,22.43251],[89.3595,22.41965],[89.36254,22.40422],[89.36624,22.39712],[89.36644,22.38689],[89.36397,22.3799],[89.36026,22.37607],[89.35047,22.37139],[89.3405,22.3721],[89.33506,22.37052],[89.33151,22.36638],[89.33024,22.3607],[89.33085,22.33817],[89.33444,22.33412],[89.34331,22.32916],[89.34722,22.32029],[89.34658,22.31499],[89.34435,22.31206],[89.3342,22.30642],[89.32605,22.29985],[89.32478,22.29487],[89.32591,22.28643],[89.32295,22.28193],[89.31428,22.27834],[89.30507,22.27158],[89.29353,22.2686],[89.28977,22.26528],[89.28721,22.26028],[89.28682,22.25361],[89.29025,22.24741],[89.30035,22.23942],[89.3055,22.23297],[89.30606,22.22954],[89.30422,22.22466],[89.29978,22.22153],[89.29608,22.22096],[89.26735,22.22191],[89.25857,22.22084],[89.2516,22.22264],[89.24616,22.2291],[89.24651,22.24009],[89.24403,22.24506],[89.2257,22.25353],[89.20641,22.25012],[89.20184,22.24801],[89.1996,22.24529],[89.19781,22.23736],[89.19193,22.22915],[89.19228,22.22157],[89.19804,22.21448],[89.19892,22.21096],[89.19617,22.20227],[89.1969,22.19519],[89.19394,22.18514],[89.19799,22.1793],[89.20849,22.17429],[89.21057,22.16763],[89.20664,22.15184],[89.20232,22.14833],[89.19304,22.14536],[89.1907,22.14249],[89.18989,22.13719],[89.19356,22.12933],[89.20237,22.12152],[89.2099,22.09934],[89.21474,22.09391],[89.21745,22.08717],[89.23951,22.07056],[89.24317,22.06436],[89.24451,22.05716],[89.24304,22.05216],[89.21238,22.01507],[89.20939,22.00809],[89.20978,22.00473],[89.21285,22.00017],[89.23589,21.98896],[89.23836,21.98444],[89.23781,21.9794],[89.23118,21.97334],[89.21694,21.96893],[89.20965,21.96502],[89.20177,21.95588],[89.20173,21.94863],[89.21065,21.93883],[89.21712,21.9357],[89.22975,21.93527],[89.23511,21.93279],[89.24511,21.92394],[89.25388,21.91023],[89.26207,21.90725],[89.27856,21.91071],[89.28375,21.90822],[89.28645,21.90342],[89.28715,21.89444],[89.28591,21.89111],[89.27175,21.88214],[89.26841,21.87517],[89.27019,21.86678],[89.27501,21.85601],[89.27448,21.84363],[89.2711,21.83918],[89.25769,21.83404],[89.25376,21.82777]],[[89.29583,21.84253],[89.29928,21.85764],[89.30369,21.86332],[89.30851,21.86571],[89.3195,21.86641],[89.33381,21.87658],[89.34904,21.88422],[89.35357,21.88514],[89.35884,21.88406],[89.36266,21.88053],[89.36533,21.87474],[89.37003,21.87159],[89.37583,21.87149],[89.37927,21.8732],[89.38167,21.87596],[89.38499,21.88728],[89.3867,21.90808],[89.39144,21.91321],[89.39868,21.91382],[89.40329,21.91101],[89.42581,21.88655],[89.43571,21.88129],[89.43783,21.87852],[89.43861,21.87352],[89.43636,21.86893],[89.4318,21.86618],[89.42412,21.86469],[89.42023,21.86131],[89.41885,21.85653],[89.4198,21.85225],[89.42175,21.84946],[89.42636,21.84696],[89.43467,21.84631],[89.45068,21.84821],[89.45421,21.8474],[89.4583,21.84412],[89.45985,21.83931],[89.46004,21.8263],[89.46855,21.81663],[89.47083,21.81151],[89.47103,21.80194],[89.4731,21.79517],[89.47238,21.79016],[89.45696,21.76954],[89.44542,21.76183],[89.43794,21.75016],[89.43693,21.74151],[89.4335,21.73704],[89.42369,21.73423],[89.41224,21.72668],[89.4,21.72332],[89.39476,21.72381],[89.38282,21.7285],[89.37603,21.73289],[89.37225,21.73875],[89.36395,21.74625],[89.35967,21.76359],[89.35593,21.79364],[89.35254,21.80015],[89.3454,21.80317],[89.33657,21.80079],[89.32976,21.80251],[89.32651,21.80646],[89.32375,21.81689],[89.31739,21.82729],[89.31272,21.82989],[89.30463,21.82936],[89.29922,21.83075],[89.29495,21.83637],[89.29583,21.84253]],[[89.44708,21.73758],[89.45647,21.73906],[89.45997,21.73791],[89.46373,21.73415],[89.46466,21.72909],[89.46336,21.72053],[89.45862,21.71533],[89.45316,21.71437],[89.44959,21.71539],[89.43957,21.72413],[89.43834,21.72744],[89.43922,21.73259],[89.44304,21.73642],[89.44708,21.73758]],[[89.48594,22.3062],[89.49223,22.303],[89.49675,22.29466],[89.49418,22.28678],[89.48725,22.28362],[89.48001,22.28615],[89.47346,22.29672],[89.47383,22.3002],[89.47696,22.30454],[89.48217,22.30654],[89.48594,22.3062]],[[89.45984,21.92314],[89.46213,21.93304],[89.45952,21.9404],[89.45479,21.94441],[89.43699,21.95105],[89.42291,21.96937],[89.42529,21.97992],[89.42788,21.98278],[89.43573,21.98645],[89.4389,21.9927],[89.42942,22.04181],[89.43156,22.05086],[89.43543,22.0551],[89.44266,22.05637],[89.45965,22.04674],[89.47299,22.04576],[89.48153,22.05159],[89.49342,22.05646],[89.50972,22.06812],[89.51726,22.06894],[89.52312,22.06447],[89.52414,22.05921],[89.51876,22.04581],[89.51321,22.03794],[89.49477,22.0305],[89.48552,22.02947],[89.48155,22.02601],[89.48032,22.02282],[89.48105,22.01781],[89.48673,22.0092],[89.49036,21.98342],[89.50792,21.95002],[89.50867,21.94528],[89.50666,21.92731],[89.50397,21.91766],[89.5002,21.91377],[89.49664,21.91258],[89.4759,21.91032],[89.46748,21.91079],[89.46237,21.91296],[89.46008,21.91575],[89.45984,21.92314]],[[89.5669,21.92448],[89.56102,21.91848],[89.55559,21.91772],[89.5521,21.91883],[89.54931,21.92106],[89.54712,21.9257],[89.54644,21.93123],[89.5482,21.93598],[89.55081,21.93833],[89.556,21.93979],[89.56396,21.93678],[89.56816,21.93111],[89.5669,21.92448]],[[89.60894,21.79583],[89.60898,21.78597],[89.60614,21.77857],[89.60195,21.77564],[89.59078,21.77202],[89.58794,21.76886],[89.58655,21.76367],[89.58664,21.74657],[89.5991,21.73235],[89.60058,21.72911],[89.60007,21.72389],[89.59651,21.71983],[89.58585,21.71597],[89.57783,21.71657],[89.56686,21.71966],[89.55526,21.72964],[89.54619,21.74721],[89.54548,21.75167],[89.53682,21.77055],[89.53732,21.77601],[89.54217,21.7826],[89.54726,21.79559],[89.53364,21.82047],[89.53382,21.82838],[89.5375,21.83981],[89.54342,21.84413],[89.55089,21.8432],[89.59121,21.81128],[89.6057,21.80454],[89.60876,21.80016],[89.60894,21.79583]],[[90.50811,21.89967],[90.51466,21.88769],[90.52008,21.88553],[90.53072,21.88597],[90.54207,21.87726],[90.5444,21.86596],[90.53372,21.84797],[90.5177,21.82829],[90.51433,21.82082],[90.51137,21.8185],[90.50129,21.8152],[90.49343,21.81455],[90.4853,21.8179],[90.47938,21.82416],[90.47901,21.83482],[90.48124,21.84096],[90.48093,21.84636],[90.47733,21.85062],[90.46831,21.85501],[90.4665,21.85793],[90.46623,21.86294],[90.47182,21.87363],[90.48745,21.89058],[90.49331,21.90174],[90.49656,21.90354],[90.50217,21.90378],[90.50811,21.89967]],[[91.39116,22.70737],[91.39502,22.70267],[91.39865,22.68536],[91.39761,22.67863],[91.39417,22.6721],[91.39389,22.66282],[91.39098,22.65875],[91.37993,22.65307],[91.37401,22.65157],[91.36109,22.65347],[91.34338,22.65088],[91.33794,22.64939],[91.3295,22.64316],[91.31812,22.64105],[91.31065,22.64294],[91.28829,22.66722],[91.28203,22.67588],[91.27777,22.68819],[91.27858,22.69774],[91.28572,22.71034],[91.28953,22.72393],[91.29643,22.73282],[91.3089,22.73744],[91.32805,22.73776],[91.35176,22.73105],[91.36847,22.72202],[91.38204,22.71129],[91.39116,22.70737]],[[89.41322,22.29395],[89.42543,22.28254],[89.42618,22.27673],[89.42463,22.27194],[89.41265,22.26052],[89.40693,22.25979],[89.39645,22.26213],[89.39231,22.26593],[89.39123,22.26942],[89.39325,22.27874],[89.39202,22.28467],[89.39308,22.28959],[89.39682,22.29322],[89.40026,22.29433],[89.40789,22.29567],[89.41322,22.29395]],[[89.65094,21.88581],[89.65255,21.88046],[89.65861,21.87175],[89.65929,21.86507],[89.65485,21.85967],[89.64501,21.85838],[89.64018,21.86113],[89.63229,21.87083],[89.63052,21.8755],[89.63056,21.88306],[89.63423,21.88968],[89.64087,21.89273],[89.64789,21.89053],[89.65094,21.88581]],[[91.39601,22.34107],[91.38647,22.34157],[91.376,22.34669],[91.36728,22.3584],[91.3642,22.36493],[91.36427,22.3685],[91.36584,22.37177],[91.37431,22.38015],[91.39413,22.38953],[91.40479,22.39988],[91.4136,22.40098],[91.41988,22.39831],[91.43074,22.38662],[91.43346,22.3754],[91.43277,22.36952],[91.4262,22.35807],[91.42463,22.35203],[91.42093,22.34714],[91.41543,22.34363],[91.40491,22.34394],[91.39601,22.34107]],[[91.30712,22.51211],[91.30005,22.51173],[91.29235,22.50865],[91.28649,22.50955],[91.28143,22.51378],[91.26886,22.51994],[91.26623,22.52475],[91.26628,22.53251],[91.26819,22.53689],[91.27667,22.54686],[91.29184,22.55895],[91.29763,22.56122],[91.30113,22.56431],[91.31459,22.58358],[91.31972,22.58604],[91.33187,22.58578],[91.33685,22.58313],[91.34013,22.57726],[91.33764,22.5663],[91.33821,22.5532],[91.32122,22.52566],[91.31641,22.52134],[91.3121,22.51436],[91.30712,22.51211]],[[91.43038,22.59233],[91.43256,22.59897],[91.43763,22.60422],[91.44433,22.6057],[91.45133,22.60274],[91.48733,22.57478],[91.51285,22.54267],[91.51879,22.538],[91.52488,22.53595],[91.52853,22.53206],[91.54192,22.50554],[91.54285,22.49929],[91.55456,22.46918],[91.55907,22.44247],[91.55217,22.41917],[91.53087,22.40206],[91.50904,22.39799],[91.49328,22.40239],[91.48345,22.40698],[91.47306,22.42018],[91.46938,22.42965],[91.46091,22.43967],[91.45803,22.44782],[91.43957,22.47261],[91.43208,22.49396],[91.42704,22.52002],[91.42825,22.53195],[91.43204,22.54659],[91.43038,22.59233]],[[90.80182,21.92179],[90.80901,21.921],[90.81346,21.91749],[90.81689,21.90656],[90.82365,21.89327],[90.82572,21.88083],[90.8243,21.87745],[90.8163,21.86966],[90.80533,21.86492],[90.79584,21.85716],[90.78323,21.85696],[90.77615,21.86173],[90.77329,21.86709],[90.77347,21.87087],[90.79125,21.90676],[90.79268,21.91695],[90.7966,21.92069],[90.80182,21.92179]],[[90.83279,21.9815],[90.84124,21.9798],[90.84642,21.97488],[90.84699,21.96466],[90.8451,21.9617],[90.8404,21.95901],[90.83671,21.95877],[90.82306,21.96225],[90.81834,21.96532],[90.81664,21.96854],[90.81746,21.9753],[90.82158,21.98087],[90.82679,21.98283],[90.83279,21.9815]],[[90.73464,21.86506],[90.72873,21.8614],[90.72271,21.86184],[90.71812,21.86542],[90.71557,21.87366],[90.73125,21.90718],[90.7358,21.91038],[90.73959,21.91091],[90.74637,21.90788],[90.74925,21.8991],[90.74568,21.8863],[90.73464,21.86506]]]}}]}
