{"type":"FeatureCollection","features":[{"type":"Feature","properties":{"item":"myanmar-line"},"geometry":{"type":"MultiLineString","coordinates":[[[92.368667,20.704389],[92.355027,20.691778],[92.341389,20.679167],[92.347292,20.671667],[92.353194,20.664167],[92.363669,20.65323],[92.374142,20.642293],[92.384613,20.631355],[92.395083,20.620417],[92.405668,20.605584],[92.41625,20.59075],[92.420649,20.578815],[92.425047,20.56688],[92.429444,20.554944],[92.427316,20.53802],[92.425188,20.521096],[92.423061,20.504171],[92.420934,20.487246],[92.418807,20.470322],[92.416681,20.453397],[92.414556,20.436472],[92.411548,20.422222],[92.408541,20.407972],[92.405534,20.393722],[92.402528,20.379472]],[[92.164083,20.444222],[92.153946,20.430114],[92.143811,20.416005],[92.133678,20.401896],[92.123546,20.387785],[92.113416,20.373675],[92.103289,20.359563],[92.093163,20.345451],[92.083038,20.331339],[92.072916,20.317226],[92.062796,20.303112],[92.052677,20.288998],[92.04256,20.274883],[92.032445,20.260767],[92.022332,20.246651],[92.012221,20.232534],[92.002111,20.218417],[91.989796,20.206151],[91.977483,20.193884],[91.965172,20.181616],[91.952863,20.169347],[91.940556,20.157077],[91.92825,20.144807],[91.915947,20.132535],[91.903645,20.120263],[91.891346,20.10799],[91.879048,20.095716],[91.866752,20.083441],[91.854459,20.071166],[91.842167,20.058889],[91.831241,20.044143],[91.820317,20.029396],[91.809396,20.014649],[91.798476,19.999901],[91.787558,19.985152],[91.776643,19.970403],[91.765729,19.955653],[91.754818,19.940902],[91.743908,19.92615],[91.733001,19.911398],[91.722095,19.896645],[91.711192,19.881892],[91.700291,19.867137],[91.689391,19.852382],[91.678494,19.837627],[91.667599,19.82287],[91.656705,19.808113],[91.645814,19.793355],[91.634925,19.778597],[91.624037,19.763838],[91.613152,19.749078],[91.602269,19.734318],[91.591387,19.719556],[91.580508,19.704795],[91.569631,19.690032],[91.558756,19.675269],[91.547882,19.660505],[91.537011,19.64574],[91.526142,19.630975],[91.515274,19.616209],[91.504409,19.601442],[91.493545,19.586675],[91.482684,19.571907],[91.471825,19.557138],[91.460967,19.542369],[91.450112,19.527599],[91.439258,19.512828],[91.428407,19.498057],[91.417557,19.483285],[91.406709,19.468512],[91.395864,19.453739],[91.38502,19.438965],[91.374178,19.42419],[91.363339,19.409415],[91.352501,19.394639],[91.341665,19.379862],[91.330831,19.365084],[91.319999,19.350306],[91.309169,19.335528],[91.298341,19.320748],[91.287515,19.305968],[91.276691,19.291187],[91.265869,19.276406],[91.255048,19.261624],[91.24423,19.246841],[91.233414,19.232058],[91.222599,19.217274],[91.211787,19.202489],[91.200976,19.187703],[91.190168,19.172917],[91.179361,19.158131],[91.168556,19.143343],[91.157753,19.128555],[91.146952,19.113766],[91.136153,19.098977],[91.125356,19.084187],[91.114561,19.069396],[91.103768,19.054605],[91.092976,19.039813],[91.082187,19.025021],[91.071399,19.010227],[91.060614,18.995433],[91.04983,18.980639],[91.039048,18.965844],[91.028268,18.951048],[91.01749,18.936251],[91.006714,18.921454],[90.99594,18.906656],[90.985167,18.891858],[90.974397,18.877058],[90.963628,18.862259],[90.952862,18.847458],[90.942097,18.832657],[90.931334,18.817855],[90.920573,18.803053],[90.909814,18.78825],[90.899057,18.773446],[90.888301,18.758642],[90.877548,18.743837],[90.866796,18.729032],[90.856047,18.714225],[90.845299,18.699419],[90.834553,18.684611],[90.823809,18.669803],[90.813066,18.654994],[90.802326,18.640185],[90.791587,18.625375],[90.780851,18.610564],[90.770116,18.595753],[90.759383,18.580941],[90.748652,18.566128],[90.737922,18.551315],[90.727195,18.536501],[90.716469,18.521687],[90.705746,18.506871],[90.695024,18.492056],[90.684304,18.477239],[90.673586,18.462422],[90.662869,18.447605],[90.652155,18.432786],[90.641442,18.417968],[90.630731,18.403148],[90.620022,18.388328],[90.609315,18.373507],[90.59861,18.358686],[90.587906,18.343864],[90.577204,18.329041],[90.566505,18.314218],[90.555807,18.299394],[90.54511,18.284569],[90.534416,18.269744],[90.523723,18.254919],[90.513032,18.240092],[90.502344,18.225265],[90.491656,18.210438],[90.480971,18.195609],[90.470287,18.18078],[90.459606,18.165951],[90.448926,18.151121],[90.438248,18.13629],[90.427571,18.121459],[90.416897,18.106627],[90.406224,18.091794],[90.395553,18.076961],[90.384884,18.062128],[90.374217,18.047293],[90.363551,18.032458],[90.352887,18.017623],[90.342225,18.002786],[90.331565,17.98795],[90.320906,17.973112],[90.31025,17.958274],[90.299595,17.943435],[90.288942,17.928596],[90.27829,17.913756],[90.267641,17.898916],[90.256993,17.884075],[90.246347,17.869233],[90.235703,17.854391],[90.22506,17.839548],[90.21442,17.824705],[90.203781,17.80986],[90.193143,17.795016],[90.182508,17.78017],[90.171874,17.765325],[90.161242,17.750478],[90.150612,17.735631],[90.139984,17.720783],[90.129357,17.705935],[90.118732,17.691086],[90.108109,17.676237],[90.097487,17.661387],[90.086868,17.646536],[90.07625,17.631685],[90.065634,17.616833],[90.055019,17.60198],[90.044406,17.587127],[90.033795,17.572274],[90.023186,17.55742],[90.012579,17.542565],[90.001973,17.527709],[89.991369,17.512853],[89.980766,17.497997],[89.970166,17.48314],[89.959567,17.468282],[89.948969,17.453424],[89.938374,17.438565],[89.92778,17.423705],[89.917188,17.408845],[89.906598,17.393984],[89.896009,17.379123],[89.885422,17.364261],[89.874837,17.349399],[89.864253,17.334536],[89.853672,17.319672],[89.843091,17.304808],[89.832513,17.289943],[89.821936,17.275078],[89.811361,17.260212],[89.800788,17.245346],[89.790216,17.230479],[89.779646,17.215611],[89.769078,17.200743],[89.758512,17.185874],[89.747947,17.171004],[89.737383,17.156135],[89.726822,17.141264],[89.716262,17.126393],[89.705704,17.111521],[89.695147,17.096649],[89.684593,17.081776],[89.674039,17.066903],[89.663488,17.052029],[89.652938,17.037154],[89.64239,17.022279],[89.631844,17.007404],[89.621299,16.992527],[89.610756,16.977651],[89.600214,16.962773],[89.589674,16.947895],[89.579136,16.933017],[89.5686,16.918138],[89.558065,16.903258],[89.547532,16.888378],[89.537,16.873497],[89.52647,16.858616],[89.515942,16.843734],[89.505416,16.828852],[89.494891,16.813969],[89.484367,16.799085],[89.473846,16.784201],[89.463326,16.769316],[89.452807,16.754431],[89.44229,16.739545],[89.431775,16.724659]]]}},{"type":"Feature","properties":{"item":"india-line"},"geometry":{"type":"LineString","coordinates":[[89.155556,21.6445],[89.157855,21.627912],[89.160153,21.611325],[89.162451,21.594737],[89.164749,21.578149],[89.167046,21.561561],[89.169343,21.544973],[89.171639,21.528385],[89.173934,21.511797],[89.176229,21.495209],[89.178524,21.478621],[89.180818,21.462033],[89.183111,21.445444],[89.185853,21.427871],[89.188594,21.410298],[89.191334,21.392724],[89.194074,21.37515],[89.196813,21.357577],[89.199551,21.340003],[89.202289,21.322429],[89.205026,21.304855],[89.207762,21.287281],[89.210498,21.269707],[89.213233,21.252133],[89.215968,21.234558],[89.218702,21.216984],[89.221435,21.19941],[89.224167,21.181835],[89.226899,21.164261],[89.229631,21.146686],[89.232361,21.129111],[89.233201,21.111065],[89.23404,21.093019],[89.23488,21.074972],[89.235719,21.056926],[89.236558,21.03888],[89.237396,21.020833],[89.238235,21.002787],[89.239073,20.98474],[89.239911,20.966694],[89.240749,20.948647],[89.241587,20.930601],[89.242424,20.912554],[89.243261,20.894507],[89.244099,20.876461],[89.244935,20.858414],[89.245772,20.840367],[89.246609,20.82232],[89.247445,20.804273],[89.248281,20.786226],[89.249117,20.768179],[89.249953,20.750132],[89.250788,20.732085],[89.251623,20.714038],[89.252458,20.695991],[89.253293,20.677944],[89.254128,20.659897],[89.254962,20.641849],[89.255797,20.623802],[89.256631,20.605755],[89.257465,20.587707],[89.258298,20.56966],[89.259132,20.551612],[89.259965,20.533565],[89.260798,20.515517],[89.261631,20.49747],[89.262464,20.479422],[89.263297,20.461374],[89.264129,20.443327],[89.264961,20.425279],[89.265793,20.407231],[89.266625,20.389183],[89.267456,20.371135],[89.268288,20.353087],[89.269119,20.335039],[89.26995,20.316991],[89.270781,20.298943],[89.271611,20.280895],[89.272442,20.262847],[89.273272,20.244799],[89.274102,20.226751],[89.274932,20.208702],[89.275762,20.190654],[89.276591,20.172606],[89.27742,20.154557],[89.278249,20.136509],[89.279078,20.11846],[89.279907,20.100412],[89.280735,20.082363],[89.281564,20.064315],[89.282392,20.046266],[89.28322,20.028217],[89.284048,20.010169],[89.284875,19.99212],[89.285703,19.974071],[89.28653,19.956022],[89.287357,19.937973],[89.288183,19.919925],[89.28901,19.901876],[89.289837,19.883827],[89.290663,19.865778],[89.291489,19.847728],[89.292315,19.829679],[89.29314,19.81163],[89.293966,19.793581],[89.294791,19.775532],[89.295616,19.757482],[89.296441,19.739433],[89.297266,19.721384],[89.298091,19.703334],[89.298915,19.685285],[89.299739,19.667235],[89.300563,19.649186],[89.301387,19.631136],[89.302211,19.613087],[89.303034,19.595037],[89.303857,19.576987],[89.304681,19.558938],[89.305503,19.540888],[89.306326,19.522838],[89.307149,19.504788],[89.307971,19.486738],[89.308793,19.468689],[89.309615,19.450639],[89.310437,19.432589],[89.311259,19.414539],[89.31208,19.396488],[89.312901,19.378438],[89.313723,19.360388],[89.314543,19.342338],[89.315364,19.324288],[89.316185,19.306237],[89.317005,19.288187],[89.317825,19.270137],[89.318645,19.252086],[89.319465,19.234036],[89.320285,19.215985],[89.321104,19.197935],[89.321924,19.179884],[89.322743,19.161834],[89.323562,19.143783],[89.32438,19.125733],[89.325199,19.107682],[89.326017,19.089631],[89.326836,19.07158],[89.327654,19.053529],[89.328472,19.035479],[89.329289,19.017428],[89.330107,18.999377],[89.330924,18.981326],[89.331741,18.963275],[89.332558,18.945224],[89.333375,18.927173],[89.334192,18.909121],[89.335008,18.89107],[89.335824,18.873019],[89.336641,18.854968],[89.337457,18.836917],[89.338272,18.818865],[89.339088,18.800814],[89.339903,18.782762],[89.340719,18.764711],[89.341534,18.74666],[89.342349,18.728608],[89.343163,18.710556],[89.343978,18.692505],[89.344792,18.674453],[89.345606,18.656402],[89.34642,18.63835],[89.347234,18.620298],[89.348048,18.602246],[89.348862,18.584194],[89.349675,18.566143],[89.350488,18.548091],[89.351301,18.530039],[89.352114,18.511987],[89.352927,18.493935],[89.353739,18.475883],[89.354551,18.457831],[89.355364,18.439779],[89.356176,18.421726],[89.356987,18.403674],[89.357799,18.385622],[89.358611,18.36757],[89.359422,18.349517],[89.360233,18.331465],[89.361044,18.313413],[89.361855,18.29536],[89.362665,18.277308],[89.363476,18.259255],[89.364286,18.241203],[89.365096,18.22315],[89.365906,18.205097],[89.366716,18.187045],[89.367526,18.168992],[89.368335,18.150939],[89.369145,18.132887],[89.369954,18.114834],[89.370763,18.096781],[89.371571,18.078728],[89.37238,18.060675],[89.373189,18.042622],[89.373997,18.024569],[89.374805,18.006516],[89.375613,17.988463],[89.376421,17.97041],[89.377228,17.952357],[89.378036,17.934304],[89.378843,17.91625],[89.37965,17.898197],[89.380457,17.880144],[89.381264,17.862091],[89.382071,17.844037],[89.382877,17.825984],[89.383684,17.80793],[89.38449,17.789877],[89.385296,17.771823],[89.386102,17.75377],[89.386908,17.735716],[89.387713,17.717663],[89.388518,17.699609],[89.389324,17.681555],[89.390129,17.663502],[89.390934,17.645448],[89.391738,17.627394],[89.392543,17.60934],[89.393347,17.591286],[89.394152,17.573233],[89.394956,17.555179],[89.39576,17.537125],[89.396563,17.519071],[89.397367,17.501017],[89.398171,17.482962],[89.398974,17.464908],[89.399777,17.446854],[89.40058,17.4288],[89.401383,17.410746],[89.402185,17.392692],[89.402988,17.374637],[89.40379,17.356583],[89.404593,17.338529],[89.405395,17.320474],[89.406196,17.30242],[89.406998,17.284365],[89.4078,17.266311],[89.408601,17.248256],[89.409402,17.230202],[89.410204,17.212147],[89.411004,17.194092],[89.411805,17.176038],[89.412606,17.157983],[89.413406,17.139928],[89.414207,17.121873],[89.415007,17.103818],[89.415807,17.085764],[89.416607,17.067709],[89.417406,17.049654],[89.418206,17.031599],[89.419005,17.013544],[89.419805,16.995489],[89.420604,16.977434],[89.421403,16.959379],[89.422202,16.941323],[89.423,16.923268],[89.423799,16.905213],[89.424597,16.887158],[89.425395,16.869102],[89.426193,16.851047],[89.426991,16.832992],[89.427789,16.814936],[89.428586,16.796881],[89.429384,16.778825],[89.430181,16.76077],[89.430978,16.742714],[89.431775,16.724659]]}},{"type":"Feature","properties":{"item":"baselines-2015"},"geometry":{"type":"LineString","coordinates":[[89.155556,21.6445],[89.173476,21.64171],[89.191396,21.638917],[89.209315,21.636123],[89.227233,21.633327],[89.245151,21.630529],[89.263068,21.627729],[89.280984,21.624927],[89.2989,21.622123],[89.316815,21.619318],[89.334729,21.61651],[89.352643,21.6137],[89.370556,21.610889],[89.389705,21.611333],[89.408855,21.611774],[89.428005,21.612214],[89.447155,21.612651],[89.466306,21.613086],[89.485456,21.613519],[89.504606,21.61395],[89.523757,21.614378],[89.542908,21.614804],[89.562059,21.615228],[89.581209,21.61565],[89.60036,21.61607],[89.619512,21.616487],[89.638663,21.616903],[89.657814,21.617316],[89.676966,21.617726],[89.696117,21.618135],[89.715269,21.618541],[89.734421,21.618945],[89.753573,21.619347],[89.772725,21.619747],[89.791877,21.620145],[89.811029,21.62054],[89.830181,21.620933],[89.849334,21.621324],[89.868486,21.621713],[89.887639,21.6221],[89.906792,21.622484],[89.925944,21.622866],[89.945097,21.623246],[89.96425,21.623624],[89.983403,21.623999],[90.002557,21.624372],[90.02171,21.624744],[90.040863,21.625112],[90.060017,21.625479],[90.079171,21.625844],[90.098324,21.626206],[90.117478,21.626566],[90.136632,21.626924],[90.155786,21.627279],[90.17494,21.627633],[90.194094,21.627984],[90.213249,21.628333],[90.232403,21.62868],[90.251557,21.629025],[90.270712,21.629367],[90.289867,21.629707],[90.309021,21.630045],[90.328176,21.630381],[90.347331,21.630715],[90.366486,21.631046],[90.385641,21.631375],[90.404796,21.631702],[90.423951,21.632027],[90.443107,21.632349],[90.462262,21.63267],[90.481418,21.632988],[90.500573,21.633304],[90.519729,21.633618],[90.538885,21.633929],[90.558041,21.634238],[90.577196,21.634545],[90.596352,21.63485],[90.615508,21.635153],[90.634665,21.635453],[90.653821,21.635752],[90.672977,21.636048],[90.692134,21.636342],[90.71129,21.636633],[90.730447,21.636923],[90.749603,21.63721],[90.76876,21.637495],[90.787917,21.637778],[90.806874,21.634506],[90.825831,21.631231],[90.844787,21.627955],[90.863742,21.624676],[90.882697,21.621396],[90.90165,21.618113],[90.920603,21.614828],[90.939555,21.61154],[90.958505,21.608251],[90.977456,21.604959],[90.996405,21.601666],[91.015353,21.59837],[91.0343,21.595072],[91.053247,21.591772],[91.072193,21.588469],[91.091138,21.585165],[91.110082,21.581858],[91.129025,21.578549],[91.147967,21.575238],[91.166909,21.571925],[91.185849,21.56861],[91.204789,21.565292],[91.223728,21.561973],[91.242666,21.558651],[91.261603,21.555327],[91.280539,21.552001],[91.299475,21.548673],[91.318409,21.545342],[91.337343,21.54201],[91.356276,21.538675],[91.375207,21.535338],[91.394139,21.531999],[91.413069,21.528658],[91.431998,21.525315],[91.450927,21.52197],[91.469854,21.518622],[91.488781,21.515272],[91.507707,21.511921],[91.526632,21.508567],[91.545556,21.50521],[91.564479,21.501852],[91.583402,21.498492],[91.602323,21.495129],[91.621244,21.491764],[91.640164,21.488398],[91.659083,21.485029],[91.678001,21.481657],[91.696918,21.478284],[91.715834,21.474909],[91.73475,21.471531],[91.753664,21.468151],[91.772578,21.46477],[91.791491,21.461386],[91.810403,21.457999],[91.829314,21.454611],[91.848224,21.451221],[91.867133,21.447828],[91.886042,21.444433],[91.904949,21.441037],[91.923856,21.437638],[91.942762,21.434237],[91.961667,21.430833]]}}]}
