{"type":"FeatureCollection","features":[{"type":"Feature","properties":{"kind":"myanmar"},"geometry":{"type":"Point","coordinates":[92.368667,20.704389]}},{"type":"Feature","properties":{"kind":"myanmar"},"geometry":{"type":"Point","coordinates":[92.341389,20.679167]}},{"type":"Feature","properties":{"kind":"myanmar"},"geometry":{"type":"Point","coordinates":[92.353194,20.664167]}},{"type":"Feature","properties":{"kind":"myanmar"},"geometry":{"type":"Point","coordinates":[92.395083,20.620417]}},{"type":"Feature","properties":{"kind":"myanmar"},"geometry":{"type":"Point","coordinates":[92.41625,20.59075]}},{"type":"Feature","properties":{"kind":"myanmar"},"geometry":{"type":"Point","coordinates":[92.429444,20.554944]}},{"type":"Feature","properties":{"kind":"myanmar"},"geometry":{"type":"Point","coordinates":[92.414556,20.436472]}},{"type":"Feature","properties":{"kind":"myanmar"},"geometry":{"type":"Point","coordinates":[92.402528,20.379472]}},{"type":"Feature","properties":{"kind":"myanmar"},"geometry":{"type":"Point","coordinates":[92.164083,20.444222]}},{"type":"Feature","properties":{"kind":"myanmar"},"geometry":{"type":"Point","coordinates":[92.002111,20.218417]}},{"type":"Feature","properties":{"kind":"myanmar"},"geometry":{"type":"Point","coordinates":[91.842167,20.058889]}},{"type":"Feature","properties":{"kind":"india"},"geometry":{"type":"Point","coordinates":[89.155556,21.6445]}},{"type":"Feature","properties":{"kind":"india"},"geometry":{"type":"Point","coordinates":[89.183111,21.445444]}},{"type":"Feature","properties":{"kind":"india"},"geometry":{"type":"Point","coordinates":[89.232361,21.129111]}},{"type":"Feature","properties":{"kind":"baseline","n":"১"},"geometry":{"type":"Point","coordinates":[89.155556,21.6445]}},{"type":"Feature","properties":{"kind":"baseline","n":"২"},"geometry":{"type":"Point","coordinates":[89.370556,21.610889]}},{"type":"Feature","properties":{"kind":"baseline","n":"৩"},"geometry":{"type":"Point","coordinates":[90.787917,21.637778]}},{"type":"Feature","properties":{"kind":"baseline","n":"৪"},"geometry":{"type":"Point","coordinates":[91.961667,21.430833]}}]}
