{"type":"FeatureCollection","features":[
{"type":"Feature","properties":{"key":"dharla","line":"dharla","parent":"main","m":2479},"geometry":{"type":"LineString","coordinates":[[89.728732,25.726303],[89.74719,25.71146]]}},
{"type":"Feature","properties":{"key":"teesta","line":"teesta","parent":"main","m":2989},"geometry":{"type":"LineString","coordinates":[[89.68155,25.39858],[89.710685,25.404063]]}},
{"type":"Feature","properties":{"key":"dhaleshwari","line":"dhaleshwari","parent":"main","m":11378},"geometry":{"type":"LineString","coordinates":[[89.833187,24.166733],[89.7403,24.22411]]}},
{"type":"Feature","properties":{"key":"arialKhan","line":"arialKhan2","parent":"arialKhan","m":6629},"geometry":{"type":"LineString","coordinates":[[90.34843,22.814756],[90.353802,22.874166]]}},
{"type":"Feature","properties":{"key":"mahananda","line":"mahananda2","parent":"mahananda3","m":11286},"geometry":{"type":"LineString","coordinates":[[88.182644,24.955262],[88.263477,24.885062]]}},
{"type":"Feature","properties":{"key":"bhagirathi","line":"bhagirathi","parent":"gangaPadma","m":7380},"geometry":{"type":"LineString","coordinates":[[88.09125,24.49358],[88.16078,24.51363]]}},
{"type":"Feature","properties":{"key":"bhagirathi","line":"bhagirathi2","parent":"bhagirathi","m":396},"geometry":{"type":"LineString","coordinates":[[88.23381,23.78564],[88.23348,23.78919]]}},
{"type":"Feature","properties":{"key":"bhairab","line":"bhairab2","parent":"bhairab","m":277},"geometry":{"type":"LineString","coordinates":[[89.385924,23.117662],[89.384742,23.1199]]}},
{"type":"Feature","properties":{"key":"nabaganga","line":"nabaganga","parent":"mathabhanga","m":2817},"geometry":{"type":"LineString","coordinates":[[88.862255,23.6263],[88.85255,23.650024]]}},
{"type":"Feature","properties":{"key":"chitra","line":"chitra","parent":"mathabhanga","m":10712},"geometry":{"type":"LineString","coordinates":[[88.907011,23.567626],[88.85255,23.650024]]}},
{"type":"Feature","properties":{"key":"pashur","line":"pashur2","parent":"pashur","m":363},"geometry":{"type":"LineString","coordinates":[[89.631922,22.346816],[89.63007,22.3496]]}},
{"type":"Feature","properties":{"key":"surma","line":"surma","parent":"meghnaUpper","m":10215},"geometry":{"type":"LineString","coordinates":[[91.00843,24.37107],[91.057363,24.290754]]}},
{"type":"Feature","properties":{"key":"kushiyara","line":"kushiyara","parent":"meghnaUpper","m":9781},"geometry":{"type":"LineString","coordinates":[[91.15882,24.34077],[91.089175,24.279862]]}},
{"type":"Feature","properties":{"key":"manu","line":"manu","parent":"manu2","m":116},"geometry":{"type":"LineString","coordinates":[[92.028158,24.158912],[92.027341,24.159646]]}},
{"type":"Feature","properties":{"key":"gumti","line":"gumti","parent":"meghna","m":11959},"geometry":{"type":"LineString","coordinates":[[90.701474,23.528965],[90.625513,23.610934]]}},
{"type":"Feature","properties":{"key":"khowai","line":"khowai","parent":"kushiyara","m":7216},"geometry":{"type":"LineString","coordinates":[[91.229753,24.346621],[91.15882,24.34077]]}},
{"type":"Feature","properties":{"key":"mogra","line":"mogra","parent":"mogra2","m":9934},"geometry":{"type":"LineString","coordinates":[[90.751266,24.827566],[90.836955,24.871558]]}},
{"type":"Feature","properties":{"key":"sangu","line":"sangu3","parent":"sangu2","m":5613},"geometry":{"type":"LineString","coordinates":[[92.013811,22.153393],[92.06794,22.159318]]}},
{"type":"Feature","properties":{"key":"sangu","line":"sangu4","parent":"sangu3","m":716},"geometry":{"type":"LineString","coordinates":[[91.911621,22.174688],[91.916444,22.179325]]}}
]}
