{"type":"FeatureCollection","features":[
{"type":"Feature","properties":{"key":"main","line":"main"},"geometry":{"type":"LineString","coordinates":[[82.400483,30.411444],[82.417979,30.420762],[82.439057,30.424384],[82.458995,30.42414],[82.472341,30.42239],[82.517019,30.408759],[82.539236,30.398017],[82.557709,30.384141],[82.568614,30.368272],[82.575694,30.362576],[82.589122,30.360297],[82.641368,30.37873],[82.646007,30.381619],[82.651296,30.382514],[82.664154,30.380723],[82.6692,30.378201],[82.674815,30.373806],[82.682872,30.369574],[82.722667,30.365058],[82.75294,30.359442],[82.769216,30.358507],[82.78769,30.360297],[82.834972,30.371405],[82.859304,30.372992],[82.86964,30.36404],[82.893321,30.332343],[82.906668,30.327745],[82.91269,30.316759],[82.917491,30.291368],[82.925385,30.2685],[82.933604,30.25141],[82.945811,30.237372],[82.965343,30.223741],[82.994233,30.21247],[83.037201,30.184678],[83.044444,30.181505],[83.066173,30.180447],[83.074718,30.178575],[83.082042,30.17532],[83.087169,30.168565],[83.090424,30.159451],[83.09547,30.151435],[83.131602,30.141954],[83.149913,30.130886],[83.167735,30.124864],[83.191905,30.134345],[83.198985,30.112331],[83.218028,30.097235],[83.237885,30.086208],[83.247081,30.076361],[83.252371,30.072943],[83.263927,30.072089],[83.276541,30.07335],[83.284679,30.076361],[83.293061,30.076524],[83.305431,30.07038],[83.322765,30.058661],[83.362885,30.049506],[83.382253,30.041531],[83.390554,30.028184],[83.395763,30.004706],[83.40976,29.991523],[83.451915,29.976671],[83.500499,29.947089],[83.537364,29.938503],[83.555431,29.927517],[83.588959,29.89411],[83.60019,29.87991],[83.604503,29.877631],[83.626557,29.871446],[83.706635,29.86225],[83.726573,29.855902],[83.753917,29.842597],[83.760916,29.833319],[83.817475,29.815375],[83.980072,29.736436],[83.968842,29.731269],[83.959972,29.724189],[83.954112,29.714708],[83.952159,29.702338],[83.976329,29.657986],[83.982026,29.650417],[83.989513,29.633124],[83.996593,29.623847],[84.006765,29.615994],[84.034679,29.606147],[84.087169,29.570176],[84.106456,29.565782],[84.166433,29.578884],[84.185557,29.579454],[84.198334,29.577175],[84.205089,29.575141],[84.219737,29.565782],[84.22934,29.547878],[84.237722,29.541449],[84.250418,29.548407],[84.261322,29.548407],[84.308849,29.539903],[84.416108,29.535224],[84.461029,29.525987],[84.493337,29.510565],[84.510509,29.475898],[84.503917,29.432807],[84.48878,29.388251],[84.480398,29.349473],[84.48463,29.343329],[84.50294,29.331855],[84.507091,29.322211],[84.504812,29.314521],[84.500499,29.305772],[84.49879,29.296698],[84.503673,29.287706],[84.524425,29.27619],[84.566173,29.268419],[84.582774,29.257351],[84.59075,29.263861],[84.595876,29.272406],[84.599701,29.2803],[84.603282,29.284613],[84.617931,29.28852],[84.627208,29.28559],[84.635753,29.280544],[84.665701,29.275336],[84.7199,29.257351],[84.776296,29.224433],[84.792003,29.226264],[84.813731,29.234076],[84.837901,29.229356],[84.922455,29.190131],[84.963796,29.186103],[85.001231,29.198554],[85.035248,29.229356],[85.036143,29.233913],[85.03419,29.246039],[85.035248,29.250515],[85.040538,29.254462],[85.045665,29.255235],[85.050548,29.255398],[85.055105,29.257351],[85.071707,29.268866],[85.0831,29.275092],[85.111257,29.284735],[85.144054,29.316514],[85.164968,29.325629],[85.234874,29.319525],[85.250987,29.315009],[85.265066,29.304633],[85.307628,29.28323],[85.322683,29.277777],[85.391694,29.280626],[85.408702,29.274359],[85.423595,29.265326],[85.445323,29.257758],[85.468435,29.252509],[85.487071,29.250515],[85.531668,29.256659],[85.555431,29.256456],[85.573334,29.246772],[85.596609,29.207465],[85.609467,29.191514],[85.630626,29.182196],[85.652924,29.180609],[85.731212,29.192206],[85.763113,29.210232],[85.781993,29.216376],[85.80421,29.214952],[85.8449,29.199652],[85.946381,29.182196],[86.14739,29.178168],[86.158702,29.179389],[86.169526,29.183702],[86.192312,29.197048],[86.224376,29.206244],[86.236095,29.208075],[86.247081,29.197577],[86.259695,29.201972],[86.271495,29.209662],[86.275401,29.213446],[86.35019,29.210557],[86.387462,29.223822],[86.411062,29.218695],[86.4345,29.210232],[86.453624,29.207302],[86.467784,29.21365],[86.478119,29.222357],[86.48821,29.226833],[86.501394,29.220282],[86.509532,29.239203],[86.522227,29.234687],[86.535655,29.221218],[86.546397,29.213446],[86.567149,29.211249],[86.606944,29.201687],[86.625499,29.199815],[86.636648,29.201931],[86.656261,29.210801],[86.666515,29.213446],[86.960541,29.179389],[87.006358,29.185126],[87.027436,29.181098],[87.036388,29.162624],[87.04005,29.158555],[87.048757,29.155219],[87.058849,29.152899],[87.067393,29.152045],[87.079194,29.154242],[87.08546,29.159613],[87.090424,29.166368],[87.098562,29.172471],[87.111501,29.177069],[87.120697,29.176703],[87.155528,29.156846],[87.167247,29.152167],[87.19394,29.145209],[87.219249,29.156846],[87.244884,29.151719],[87.296397,29.130927],[87.409434,29.117865],[87.518972,29.124701],[87.546641,29.130723],[87.604015,29.150458],[87.625418,29.145209],[87.642182,29.150946],[87.660167,29.151557],[87.67628,29.154242],[87.687511,29.166287],[87.668224,29.200222],[87.668061,29.2178],[87.683849,29.237657],[87.693126,29.244086],[87.710378,29.252305],[87.717865,29.258165],[87.726736,29.269558],[87.742117,29.302273],[87.776296,29.333767],[87.817963,29.347602],[87.906668,29.364325],[87.964285,29.395046],[87.985037,29.399034],[88.041433,29.387519],[88.090017,29.383653],[88.105235,29.378241],[88.129242,29.354071],[88.149018,29.34044],[88.168875,29.337104],[88.186697,29.341376],[88.201427,29.350653],[88.205333,29.357123],[88.208263,29.365424],[88.212576,29.373114],[88.221283,29.377956],[88.234304,29.377997],[88.241628,29.373074],[88.248464,29.367214],[88.259776,29.364325],[88.270925,29.365424],[88.290538,29.370063],[88.30071,29.371161],[88.306733,29.367947],[88.318289,29.35163],[88.324962,29.344428],[88.342703,29.335517],[88.362641,29.331326],[88.403087,29.330146],[88.425304,29.335761],[88.4699,29.359565],[88.495616,29.364325],[88.557872,29.352607],[88.63087,29.350653],[88.832042,29.344428],[88.843354,29.339545],[88.851736,29.334296],[88.860606,29.334093],[88.872976,29.344428],[88.91212,29.328884],[88.946056,29.351752],[88.979421,29.381212],[89.016368,29.385443],[89.022878,29.380154],[89.047374,29.354071],[89.055593,29.349433],[89.066498,29.346503],[89.122813,29.342882],[89.133067,29.344428],[89.142507,29.349473],[89.157319,29.364325],[89.167247,29.371161],[89.187104,29.360948],[89.204682,29.357123],[89.246349,29.357489],[89.255789,29.360663],[89.274506,29.374823],[89.280528,29.377956],[89.36435,29.364081],[89.396576,29.354438],[89.430919,29.348009],[89.475678,29.350653],[89.544363,29.368679],[89.567882,29.371161],[89.661225,29.371161],[89.694591,29.363796],[89.764415,29.32571],[89.811534,29.322699],[89.927989,29.340115],[89.990245,29.364325],[90.013927,29.36754],[90.074962,29.357489],[90.138194,29.35989],[90.286062,29.336249],[90.325287,29.322699],[90.380626,29.293769],[90.397472,29.289171],[90.401866,29.285468],[90.418061,29.266425],[90.421641,29.258165],[90.427338,29.253119],[90.44044,29.25495],[90.462576,29.261908],[90.54599,29.273708],[90.582449,29.284776],[90.70045,29.348904],[90.740326,29.3546],[90.757335,29.319648],[90.764659,29.295681],[90.780935,29.297227],[90.808442,29.316474],[90.819021,29.320868],[90.839285,29.340115],[90.84962,29.344428],[90.890554,29.344428],[90.906342,29.340115],[90.937592,29.320868],[90.959727,29.316474],[90.969493,29.320095],[90.97991,29.32685],[90.990326,29.330878],[91.000418,29.326483],[91.008067,29.321112],[91.017507,29.318386],[91.038015,29.316474],[91.086355,29.330837],[91.114757,29.335395],[91.127371,29.325303],[91.138601,29.318427],[91.287852,29.291531],[91.302745,29.284695],[91.321707,29.285183],[91.357351,29.293809],[91.376882,29.296169],[91.436046,29.290554],[91.451752,29.291938],[91.511322,29.303982],[91.570079,29.305203],[91.649913,29.28852],[91.663259,29.28738],[91.670665,29.288153],[91.691742,29.293647],[91.708588,29.294623],[91.769054,29.288601],[91.783132,29.290595],[91.836925,29.305447],[91.865652,29.307807],[91.894542,29.306586],[91.922862,29.301622],[91.949718,29.293077],[91.951182,29.28913],[91.953868,29.287218],[91.956635,29.285956],[91.959402,29.283474],[91.96046,29.281033],[91.961681,29.275702],[91.962901,29.273057],[91.97519,29.264594],[91.992931,29.261054],[92.011241,29.262071],[92.025401,29.267605],[92.028901,29.271918],[92.03476,29.284288],[92.038585,29.289171],[92.048269,29.295681],[92.059093,29.299628],[92.07073,29.301622],[92.128917,29.304796],[92.1456,29.303412],[92.19337,29.278876],[92.271088,29.252061],[92.345144,29.237413],[92.356944,29.236843],[92.370372,29.242214],[92.39088,29.265652],[92.398204,29.271023],[92.42213,29.269355],[92.450287,29.263983],[92.473725,29.254421],[92.483653,29.239936],[92.487722,29.224189],[92.523936,29.164089],[92.525076,29.158881],[92.529714,29.156765],[92.545665,29.154893],[92.556407,29.155544],[92.580577,29.160712],[92.593435,29.16116],[92.584076,29.141547],[92.581147,29.131171],[92.583507,29.123236],[92.59433,29.117255],[92.60198,29.121202],[92.608165,29.128852],[92.614513,29.133816],[92.637706,29.138129],[92.663666,29.140163],[92.688406,29.136094],[92.707286,29.12226],[92.715912,29.10871],[92.721121,29.103095],[92.729421,29.098212],[92.73642,29.096015],[92.870372,29.097032],[92.888927,29.092637],[92.89796,29.082831],[92.906342,29.07864],[92.919932,29.068427],[92.928315,29.063585],[92.938731,29.059597],[92.959565,29.055203],[92.995128,29.053575],[93.019623,29.056586],[93.042572,29.064561],[93.062022,29.078803],[93.07366,29.093207],[93.088878,29.117987],[93.096772,29.126003],[93.106212,29.129462],[93.116303,29.125108],[93.121593,29.116034],[93.121755,29.105333],[93.120372,29.094265],[93.121023,29.083767],[93.12379,29.076483],[93.127859,29.069851],[93.14088,29.052558],[93.145925,29.042344],[93.149018,29.037665],[93.15919,29.031195],[93.171479,29.030585],[93.184581,29.031928],[93.196788,29.031358],[93.20753,29.026313],[93.224864,29.012519],[93.234467,29.00963],[93.283295,29.004177],[93.29892,29.00491],[93.316742,29.010118],[93.332937,29.018744],[93.347667,29.029893],[93.393484,29.083767],[93.404389,29.105007],[93.411143,29.114691],[93.4192,29.122016],[93.43629,29.134141],[93.443126,29.142198],[93.461355,29.175076],[93.474539,29.185858],[93.490652,29.189643],[93.508067,29.189154],[93.55714,29.182196],[93.590343,29.183702],[93.606212,29.18183],[93.616466,29.182888],[93.621349,29.182196],[93.626394,29.177354],[93.628184,29.163886],[93.631847,29.16116],[93.654552,29.163153],[93.687266,29.169704],[93.703868,29.167914],[93.713796,29.163642],[93.722179,29.158759],[93.730968,29.155585],[93.742442,29.156684],[93.766694,29.166571],[93.778412,29.169501],[93.792247,29.167914],[93.823009,29.156114],[93.834239,29.154608],[93.848888,29.155707],[93.864757,29.159247],[93.879405,29.165473],[93.89088,29.174628],[93.90032,29.186632],[93.905284,29.19184],[93.911876,29.195828],[93.930756,29.200873],[93.969249,29.204779],[93.988048,29.210313],[94.016043,29.2237],[94.026296,29.225938],[94.060964,29.228339],[94.078868,29.227647],[94.095307,29.224921],[94.118256,29.216742],[94.126231,29.214952],[94.161143,29.214545],[94.179617,29.217149],[94.194835,29.221869],[94.355968,29.309516],[94.416515,29.353787],[94.424815,29.362331],[94.445404,29.392686],[94.462901,29.411933],[94.482595,29.428494],[94.502452,29.438666],[94.540701,29.448269],[94.552419,29.454535],[94.573416,29.476345],[94.582286,29.481798],[94.596283,29.486029],[94.627859,29.489529],[94.654552,29.48904],[94.663666,29.486355],[94.671967,29.481716],[94.680756,29.474799],[94.706554,29.464138],[94.730561,29.469591],[94.754405,29.480292],[94.78004,29.485134],[94.794932,29.484565],[94.806895,29.486151],[94.817312,29.491767],[94.835867,29.511257],[94.843435,29.517279],[94.861746,29.528266],[94.875255,29.540554],[94.924083,29.609565],[94.92628,29.621934],[94.913178,29.627265],[94.885916,29.633083],[94.890147,29.646267],[94.916596,29.668809],[94.911388,29.68419],[94.898692,29.690131],[94.891694,29.697211],[94.903575,29.71601],[94.954845,29.756944],[94.968679,29.758124],[94.996186,29.763617],[95.066335,29.76557],[95.084972,29.763739],[95.105886,29.758653],[95.116222,29.758612],[95.124522,29.764228],[95.127208,29.773546],[95.124115,29.782294],[95.117686,29.789618],[95.099701,29.801093],[95.093842,29.806505],[95.092459,29.813666],[95.107595,29.8581],[95.113048,29.867865],[95.128835,29.880194],[95.150971,29.889024],[95.174897,29.893581],[95.195079,29.89293],[95.206554,29.874091],[95.224132,29.866523],[95.245046,29.865994],[95.275808,29.868476],[95.286388,29.866889],[95.296479,29.863145],[95.303966,29.856798],[95.306895,29.850287],[95.307546,29.843533],[95.305919,29.836941],[95.302257,29.830919],[95.298269,29.82807],[95.287039,29.821845],[95.28419,29.818549],[95.288259,29.811225],[95.299408,29.805121],[95.369151,29.784451],[95.384044,29.771104],[95.386241,29.744412],[95.379975,29.72366],[95.379893,29.717149],[95.382253,29.711249],[95.390717,29.701199],[95.394216,29.695665],[95.396495,29.687812],[95.396414,29.680284],[95.392833,29.657294],[95.393891,29.635077],[95.388682,29.607245],[95.388194,29.594916],[95.393158,29.579779],[95.402192,29.562771],[95.406179,29.557685],[95.42213,29.543565],[95.425955,29.537177],[95.427989,29.529405],[95.428722,29.505561],[95.430919,29.498603],[95.437266,29.485622],[95.439138,29.478787],[95.437266,29.463813],[95.428722,29.450995],[95.31601,29.337266],[95.312511,29.330186],[95.254649,29.288398],[95.242198,29.284613],[95.214854,29.282497],[95.201752,29.278835],[95.154714,29.252265],[95.112315,29.218573],[95.101329,29.211941],[95.064708,29.196316],[95.053966,29.188341],[95.047781,29.18004],[95.044444,29.17654],[95.039154,29.173896],[95.032319,29.173041],[95.017589,29.174425],[95.010509,29.173896],[95.000906,29.16824],[95.000255,29.159735],[95.002859,29.149522],[95.00294,29.138861],[94.997569,29.130439],[94.969819,29.110663],[94.934662,29.07213],[94.916596,29.058905],[94.908702,29.051052],[94.904796,29.041205],[94.905284,29.0362],[94.906749,29.031602],[94.907237,29.026719],[94.904796,29.020941],[94.900645,29.016791],[94.86964,28.997585],[94.86321,28.992011],[94.857188,28.984646],[94.843272,28.96129],[94.837576,28.955634],[94.831147,28.950466],[94.816905,28.942572],[94.805675,28.939765],[94.796153,28.938503],[94.788503,28.934597],[94.783214,28.924018],[94.779714,28.89997],[94.778819,28.875434],[94.773448,28.854438],[94.774669,28.845567],[94.784679,28.841824],[94.785492,28.832546],[94.788097,28.826931],[94.793468,28.824083],[94.899994,28.824571],[94.915457,28.82099],[94.924083,28.811632],[94.924327,28.806423],[94.92213,28.803656],[94.918712,28.801703],[94.915619,28.798774],[94.913585,28.7956],[94.912527,28.793036],[94.912039,28.789862],[94.914073,28.773953],[94.916921,28.763007],[94.921316,28.752509],[94.92685,28.742987],[94.937755,28.733344],[94.965343,28.721015],[94.975597,28.712226],[94.977957,28.70539],[94.976736,28.690009],[94.977306,28.682725],[94.982514,28.675401],[94.990245,28.67536],[94.996755,28.678778],[94.999115,28.681952],[95.021495,28.631374],[95.031993,28.616034],[95.079031,28.567206],[95.097992,28.539374],[95.103526,28.507351],[95.099213,28.488471],[95.093679,28.472235],[95.090424,28.455756],[95.096202,28.418036],[95.092459,28.405788],[95.013438,28.326768],[94.999766,28.309353],[94.992931,28.286444],[94.988699,28.259385],[94.989513,28.250556],[94.992931,28.243109],[94.998139,28.237169],[95.010265,28.226386],[95.019054,28.214545],[95.024913,28.201728],[95.031993,28.173651],[95.037201,28.171658],[95.051768,28.161241],[95.06601,28.15587],[95.098888,28.149359],[95.129893,28.148057],[95.145274,28.150336],[95.160085,28.1553],[95.17335,28.163601],[95.182546,28.170844],[95.190847,28.175727],[95.200125,28.178331],[95.212169,28.178494],[95.22698,28.176622],[95.241466,28.173163],[95.255056,28.168036],[95.268158,28.160956],[95.275971,28.155341],[95.281342,28.149359],[95.284923,28.142157],[95.28948,28.123155],[95.293468,28.114529],[95.305756,28.097683],[95.316173,28.088731],[95.329031,28.081651],[95.355479,28.071153],[95.37672,28.065741],[95.384044,28.062608],[95.393077,28.054389],[95.397472,28.044949],[95.398204,28.03205],[95.396495,28.002956],[95.401541,27.971991],[95.418956,27.941718],[95.441335,27.915554],[95.461518,27.896796],[95.47169,27.871365],[95.459483,27.843858],[95.437266,27.824815],[95.417003,27.824774],[95.403331,27.809353],[95.38323,27.793809],[95.360281,27.781806],[95.33839,27.776964],[95.330333,27.772406],[95.293468,27.742784],[95.254405,27.730333],[95.217703,27.725287],[95.149425,27.701239],[95.108165,27.696601],[95.098155,27.691352],[95.090831,27.679267],[95.085541,27.653428],[95.081147,27.640448],[95.093435,27.650906],[95.104096,27.666775],[95.116954,27.68122],[95.135753,27.687567],[95.144135,27.680487],[95.148367,27.663764],[95.147065,27.644395],[95.139603,27.629949],[95.13997,27.6298],[95.1387,27.63122],[95.13731,27.63208],[95.13622,27.63214],[95.13463,27.63157],[95.1334,27.63075],[95.13244,27.62963],[95.13139,27.62774],[95.13083,27.62605],[95.13044,27.62354],[95.12843,27.61968],[95.12819,27.61786],[95.12748,27.61544],[95.12703,27.61468],[95.12429,27.61345],[95.12242,27.61288],[95.12089,27.61208],[95.11961,27.61088],[95.11851,27.60947],[95.11785,27.60805],[95.11787,27.60489],[95.1166,27.60128],[95.11514,27.59831],[95.11489,27.59679],[95.11437,27.59536],[95.11343,27.59411],[95.11126,27.59196],[95.11027,27.59129],[95.10907,27.59082],[95.1016,27.58907],[95.09751,27.58856],[95.09431,27.58669],[95.093,27.58548],[95.0907,27.58272],[95.0892,27.58137],[95.08768,27.58051],[95.08442,27.57929],[95.08326,27.57804],[95.08244,27.57673],[95.08182,27.57543],[95.08105,27.57247],[95.08025,27.57115],[95.07727,27.56843],[95.07633,27.56727],[95.07517,27.56478],[95.07513,27.5636],[95.07605,27.56254],[95.07824,27.56166],[95.08307,27.56023],[95.08633,27.55952],[95.08942,27.55843],[95.09143,27.55727],[95.09545,27.55542],[95.10286,27.55075],[95.10409,27.54968],[95.1048,27.54854],[95.10515,27.54749],[95.10497,27.54635],[95.10386,27.54414],[95.10257,27.54342],[95.10105,27.54302],[95.09618,27.54228],[95.09326,27.54209],[95.08034,27.54262],[95.078,27.54298],[95.07641,27.54361],[95.07483,27.54465],[95.07289,27.5477],[95.07257,27.54871],[95.07193,27.54911],[95.06929,27.54814],[95.06856,27.54821],[95.06732,27.54949],[95.06659,27.54951],[95.06601,27.54914],[95.06491,27.54766],[95.06313,27.54606],[95.0599,27.5439],[95.05255,27.54159],[95.0506,27.54144],[95.04925,27.54163],[95.04822,27.5421],[95.04742,27.54279],[95.04654,27.54431],[95.04515,27.54903],[95.04517,27.55097],[95.04483,27.55276],[95.04371,27.55624],[95.04315,27.55732],[95.04213,27.5582],[95.03951,27.55985],[95.03878,27.56077],[95.0382,27.562],[95.03749,27.56275],[95.03197,27.56305],[95.03109,27.56341],[95.03004,27.56432],[95.02906,27.56478],[95.02788,27.56478],[95.02629,27.56518],[95.02549,27.56573],[95.02438,27.56752],[95.02354,27.56767],[95.02019,27.56739],[95.01734,27.5668],[95.01509,27.56609],[95.01333,27.56512],[95.01115,27.56314],[95.00861,27.56001],[95.00698,27.55841],[95.00494,27.55767],[95.00309,27.55738],[95.00077,27.55763],[94.99861,27.55816],[94.99522,27.55959],[94.99352,27.56056],[94.99219,27.56079],[94.98799,27.559],[94.98526,27.55866],[94.98093,27.55885],[94.97962,27.55926],[94.97771,27.56063],[94.97455,27.56451],[94.96934,27.56954],[94.96784,27.57051],[94.96655,27.57083],[94.96522,27.5707],[94.96252,27.56914],[94.95679,27.56676],[94.95592,27.56668],[94.95344,27.56757],[94.95226,27.56759],[94.95141,27.56736],[94.95081,27.56692],[94.95022,27.56588],[94.94853,27.56529],[94.94703,27.56261],[94.94608,27.5619],[94.94227,27.56131],[94.94056,27.56082],[94.93531,27.55771],[94.93406,27.55732],[94.93131,27.55692],[94.92481,27.55683],[94.92285,27.55685],[94.91951,27.55733],[94.91463,27.55682],[94.91034,27.5558],[94.9089,27.55525],[94.90776,27.55459],[94.90542,27.55245],[94.90414,27.55177],[94.90291,27.55138],[94.89776,27.55101],[94.89529,27.55046],[94.88928,27.54827],[94.88739,27.5473],[94.88343,27.54452],[94.88222,27.5429],[94.8798,27.54043],[94.87797,27.53906],[94.87545,27.53763],[94.87368,27.53689],[94.87263,27.53592],[94.87117,27.53316],[94.8699,27.53164],[94.86827,27.53103],[94.86692,27.53086],[94.86555,27.53106],[94.8643,27.53099],[94.86317,27.53019],[94.86252,27.52898],[94.86231,27.52702],[94.8577,27.5163],[94.85649,27.51398],[94.85522,27.51289],[94.85335,27.51212],[94.85186,27.51229],[94.85058,27.51272],[94.84971,27.51347],[94.84905,27.51468],[94.84813,27.51562],[94.84559,27.51672],[94.84454,27.5167],[94.8437,27.51611],[94.84156,27.51284],[94.84046,27.51158],[94.83896,27.51075],[94.83695,27.51002],[94.83531,27.50899],[94.83216,27.50636],[94.83079,27.50445],[94.82871,27.50254],[94.8263,27.50098],[94.82069,27.49921],[94.81656,27.49756],[94.81236,27.49657],[94.80612,27.49563],[94.80354,27.49379],[94.80257,27.49209],[94.80208,27.49036],[94.80225,27.48667],[94.80291,27.4821],[94.80263,27.48042],[94.80169,27.4798],[94.80049,27.47953],[94.79617,27.47937],[94.79264,27.48004],[94.79111,27.47957],[94.78987,27.47856],[94.7865,27.47277],[94.78575,27.47062],[94.78566,27.46875],[94.78585,27.46721],[94.78648,27.46584],[94.78957,27.46453],[94.79158,27.4627],[94.79294,27.46076],[94.79358,27.4588],[94.79342,27.45681],[94.79281,27.4555],[94.78867,27.45307],[94.78603,27.45103],[94.78161,27.44482],[94.78,27.44174],[94.77935,27.43947],[94.77858,27.43802],[94.77731,27.43737],[94.77607,27.43762],[94.77208,27.44029],[94.77056,27.44],[94.76929,27.43928],[94.76753,27.43614],[94.76593,27.43262],[94.76575,27.43132],[94.76575,27.4296],[94.76656,27.42549],[94.76759,27.4232],[94.76764,27.42107],[94.76562,27.41543],[94.76365,27.41094],[94.76184,27.40858],[94.75944,27.40694],[94.75682,27.4056],[94.75326,27.40503],[94.74335,27.40419],[94.73923,27.40362],[94.73545,27.40233],[94.73202,27.40065],[94.72841,27.3973],[94.72627,27.39364],[94.72249,27.37947],[94.71768,27.37146],[94.71313,27.36765],[94.70103,27.36148],[94.69949,27.35972],[94.69872,27.35622],[94.69811,27.33479],[94.69734,27.33281],[94.69468,27.33068],[94.68773,27.32786],[94.68266,27.32351],[94.68052,27.31909],[94.67889,27.31276],[94.67772,27.30175],[94.67657,27.29377],[94.6746,27.29003],[94.67194,27.28858],[94.66704,27.28843],[94.66207,27.29018],[94.6582,27.29064],[94.64104,27.29018],[94.6358,27.28957],[94.63237,27.28782],[94.63065,27.28499],[94.62851,27.27431],[94.62619,27.26951],[94.62378,27.26714],[94.61357,27.26264],[94.60653,27.25814],[94.60194,27.25402],[94.60057,27.25139],[94.59928,27.24772],[94.59649,27.23296],[94.59538,27.2309],[94.59387,27.23006],[94.58469,27.22918],[94.58319,27.22819],[94.58254,27.22651],[94.58336,27.21647],[94.58333,27.20508],[94.58362,27.20101],[94.58435,27.19823],[94.58842,27.18771],[94.58769,27.18363],[94.5877,27.18183],[94.58843,27.17717],[94.59439,27.16429],[94.59452,27.16177],[94.59349,27.15784],[94.59113,27.15417],[94.58619,27.14917],[94.5825,27.14753],[94.57928,27.14692],[94.57169,27.14833],[94.56585,27.14883],[94.56061,27.14787],[94.55641,27.14615],[94.53306,27.13286],[94.5304,27.13019],[94.52877,27.12591],[94.52654,27.11713],[94.52491,27.11346],[94.52062,27.11071],[94.51598,27.10887],[94.51435,27.10704],[94.51284,27.10223],[94.5126,27.09876],[94.51299,27.0965],[94.5129,27.09515],[94.51172,27.0905],[94.51163,27.08592],[94.51129,27.0846],[94.50883,27.08024],[94.50862,27.07702],[94.50801,27.07436],[94.50806,27.0737],[94.51084,27.0679],[94.51131,27.06635],[94.51136,27.06541],[94.51113,27.06321],[94.51046,27.06072],[94.50856,27.05716],[94.50494,27.05274],[94.49914,27.04704],[94.49792,27.04622],[94.49456,27.04464],[94.49212,27.04395],[94.49079,27.04374],[94.48555,27.04422],[94.48427,27.04414],[94.48324,27.0437],[94.48244,27.04279],[94.478,27.03589],[94.47792,27.03484],[94.47397,27.03055],[94.47352,27.02891],[94.47322,27.0286],[94.47251,27.0282],[94.47186,27.02817],[94.46944,27.02715],[94.46571,27.02599],[94.46429,27.02528],[94.46275,27.02302],[94.4626,27.02102],[94.46324,27.02046],[94.46393,27.02033],[94.46596,27.02098],[94.46663,27.02077],[94.46699,27.02004],[94.4669,27.01863],[94.46599,27.01702],[94.46365,27.01469],[94.45957,27.00982],[94.4569,27.00426],[94.45611,27.00343],[94.45316,27.00118],[94.4518,26.99948],[94.44363,26.99218],[94.43929,26.98778],[94.43518,26.98037],[94.43247,26.97805],[94.42676,26.97374],[94.42328,26.97181],[94.42059,26.97098],[94.41656,26.97033],[94.40924,26.96993],[94.40668,26.97011],[94.40564,26.97046],[94.40068,26.97324],[94.39931,26.9736],[94.39153,26.97374],[94.37702,26.97693],[94.36938,26.97685],[94.3608,26.97425],[94.33505,26.95727],[94.32926,26.95371],[94.32398,26.94985],[94.32222,26.94755],[94.32024,26.94426],[94.31025,26.9267],[94.30086,26.91226],[94.29104,26.90263],[94.28752,26.89974],[94.28387,26.89752],[94.28201,26.89683],[94.28038,26.89666],[94.27862,26.89614],[94.27718,26.89551],[94.27598,26.89415],[94.27254,26.88569],[94.271,26.88246],[94.2696,26.88014],[94.26521,26.87421],[94.26366,26.87237],[94.25946,26.86895],[94.25443,26.86655],[94.25248,26.86588],[94.24513,26.86432],[94.23944,26.86405],[94.2318,26.8632],[94.22141,26.86114],[94.21875,26.8616],[94.21566,26.86382],[94.20854,26.87109],[94.20579,26.8727],[94.20021,26.87408],[94.18699,26.87561],[94.17343,26.87599],[94.1639,26.87538],[94.16189,26.87507],[94.15279,26.87277],[94.15112,26.87151],[94.14807,26.86738],[94.1467,26.86596],[94.14494,26.8655],[94.13824,26.86577],[94.13519,26.86519],[94.13245,26.86439],[94.13069,26.86336],[94.12584,26.85857],[94.12391,26.85746],[94.12193,26.85712],[94.11992,26.85773],[94.11279,26.86248],[94.11013,26.86516],[94.10721,26.86657],[94.10554,26.8668],[94.10369,26.86646],[94.10065,26.865],[94.09842,26.8642],[94.09258,26.86382],[94.09043,26.86412],[94.08885,26.86508],[94.08434,26.87186],[94.08211,26.87477],[94.08048,26.87568],[94.07782,26.87576],[94.06889,26.87423],[94.0652,26.87385],[94.0567,26.87492],[94.03576,26.87806],[94.03284,26.87798],[94.03018,26.87729],[94.02615,26.87484],[94.02331,26.8727],[94.01894,26.86761],[94.01731,26.86481],[94.01499,26.86248],[94.0055,26.85872],[94.00327,26.85869],[94.0022,26.85934],[94.00173,26.86045],[94.00031,26.86585],[93.99928,26.86864],[93.99817,26.87021],[93.99714,26.87107],[93.99623,26.87145],[93.99467,26.87111],[93.99374,26.87034],[93.98696,26.86259],[93.98284,26.85884],[93.981,26.85804],[93.97956,26.85786],[93.9781,26.85796],[93.97659,26.85837],[93.97533,26.85939],[93.97133,26.86521],[93.97006,26.86596],[93.96852,26.86636],[93.96535,26.86621],[93.96175,26.86521],[93.95615,26.86408],[93.94874,26.86321],[93.9465,26.86342],[93.94179,26.86586],[93.94035,26.86617],[93.93894,26.86605],[93.93697,26.86514],[93.93335,26.86095],[93.93056,26.85897],[93.92934,26.85833],[93.92369,26.85657],[93.92178,26.85641],[93.91782,26.85682],[93.91133,26.85934],[93.90965,26.85978],[93.90846,26.85965],[93.90781,26.85909],[93.90622,26.85573],[93.90487,26.85471],[93.90124,26.85352],[93.89949,26.85347],[93.89344,26.8546],[93.89149,26.8545],[93.89007,26.85404],[93.88893,26.8534],[93.88626,26.85147],[93.88443,26.85097],[93.88299,26.85094],[93.88015,26.85043],[93.87799,26.84931],[93.87332,26.8463],[93.87211,26.8458],[93.8697,26.84537],[93.8685,26.84536],[93.86243,26.84587],[93.85854,26.84654],[93.8569,26.84652],[93.85387,26.84584],[93.85104,26.84457],[93.84585,26.84265],[93.84431,26.84266],[93.84295,26.84217],[93.84219,26.84225],[93.84099,26.84195],[93.83537,26.83887],[93.83324,26.83839],[93.8312,26.8373],[93.82852,26.83319],[93.82539,26.83146],[93.82359,26.82801],[93.82033,26.82638],[93.81275,26.82154],[93.80966,26.82087],[93.80472,26.823],[93.80238,26.82244],[93.80087,26.82258],[93.79884,26.82226],[93.7974,26.82143],[93.79606,26.81974],[93.79352,26.82177],[93.79028,26.82015],[93.78439,26.81994],[93.78376,26.82083],[93.78333,26.82082],[93.78297,26.82051],[93.77936,26.81423],[93.77803,26.81273],[93.77649,26.8118],[93.77247,26.81005],[93.76891,26.80636],[93.76595,26.80239],[93.76391,26.80061],[93.7572,26.79561],[93.75469,26.79403],[93.74789,26.78831],[93.74548,26.78681],[93.74356,26.78603],[93.74174,26.78501],[93.73318,26.78151],[93.7295,26.78025],[93.72574,26.77856],[93.72397,26.77743],[93.72244,26.77584],[93.71929,26.77178],[93.71719,26.7701],[93.71513,26.76929],[93.71358,26.76913],[93.71206,26.76933],[93.70852,26.77059],[93.70766,26.77068],[93.70447,26.76877],[93.70355,26.76808],[93.70315,26.76718],[93.70344,26.76306],[93.70251,26.76052],[93.7008,26.75877],[93.6987,26.75751],[93.69718,26.75686],[93.69177,26.75521],[93.68704,26.75333],[93.68276,26.75193],[93.6733,26.74954],[93.66958,26.74824],[93.66512,26.74778],[93.66162,26.74783],[93.65813,26.7472],[93.65643,26.74649],[93.65474,26.74511],[93.64971,26.74231],[93.64429,26.74036],[93.64113,26.73816],[93.6366,26.73634],[93.63422,26.73584],[93.63207,26.73606],[93.62841,26.73727],[93.62633,26.73752],[93.62261,26.73718],[93.62117,26.73682],[93.61849,26.73578],[93.61768,26.73511],[93.61644,26.73259],[93.61538,26.73142],[93.61459,26.73103],[93.61108,26.73044],[93.60482,26.72989],[93.59998,26.73001],[93.58619,26.73368],[93.58245,26.73357],[93.5773,26.73251],[93.56188,26.72872],[93.5554,26.7258],[93.55153,26.72235],[93.54058,26.71569],[93.53799,26.7144],[93.52693,26.71256],[93.52106,26.71294],[93.51462,26.71905],[93.50796,26.72676],[93.50697,26.72753],[93.50628,26.72794],[93.50365,26.72875],[93.49782,26.73105],[93.49424,26.73374],[93.49132,26.7369],[93.48313,26.74889],[93.47854,26.75715],[93.47662,26.76013],[93.47237,26.76178],[93.46898,26.7637],[93.46752,26.76171],[93.46211,26.76496],[93.46031,26.76542],[93.45374,26.76588],[93.4546,26.76569],[93.45274,26.7655],[93.44816,26.76439],[93.44599,26.76484],[93.43915,26.76377],[93.4328,26.76109],[93.42726,26.76029],[93.42327,26.76021],[93.41889,26.76132],[93.41259,26.76255],[93.40035,26.76462],[93.39473,26.76201],[93.3913,26.76094],[93.39036,26.76042],[93.38872,26.76038],[93.38606,26.75603],[93.37624,26.75029],[93.36362,26.74929],[93.35774,26.75013],[93.3513,26.75239],[93.34727,26.7527],[93.34285,26.75243],[93.3265,26.74983],[93.32336,26.74967],[93.32178,26.74917],[93.31298,26.74538],[93.30706,26.74105],[93.30302,26.73764],[93.30158,26.73526],[93.30094,26.73229],[93.30062,26.72921],[93.29942,26.71311],[93.29487,26.70046],[93.28667,26.68612],[93.28332,26.68086],[93.28109,26.67902],[93.2786,26.67783],[93.2747,26.67741],[93.26135,26.67941],[93.25135,26.68182],[93.24773,26.6821],[93.24559,26.68188],[93.24303,26.68094],[93.23543,26.67611],[93.22346,26.6669],[93.21861,26.66192],[93.2159,26.65808],[93.20482,26.65261],[93.20078,26.64951],[93.19648,26.64524],[93.19434,26.64273],[93.19324,26.64236],[93.18916,26.64219],[93.18682,26.64247],[93.18588,26.64287],[93.18315,26.64507],[93.18129,26.64698],[93.1793,26.64968],[93.17717,26.65148],[93.16768,26.65581],[93.16655,26.6561],[93.16417,26.65628],[93.15511,26.65555],[93.15113,26.65556],[93.13484,26.65735],[93.12681,26.66061],[93.1208,26.66403],[93.11656,26.66886],[93.11548,26.66978],[93.11389,26.66997],[93.10956,26.66974],[93.10694,26.67036],[93.10196,26.67327],[93.1002,26.67316],[93.09862,26.672],[93.09269,26.66361],[93.08561,26.65436],[93.07797,26.64539],[93.07415,26.64251],[93.07025,26.64071],[93.06587,26.64002],[93.04871,26.64078],[93.03755,26.64431],[93.02691,26.64654],[93.01558,26.64685],[93.01146,26.64585],[93.00862,26.64332],[93.00171,26.63123],[92.99935,26.62966],[92.99395,26.62816],[92.99,26.62809],[92.97893,26.62947],[92.97575,26.62889],[92.97009,26.62709],[92.96601,26.62628],[92.95403,26.62552],[92.94597,26.62437],[92.92131,26.61736],[92.91911,26.61698],[92.91495,26.61691],[92.91211,26.61655],[92.9063,26.61675],[92.90132,26.61809],[92.89809,26.6194],[92.89555,26.61996],[92.89419,26.61997],[92.89185,26.61938],[92.88496,26.61874],[92.8781,26.61755],[92.87308,26.61631],[92.87094,26.61518],[92.86902,26.61361],[92.86577,26.61196],[92.85909,26.61001],[92.85463,26.6075],[92.84802,26.60435],[92.84528,26.60329],[92.84356,26.60298],[92.83158,26.60285],[92.81847,26.60565],[92.81268,26.60658],[92.80763,26.60778],[92.80576,26.60805],[92.79973,26.60797],[92.78498,26.61157],[92.78172,26.61205],[92.77785,26.61222],[92.76928,26.61384],[92.76829,26.61356],[92.76631,26.61254],[92.75508,26.60552],[92.75245,26.60338],[92.74616,26.5965],[92.74489,26.59574],[92.74261,26.59557],[92.73753,26.5957],[92.73038,26.59685],[92.72845,26.59678],[92.72618,26.59595],[92.72547,26.59542],[92.72478,26.59313],[92.72386,26.59165],[92.72283,26.5905],[92.71978,26.58787],[92.71418,26.58147],[92.71246,26.58018],[92.71075,26.58016],[92.70753,26.58229],[92.70515,26.58317],[92.6988,26.58404],[92.69629,26.58517],[92.6935,26.58703],[92.69189,26.5876],[92.6832,26.58776],[92.68081,26.58738],[92.6788,26.58678],[92.67345,26.58438],[92.66354,26.58127],[92.6612,26.58077],[92.65577,26.58021],[92.64852,26.58035],[92.64672,26.58074],[92.64498,26.58085],[92.64339,26.58081],[92.64176,26.58045],[92.64058,26.58006],[92.63873,26.57877],[92.6352,26.57481],[92.63427,26.57435],[92.63286,26.57444],[92.62861,26.57686],[92.62689,26.57726],[92.62322,26.57718],[92.62024,26.57659],[92.61818,26.57586],[92.61683,26.57571],[92.61641,26.57584],[92.61274,26.57999],[92.61099,26.58147],[92.60977,26.5822],[92.60625,26.58366],[92.60123,26.58614],[92.59339,26.58938],[92.5846,26.59206],[92.57698,26.59403],[92.56956,26.59747],[92.56696,26.59752],[92.56136,26.59505],[92.55372,26.58822],[92.54591,26.58338],[92.5381,26.58062],[92.53115,26.58108],[92.52158,26.58734],[92.51244,26.58935],[92.50119,26.58949],[92.48932,26.58749],[92.48376,26.58446],[92.47998,26.58175],[92.47364,26.57446],[92.46843,26.5701],[92.46381,26.56702],[92.45946,26.56181],[92.45287,26.55642],[92.44838,26.55345],[92.44304,26.55062],[92.43785,26.54918],[92.43412,26.54738],[92.43122,26.54538],[92.42594,26.54291],[92.41706,26.54053],[92.41285,26.53903],[92.40534,26.53711],[92.39931,26.53509],[92.39461,26.53448],[92.38766,26.5344],[92.38461,26.53458],[92.37974,26.53546],[92.37326,26.53471],[92.36766,26.53256],[92.3653,26.5307],[92.36313,26.52841],[92.36013,26.52467],[92.35579,26.51309],[92.35401,26.51079],[92.35043,26.50827],[92.34828,26.50616],[92.34693,26.50195],[92.34712,26.49805],[92.34627,26.49337],[92.34386,26.49082],[92.3414,26.48989],[92.33759,26.48987],[92.33197,26.48895],[92.32683,26.48665],[92.32392,26.48334],[92.32262,26.47868],[92.32206,26.47278],[92.3181,26.46879],[92.31421,26.46578],[92.3103,26.46404],[92.30518,26.46268],[92.29789,26.46215],[92.28629,26.46262],[92.27578,26.46106],[92.27189,26.45891],[92.26584,26.45678],[92.26065,26.45576],[92.2537,26.45261],[92.2355,26.44915],[92.22913,26.44735],[92.22705,26.44572],[92.2261,26.44337],[92.22585,26.43811],[92.22482,26.43519],[92.22093,26.43132],[92.21531,26.42975],[92.20954,26.43021],[92.20315,26.43134],[92.19791,26.43127],[92.19141,26.4289],[92.1875,26.42521],[92.18559,26.42274],[92.18449,26.41953],[92.1851,26.41464],[92.18457,26.41159],[92.18336,26.40969],[92.17071,26.40424],[92.15946,26.40179],[92.15448,26.40004],[92.14856,26.3966],[92.14439,26.39164],[92.14358,26.38622],[92.14545,26.36684],[92.14457,26.35265],[92.14182,26.34511],[92.13787,26.3405],[92.131,26.33711],[92.12311,26.33511],[92.11281,26.33358],[92.10757,26.33219],[92.10208,26.32973],[92.08466,26.31881],[92.07955,26.3165],[92.0735,26.31481],[92.05976,26.31265],[92.0538,26.31219],[92.04981,26.31257],[92.04706,26.31311],[92.04449,26.31423],[92.03818,26.31769],[92.03635,26.31825],[92.0341,26.31834],[92.0308,26.31754],[92.02788,26.31607],[92.01981,26.31104],[92.01578,26.30961],[92.005,26.30946],[92.00037,26.30892],[91.98586,26.30511],[91.98003,26.3028],[91.97419,26.29965],[91.96483,26.2936],[91.9581,26.29145],[91.95454,26.28995],[91.94986,26.28707],[91.94604,26.28418],[91.94299,26.28137],[91.93844,26.27591],[91.93475,26.27006],[91.93295,26.26794],[91.93059,26.26613],[91.92759,26.26502],[91.92325,26.26388],[91.91154,26.26202],[91.9046,26.26121],[91.89579,26.25832],[91.89244,26.2567],[91.88596,26.25224],[91.88313,26.24951],[91.88111,26.24685],[91.87922,26.24386],[91.87478,26.23927],[91.87356,26.23821],[91.87216,26.23755],[91.86905,26.23696],[91.86643,26.23673],[91.86145,26.23684],[91.84682,26.23827],[91.84261,26.23848],[91.8401,26.2384],[91.83753,26.23804],[91.82214,26.23167],[91.81888,26.23122],[91.81641,26.23161],[91.80995,26.23342],[91.80465,26.23519],[91.80137,26.23584],[91.79965,26.23596],[91.79749,26.23561],[91.78747,26.23122],[91.78348,26.22768],[91.77721,26.22052],[91.77348,26.21702],[91.76953,26.21374],[91.76502,26.21082],[91.7606,26.20839],[91.7455,26.20046],[91.74013,26.19788],[91.73618,26.19507],[91.73125,26.1901],[91.72418,26.18398],[91.72074,26.18179],[91.71636,26.17997],[91.71091,26.17897],[91.66104,26.17563],[91.6467,26.17543],[91.61472,26.17816],[91.61001,26.17836],[91.60705,26.17809],[91.60409,26.17728],[91.5998,26.17535],[91.59499,26.17231],[91.58306,26.16314],[91.57379,26.15667],[91.55491,26.14596],[91.53723,26.13795],[91.52101,26.1297],[91.50916,26.12415],[91.49714,26.12138],[91.48564,26.12061],[91.47185,26.12244],[91.45912,26.12539],[91.43526,26.13448],[91.4041,26.14812],[91.38033,26.15498],[91.37192,26.15821],[91.36273,26.16297],[91.35879,26.16642],[91.35773,26.16682],[91.34419,26.16807],[91.3408,26.16877],[91.33853,26.16977],[91.32909,26.17639],[91.32428,26.17847],[91.31827,26.17978],[91.29879,26.18071],[91.27656,26.18379],[91.26845,26.1856],[91.26637,26.1866],[91.26394,26.18872],[91.25613,26.19803],[91.25115,26.20258],[91.24901,26.20427],[91.24489,26.20643],[91.24188,26.2072],[91.23656,26.20758],[91.22008,26.20635],[91.19631,26.20627],[91.17022,26.20751],[91.15288,26.20905],[91.14644,26.20889],[91.13528,26.20943],[91.1272,26.2107],[91.12453,26.21193],[91.12305,26.21361],[91.12243,26.21536],[91.12009,26.22572],[91.11897,26.22837],[91.11756,26.23014],[91.11528,26.23207],[91.1091,26.23569],[91.09823,26.24048],[91.09376,26.242],[91.08917,26.24316],[91.084,26.24404],[91.07778,26.24477],[91.06821,26.24527],[91.05645,26.24512],[91.04456,26.24423],[91.03632,26.24343],[91.03199,26.24246],[91.02671,26.24062],[91.01988,26.2368],[91.01581,26.23392],[91.00885,26.2283],[91.00473,26.22437],[90.99203,26.20897],[90.98735,26.20481],[90.98169,26.20169],[90.97701,26.19996],[90.96989,26.19857],[90.9613,26.19773],[90.93633,26.1975],[90.93105,26.19786],[90.92744,26.19848],[90.92435,26.19931],[90.91375,26.2035],[90.90491,26.20635],[90.89942,26.20743],[90.89221,26.20855],[90.8841,26.20912],[90.87861,26.20912],[90.87526,26.2087],[90.87247,26.20778],[90.87077,26.20689],[90.86934,26.20558],[90.8611,26.1916],[90.85779,26.18721],[90.85603,26.18577],[90.85374,26.18473],[90.85138,26.18427],[90.84906,26.18419],[90.83185,26.18625],[90.82947,26.18608],[90.82702,26.1854],[90.82561,26.18459],[90.82438,26.18332],[90.82088,26.1787],[90.81711,26.173],[90.81458,26.16988],[90.81123,26.16761],[90.80694,26.16626],[90.80106,26.16599],[90.79496,26.1673],[90.78861,26.17],[90.77866,26.17593],[90.76329,26.1834],[90.74922,26.18848],[90.71982,26.19709],[90.71761,26.19724],[90.71566,26.19684],[90.71398,26.19601],[90.71265,26.19518],[90.70609,26.18952],[90.70098,26.18702],[90.69501,26.18548],[90.68909,26.18483],[90.68635,26.18529],[90.67553,26.18983],[90.66888,26.19095],[90.64751,26.19141],[90.62682,26.19311],[90.61395,26.19634],[90.59155,26.20312],[90.57807,26.20889],[90.57511,26.20974],[90.56109,26.21228],[90.54927,26.21667],[90.53206,26.22229],[90.51567,26.22591],[90.50434,26.22676],[90.5002,26.22643],[90.49576,26.22554],[90.48022,26.2191],[90.477,26.21827],[90.47424,26.21783],[90.47119,26.21763],[90.45454,26.21867],[90.45098,26.21858],[90.44759,26.21796],[90.44501,26.21694],[90.4428,26.21532],[90.44158,26.21349],[90.44035,26.21036],[90.43855,26.20747],[90.43666,26.20574],[90.43486,26.20472],[90.43297,26.20406],[90.43018,26.20343],[90.42733,26.20339],[90.42362,26.2042],[90.42074,26.2057],[90.41692,26.20955],[90.41242,26.21203],[90.40976,26.21274],[90.40812,26.21274],[90.40655,26.21241],[90.39765,26.20666],[90.37997,26.19002],[90.37577,26.18671],[90.37049,26.18409],[90.36572,26.18325],[90.35826,26.18274],[90.35107,26.18465],[90.34367,26.18544],[90.34017,26.18438],[90.33716,26.183],[90.3351,26.18072],[90.33367,26.17847],[90.32956,26.15262],[90.3268,26.14388],[90.32311,26.13672],[90.31504,26.13244],[90.2977,26.12901],[90.29238,26.12701],[90.28766,26.12392],[90.28277,26.1218],[90.27964,26.11999],[90.27839,26.11749],[90.27856,26.11209],[90.27646,26.10866],[90.27127,26.10496],[90.26665,26.10392],[90.26198,26.10396],[90.2582,26.10533],[90.2509,26.10628],[90.24397,26.10651],[90.23655,26.10525],[90.23194,26.10319],[90.22745,26.09839],[90.22483,26.09219],[90.22241,26.08866],[90.2185,26.08643],[90.21531,26.08533],[90.21204,26.08448],[90.20771,26.08369],[90.19539,26.08199],[90.18289,26.081],[90.17192,26.07799],[90.15827,26.07216],[90.14681,26.06584],[90.13661,26.05859],[90.12072,26.0515],[90.10386,26.04664],[90.09338,26.04441],[90.08454,26.04383],[90.07755,26.04383],[90.07411,26.04599],[90.06339,26.0509],[90.05255,26.03976],[90.04706,26.03463],[90.04017,26.03118],[90.03476,26.02756],[90.02853,26.02491],[90.02311,26.02459],[90.01815,26.02328],[90.01596,26.02326],[90.01371,26.02368],[90.01144,26.02455],[90.00908,26.02486],[90.00236,26.02268],[89.99989,26.02119],[89.99697,26.01788],[89.98193,26.00361],[89.97627,25.99975],[89.96936,25.99294],[89.96661,25.98957],[89.96425,25.98486],[89.96279,25.98027],[89.96202,25.97606],[89.96228,25.97271],[89.96305,25.97062],[89.96459,25.96885],[89.96801,25.96613],[89.96878,25.96491],[89.96912,25.96287],[89.96897,25.96021],[89.96824,25.95671],[89.96678,25.95411],[89.96442,25.95183],[89.96103,25.94944],[89.95751,25.94628],[89.95498,25.94199],[89.95425,25.93972],[89.95395,25.93771],[89.95425,25.93547],[89.95563,25.9335],[89.95811,25.93092],[89.95893,25.92929],[89.95906,25.92791],[89.95854,25.92663],[89.95597,25.92327],[89.95206,25.92026],[89.94816,25.9164],[89.94657,25.91424],[89.94284,25.90563],[89.94035,25.89691],[89.93391,25.88517],[89.92855,25.87923],[89.92001,25.87143],[89.91777,25.86787],[89.91163,25.8493],[89.90897,25.84362],[89.90776,25.83748],[89.90802,25.82686],[89.90746,25.82187],[89.90433,25.81689],[89.89605,25.81202],[89.88723,25.80841],[89.87371,25.80683],[89.86272,25.80192],[89.86084,25.79935],[89.86,25.79647],[89.85996,25.79155],[89.86087,25.78768],[89.86201,25.78486],[89.86649,25.77626],[89.86703,25.77361],[89.8643,25.76009],[89.86074,25.73547],[89.85977,25.73282],[89.8587,25.7317],[89.85729,25.73108],[89.85578,25.73075],[89.85323,25.73071],[89.8443,25.73114],[89.8413,25.73175],[89.83437,25.73386],[89.83272,25.73396],[89.8307,25.73359],[89.827182,25.731908]]}},
{"type":"Feature","properties":{"key":"padma","line":"gangaPadma"},"geometry":{"type":"LineString","coordinates":[[87.87264,25.06068],[87.88715,25.05594],[87.91097,25.04307],[87.93157,25.03553],[87.94513,25.02884],[87.95122,25.02433],[87.95689,25.01583],[87.9586,25.00768],[87.9641,25.00084],[87.96985,24.9894],[87.96646,24.9803],[87.95659,24.96528],[87.95208,24.954],[87.94105,24.94042],[87.92764,24.92277],[87.92916,24.90127],[87.92657,24.87914],[87.91839,24.86066],[87.91809,24.85274],[87.91942,24.84509],[87.92342,24.80259],[87.92485,24.79873],[87.92779,24.79587],[87.93191,24.79324],[87.94187,24.78463],[87.94839,24.7724],[87.95277,24.76336],[87.95311,24.75151],[87.95311,24.74215],[87.94787,24.72446],[87.94453,24.71456],[87.94564,24.70309],[87.94976,24.69764],[87.9556,24.69288],[87.96525,24.67833],[87.97517,24.66621],[87.98165,24.6565],[87.98547,24.65322],[87.9898,24.65162],[87.99817,24.64912],[88.00654,24.6478],[88.0163,24.64745],[88.02647,24.64579],[88.0292,24.64557],[88.03117,24.64577],[88.034012,24.646514]]}},
{"type":"Feature","properties":{"key":"padma","line":"gangaPadma"},"geometry":{"type":"LineString","coordinates":[[88.177613,24.488697],[88.17846,24.48336],[88.17876,24.47949],[88.17889,24.47156],[88.17837,24.45906],[88.17906,24.45446],[88.18022,24.45145],[88.18159,24.44969],[88.18354,24.44813],[88.18678,24.44647],[88.19208,24.44576],[88.19713,24.44613],[88.20262,24.44793],[88.20687,24.45028],[88.21429,24.4534],[88.21942,24.45483],[88.222038,24.456378]]}},
{"type":"Feature","properties":{"key":"padma","line":"gangaPadma"},"geometry":{"type":"LineString","coordinates":[[88.40017,24.373833],[88.40295,24.37173],[88.40557,24.36922],[88.40874,24.36575],[88.41235,24.36051],[88.41527,24.35675],[88.41835,24.35351],[88.42295,24.35108],[88.4323,24.34874],[88.44089,24.34792],[88.44917,24.34909],[88.45642,24.35128],[88.45934,24.35249],[88.46415,24.35331],[88.480061,24.358274]]}},
{"type":"Feature","properties":{"key":"padma","line":"gangaPadma"},"geometry":{"type":"LineString","coordinates":[[88.7168,24.302644],[88.72241,24.29352],[88.73301,24.27791],[88.7358,24.27306],[88.73719,24.2694],[88.7382,24.26532],[88.738613,24.262136]]}},
{"type":"Feature","properties":{"key":"padma","line":"gangaPadma"},"geometry":{"type":"LineString","coordinates":[[88.738835,24.260387],[88.739952,24.248859]]}},
{"type":"Feature","properties":{"key":"punarbhaba","line":"punarbhaba"},"geometry":{"type":"LineString","coordinates":[[88.577991,25.509385],[88.578222,25.508592],[88.577665,25.508393],[88.573738,25.508685],[88.572892,25.508042],[88.573082,25.503752],[88.569653,25.501657],[88.566086,25.501477],[88.564938,25.501242],[88.564026,25.500882],[88.562556,25.499671],[88.560625,25.497098],[88.559032,25.49572],[88.558213,25.493854],[88.558275,25.492609],[88.557916,25.490593],[88.556719,25.488612],[88.554805,25.487255],[88.551895,25.486234],[88.545077,25.486077],[88.5417,25.48577],[88.539243,25.483553],[88.539066,25.481563],[88.539391,25.47909],[88.542665,25.474247],[88.544266,25.47033],[88.544776,25.466809],[88.543337,25.460144],[88.545387,25.455076],[88.547016,25.451901],[88.545751,25.449664],[88.540346,25.446643],[88.539851,25.445102],[88.539864,25.438926],[88.539377,25.435787],[88.539078,25.435011],[88.538235,25.434514],[88.535651,25.433729],[88.533216,25.431426],[88.533085,25.429223],[88.533906,25.427435],[88.536837,25.423795],[88.537267,25.422564],[88.536055,25.420552],[88.532773,25.41834],[88.527877,25.416205],[88.523977,25.415157],[88.521635,25.414045],[88.516528,25.412386],[88.515238,25.411727],[88.513714,25.409798],[88.513232,25.408374],[88.513206,25.402537],[88.513818,25.398701],[88.513493,25.397442],[88.511773,25.394994],[88.50782,25.390622],[88.507995,25.389192],[88.511148,25.386756],[88.512398,25.385309],[88.512229,25.384744],[88.508503,25.383143],[88.507409,25.382119],[88.506133,25.378],[88.505937,25.376328],[88.506613,25.374431],[88.507891,25.373857],[88.512438,25.373174],[88.513323,25.372691],[88.513623,25.371453],[88.51353,25.368768],[88.512776,25.367372],[88.510234,25.366065],[88.507074,25.365244],[88.498998,25.365664],[88.496538,25.364866],[88.495888,25.363776],[88.495934,25.361594],[88.495516,25.359161],[88.494727,25.358406],[88.491384,25.356644],[88.488738,25.351903],[88.489005,25.350394],[88.490175,25.349268],[88.494369,25.346854],[88.49515,25.345727],[88.496083,25.342628],[88.496398,25.339776],[88.495238,25.338434],[88.494488,25.338986],[88.493798,25.340112],[88.493555,25.341355],[88.492573,25.342139],[88.491428,25.342099],[88.489919,25.339751],[88.488441,25.338759],[88.4876,25.337762],[88.487663,25.336944],[88.489749,25.335979],[88.49151,25.334397],[88.492041,25.332576],[88.491291,25.331174],[88.490589,25.330683],[88.489789,25.330956],[88.489166,25.332183],[88.487454,25.332588],[88.486089,25.331502],[88.484977,25.328866],[88.484933,25.327815],[88.485441,25.327146],[88.486574,25.326168],[88.488469,25.325643],[88.490187,25.32249],[88.490084,25.321438],[88.488463,25.319381],[88.487949,25.318207],[88.488273,25.312793],[88.487626,25.311282],[88.48572,25.308092],[88.484629,25.306787],[88.484374,25.304398],[88.485377,25.302167],[88.485395,25.300663],[88.48487,25.29981],[88.482462,25.298264],[88.478087,25.296349],[88.477188,25.295732],[88.477131,25.294576],[88.479449,25.294428],[88.479999,25.29398],[88.479217,25.292605],[88.473525,25.288537],[88.472481,25.287399],[88.471467,25.284375],[88.47295,25.282648],[88.473277,25.281731],[88.472655,25.281039],[88.470722,25.279985],[88.470148,25.279212],[88.470082,25.278262],[88.470705,25.277392],[88.471792,25.27733],[88.47296,25.278024],[88.473328,25.278024],[88.473866,25.277588],[88.473498,25.276347],[88.471559,25.273712],[88.469159,25.272181],[88.465733,25.270977],[88.465563,25.270529],[88.466356,25.268506],[88.466455,25.267687],[88.465691,25.266944],[88.465096,25.267098],[88.463567,25.268276],[88.462225,25.268784],[88.460908,25.268477],[88.461234,25.266915],[88.462097,25.26616],[88.462692,25.265187],[88.462711,25.263895],[88.461933,25.263107],[88.461531,25.262166],[88.46162,25.259978],[88.459965,25.257487],[88.459296,25.256052],[88.458966,25.254655],[88.459309,25.253807],[88.460178,25.25329],[88.460664,25.252479],[88.459461,25.245424],[88.459151,25.24463],[88.45845,25.243734],[88.455514,25.237406],[88.454418,25.236343],[88.452193,25.235128],[88.451629,25.234547],[88.451815,25.23416],[88.453077,25.234013],[88.454249,25.232964],[88.453739,25.231734],[88.452862,25.231277],[88.449026,25.230189],[88.448147,25.229605],[88.44785,25.22899],[88.448113,25.228529],[88.450796,25.226773],[88.451419,25.22593],[88.450567,25.224753],[88.448115,25.219746],[88.447503,25.219644],[88.443733,25.221453],[88.44167,25.221411],[88.440295,25.220782],[88.438873,25.217985],[88.438663,25.216979],[88.439271,25.215877],[88.439958,25.215549],[88.440897,25.215628],[88.441409,25.216106],[88.441428,25.218155],[88.441912,25.219127],[88.44269,25.219952],[88.445553,25.216269],[88.445765,25.214086],[88.445328,25.212022],[88.44426,25.210594],[88.441706,25.208452],[88.438856,25.207023]]}},
{"type":"Feature","properties":{"key":"punarbhaba","line":"punarbhaba"},"geometry":{"type":"LineString","coordinates":[[88.43799,25.206244],[88.43776,25.206015],[88.437917,25.205214]]}},
{"type":"Feature","properties":{"key":"punarbhaba","line":"punarbhaba"},"geometry":{"type":"LineString","coordinates":[[88.438265,25.202137],[88.438038,25.20026],[88.437577,25.198713]]}},
{"type":"Feature","properties":{"key":"punarbhaba","line":"punarbhaba"},"geometry":{"type":"LineString","coordinates":[[88.43785,25.198054],[88.438087,25.197483],[88.438898,25.19712],[88.439629,25.197296],[88.440892,25.199516]]}},
{"type":"Feature","properties":{"key":"punarbhaba","line":"punarbhaba"},"geometry":{"type":"LineString","coordinates":[[88.441652,25.200207],[88.442206,25.200068],[88.442507,25.199523],[88.442597,25.19867]]}},
{"type":"Feature","properties":{"key":"punarbhaba","line":"punarbhaba"},"geometry":{"type":"LineString","coordinates":[[88.442829,25.184915],[88.44278,25.182969],[88.443453,25.180702],[88.444516,25.180783],[88.4454,25.180216],[88.445698,25.179573]]}},
{"type":"Feature","properties":{"key":"punarbhaba","line":"punarbhaba"},"geometry":{"type":"LineString","coordinates":[[88.442133,25.174662],[88.44171,25.174124],[88.441712,25.173746],[88.441864,25.173504],[88.442871,25.17312],[88.443693,25.173168],[88.445382,25.173671]]}},
{"type":"Feature","properties":{"key":"punarbhaba","line":"punarbhaba"},"geometry":{"type":"LineString","coordinates":[[88.45169,25.166897],[88.452039,25.16595],[88.451834,25.164306],[88.452153,25.163936],[88.452866,25.163727],[88.45439,25.163796],[88.456809,25.164984],[88.457261,25.165011]]}},
{"type":"Feature","properties":{"key":"punarbhaba","line":"punarbhaba"},"geometry":{"type":"LineString","coordinates":[[88.456686,25.16167],[88.45626,25.161233],[88.456157,25.160775],[88.456317,25.160412],[88.456726,25.160219],[88.458364,25.160287],[88.459309,25.160604]]}},
{"type":"Feature","properties":{"key":"punarbhaba","line":"punarbhaba"},"geometry":{"type":"LineString","coordinates":[[88.457006,25.153436],[88.457135,25.152767],[88.459957,25.152171]]}},
{"type":"Feature","properties":{"key":"punarbhaba","line":"punarbhaba"},"geometry":{"type":"LineString","coordinates":[[88.45818,25.148429],[88.457364,25.148186],[88.457086,25.147567],[88.459914,25.145094]]}},
{"type":"Feature","properties":{"key":"punarbhaba","line":"punarbhaba"},"geometry":{"type":"LineString","coordinates":[[88.457084,25.139542],[88.456791,25.138894],[88.456866,25.138544],[88.457551,25.137683]]}},
{"type":"Feature","properties":{"key":"punarbhaba","line":"punarbhaba"},"geometry":{"type":"LineString","coordinates":[[88.449627,25.040071],[88.449227,25.039498],[88.449334,25.039275],[88.449667,25.039071],[88.450997,25.039382],[88.451416,25.0391],[88.452601,25.037431]]}},
{"type":"Feature","properties":{"key":"punarbhaba","line":"punarbhaba"},"geometry":{"type":"LineString","coordinates":[[88.451167,25.034597],[88.450896,25.03431]]}},
{"type":"Feature","properties":{"key":"punarbhaba","line":"punarbhaba"},"geometry":{"type":"LineString","coordinates":[[88.444417,25.030636],[88.444206,25.030059],[88.444375,25.029521]]}},
{"type":"Feature","properties":{"key":"punarbhaba","line":"punarbhaba"},"geometry":{"type":"LineString","coordinates":[[88.440408,25.014955],[88.440977,25.014164],[88.441665,25.013719]]}},
{"type":"Feature","properties":{"key":"punarbhaba","line":"punarbhaba"},"geometry":{"type":"LineString","coordinates":[[88.401398,24.949969],[88.400558,24.949177],[88.400569,24.948484],[88.399279,24.948093],[88.398828,24.947616],[88.39893,24.946408]]}},
{"type":"Feature","properties":{"key":"punarbhaba","line":"punarbhaba"},"geometry":{"type":"LineString","coordinates":[[88.398092,24.944742],[88.397436,24.944396],[88.396329,24.94284],[88.394963,24.94229],[88.393735,24.941461],[88.39212,24.941958],[88.391294,24.94315],[88.390956,24.94297],[88.390942,24.942318]]}},
{"type":"Feature","properties":{"key":"punarbhaba","line":"punarbhaba"},"geometry":{"type":"LineString","coordinates":[[88.390124,24.941727],[88.389551,24.941661],[88.389116,24.941914],[88.389068,24.942245],[88.389502,24.943194],[88.389417,24.943661],[88.388403,24.943952],[88.388214,24.943391]]}},
{"type":"Feature","properties":{"key":"punarbhaba","line":"punarbhaba"},"geometry":{"type":"LineString","coordinates":[[88.386704,24.939441],[88.381421,24.93923]]}},
{"type":"Feature","properties":{"key":"punarbhaba","line":"punarbhaba"},"geometry":{"type":"LineString","coordinates":[[88.378172,24.942295],[88.377599,24.94314],[88.375807,24.943719],[88.373838,24.943797],[88.371234,24.942564],[88.370746,24.942642],[88.370308,24.943546]]}},
{"type":"Feature","properties":{"key":"punarbhaba","line":"punarbhaba"},"geometry":{"type":"LineString","coordinates":[[88.369789,24.945325],[88.369614,24.945789],[88.368901,24.945969],[88.36837,24.945754],[88.367598,24.945046]]}},
{"type":"Feature","properties":{"key":"punarbhaba","line":"punarbhaba"},"geometry":{"type":"LineString","coordinates":[[88.366175,24.945284],[88.365144,24.946983]]}},
{"type":"Feature","properties":{"key":"punarbhaba","line":"punarbhaba"},"geometry":{"type":"LineString","coordinates":[[88.366257,24.948622],[88.365607,24.948897],[88.364518,24.948522],[88.364003,24.948551],[88.363713,24.948843],[88.363756,24.949098]]}},
{"type":"Feature","properties":{"key":"punarbhaba","line":"punarbhaba"},"geometry":{"type":"LineString","coordinates":[[88.364115,24.949484],[88.365279,24.950535]]}},
{"type":"Feature","properties":{"key":"punarbhaba","line":"punarbhaba"},"geometry":{"type":"LineString","coordinates":[[88.366054,24.953049],[88.364711,24.953425],[88.363585,24.953429],[88.362866,24.953059],[88.362669,24.952196]]}},
{"type":"Feature","properties":{"key":"punarbhaba","line":"punarbhaba"},"geometry":{"type":"LineString","coordinates":[[88.358674,24.951387],[88.3591,24.950598],[88.359996,24.950126]]}},
{"type":"Feature","properties":{"key":"punarbhaba","line":"punarbhaba"},"geometry":{"type":"LineString","coordinates":[[88.35895,24.94827],[88.35799,24.947777]]}},
{"type":"Feature","properties":{"key":"punarbhaba","line":"punarbhaba"},"geometry":{"type":"LineString","coordinates":[[88.355951,24.944816],[88.355034,24.943857],[88.354784,24.942734]]}},
{"type":"Feature","properties":{"key":"punarbhaba","line":"punarbhaba"},"geometry":{"type":"LineString","coordinates":[[88.351609,24.943847],[88.350678,24.944898],[88.349573,24.944937],[88.34851,24.944237]]}},
{"type":"Feature","properties":{"key":"punarbhaba","line":"punarbhaba"},"geometry":{"type":"LineString","coordinates":[[88.344479,24.94267],[88.343591,24.942353]]}},
{"type":"Feature","properties":{"key":"punarbhaba","line":"punarbhaba"},"geometry":{"type":"LineString","coordinates":[[88.339828,24.939309],[88.339702,24.938331],[88.340775,24.936648],[88.341183,24.935492]]}},
{"type":"Feature","properties":{"key":"punarbhaba","line":"punarbhaba"},"geometry":{"type":"LineString","coordinates":[[88.337961,24.926421],[88.337664,24.926199],[88.336717,24.926218]]}},
{"type":"Feature","properties":{"key":"punarbhaba","line":"punarbhaba"},"geometry":{"type":"LineString","coordinates":[[88.335628,24.927358],[88.33554,24.927503],[88.334499,24.927435],[88.334177,24.926783],[88.334241,24.92545],[88.33459,24.924625]]}},
{"type":"Feature","properties":{"key":"punarbhaba","line":"punarbhaba"},"geometry":{"type":"LineString","coordinates":[[88.334921,24.923062],[88.33481,24.921159],[88.335368,24.920089],[88.336465,24.918927]]}},
{"type":"Feature","properties":{"key":"punarbhaba","line":"punarbhaba"},"geometry":{"type":"LineString","coordinates":[[88.336092,24.918257],[88.334197,24.918285]]}},
{"type":"Feature","properties":{"key":"punarbhaba","line":"punarbhaba"},"geometry":{"type":"LineString","coordinates":[[88.333463,24.918422],[88.332975,24.918513],[88.331441,24.919846],[88.330454,24.920293],[88.329671,24.920264],[88.329253,24.920011],[88.329177,24.919456],[88.329767,24.917478]]}},
{"type":"Feature","properties":{"key":"punarbhaba","line":"punarbhaba"},"geometry":{"type":"LineString","coordinates":[[88.327958,24.917816],[88.327194,24.918229]]}},
{"type":"Feature","properties":{"key":"punarbhaba","line":"punarbhaba"},"geometry":{"type":"LineString","coordinates":[[88.326843,24.918418],[88.325658,24.919057],[88.324843,24.918697],[88.324103,24.917364],[88.324356,24.916223]]}},
{"type":"Feature","properties":{"key":"punarbhaba","line":"punarbhaba"},"geometry":{"type":"LineString","coordinates":[[88.326094,24.910793],[88.327793,24.904646],[88.32701,24.903547],[88.326334,24.901708],[88.326066,24.900151],[88.326431,24.898428],[88.325358,24.894526],[88.324757,24.894136],[88.323405,24.894788],[88.321764,24.894652],[88.321249,24.89364],[88.320938,24.892501],[88.321227,24.889718],[88.322322,24.886788],[88.322021,24.885815],[88.320895,24.883908],[88.321159,24.8828]]}},
{"type":"Feature","properties":{"key":"punarbhaba","line":"punarbhaba"},"geometry":{"type":"LineString","coordinates":[[88.321894,24.878775],[88.321646,24.877747],[88.32122,24.877286]]}},
{"type":"Feature","properties":{"key":"punarbhaba","line":"punarbhaba"},"geometry":{"type":"LineString","coordinates":[[88.325567,24.871648],[88.325968,24.871203]]}},
{"type":"Feature","properties":{"key":"pagla","line":"pagla"},"geometry":{"type":"LineString","coordinates":[[87.969847,24.989403],[87.980755,24.988005],[87.986906,24.989214],[87.987824,24.989096],[87.990566,24.989301],[87.993411,24.989917],[87.995676,24.990135],[87.997941,24.989904],[88.000985,24.988519],[88.002245,24.987389],[88.00308,24.98617],[88.004524,24.983245],[88.005374,24.98277],[88.009012,24.98286],[88.013386,24.982141],[88.015935,24.982385],[88.020238,24.981269],[88.022503,24.980961],[88.025193,24.980999],[88.029638,24.981512],[88.036448,24.984246],[88.038968,24.98567],[88.044461,24.986337],[88.045267,24.986183],[88.045961,24.985862],[88.0464,24.985362],[88.047595,24.983348],[88.047492,24.982008],[88.046813,24.979913],[88.046306,24.976945],[88.046435,24.976578],[88.047526,24.976134],[88.052692,24.975581],[88.054153,24.975059],[88.055055,24.974444],[88.055854,24.973182],[88.055811,24.972262],[88.055562,24.9704],[88.054548,24.968102],[88.054557,24.967112],[88.054935,24.966738],[88.058545,24.964954],[88.059507,24.965001],[88.060177,24.965492],[88.060023,24.967774],[88.059361,24.969512],[88.059301,24.97093],[88.059627,24.971382],[88.060719,24.971943],[88.063297,24.972254],[88.068566,24.970244],[88.069133,24.970275],[88.07178,24.971826],[88.075845,24.972971],[88.07661,24.973026],[88.077418,24.972706],[88.079146,24.971125],[88.080014,24.969909],[88.081629,24.966559],[88.084302,24.964899],[88.086503,24.963871],[88.087156,24.963216],[88.088995,24.959663],[88.091956,24.951485],[88.092295,24.949962],[88.096148,24.943124],[88.09647,24.939233],[88.094495,24.932345],[88.094903,24.931232],[88.095398,24.930842],[88.096401,24.928751],[88.097899,24.926377],[88.099997,24.923612],[88.109428,24.916134],[88.114222,24.909908],[88.120058,24.903185],[88.120683,24.902216],[88.120931,24.901259],[88.120709,24.898565],[88.121543,24.895008],[88.120957,24.8906],[88.121673,24.88715],[88.121191,24.880839],[88.119719,24.875474],[88.117231,24.868844],[88.115863,24.863986],[88.115981,24.861445],[88.117414,24.857899],[88.122364,24.852426],[88.123914,24.850121],[88.124149,24.845747],[88.12579,24.844222],[88.127653,24.84103],[88.130232,24.837862],[88.132174,24.83623]]}},
{"type":"Feature","properties":{"key":"pagla","line":"pagla"},"geometry":{"type":"LineString","coordinates":[[88.133775,24.830037],[88.133448,24.822245]]}},
{"type":"Feature","properties":{"key":"pagla","line":"pagla"},"geometry":{"type":"LineString","coordinates":[[88.133399,24.820998],[88.133072,24.817066],[88.132199,24.811839],[88.130444,24.805659]]}},
{"type":"Feature","properties":{"key":"tangon","line":"tangon"},"geometry":{"type":"LineString","coordinates":[[88.426308,25.669317],[88.423184,25.668451],[88.422036,25.667329],[88.421895,25.666362],[88.423189,25.664186],[88.425538,25.66202],[88.429068,25.659491],[88.430339,25.657978],[88.431374,25.656266],[88.431443,25.654418]]}},
{"type":"Feature","properties":{"key":"harinbhanga","line":"harinbhanga"},"geometry":{"type":"LineString","coordinates":[[88.904016,22.335032],[88.908332,22.325313],[88.914711,22.318196],[88.919965,22.311252],[88.930285,22.306912],[88.937791,22.30535],[88.943608,22.299621],[88.944546,22.292329],[88.94146,22.269764],[88.942745,22.253899],[88.950888,22.247949],[88.956888,22.244776],[88.95946,22.233669],[88.960376,22.22527],[88.964775,22.211683],[88.969796,22.201253],[88.966845,22.195912],[88.967564,22.191518],[88.969131,22.178066],[88.974195,22.165866],[88.982821,22.156685],[88.989151,22.146867],[88.991318,22.135578],[88.976174,22.079662],[88.968888,22.071719],[88.957745,22.068145],[88.944888,22.06735],[88.93546,22.064967],[88.92946,22.056229],[88.928258,22.039728],[88.931661,22.019512],[88.939971,21.995637],[88.939993,21.991076],[88.937584,21.985952],[88.928174,21.974381],[88.917804,21.962748],[88.921317,21.937911],[88.92741,21.929342],[88.941874,21.921888],[89.023273,21.886935],[89.030041,21.879286],[89.038353,21.871128],[89.042774,21.865532],[89.043642,21.860806],[89.043792,21.842951]]}},
{"type":"Feature","properties":{"key":"harinbhanga","line":"harinbhanga"},"geometry":{"type":"LineString","coordinates":[[89.043162,21.835727],[89.043021,21.834611],[89.038902,21.82153],[89.033787,21.80864],[89.030408,21.800733],[89.029104,21.795256],[89.029001,21.793801]]}},
{"type":"Feature","properties":{"key":"harinbhanga","line":"harinbhanga"},"geometry":{"type":"LineString","coordinates":[[89.035375,21.772688],[89.061415,21.738922],[89.070786,21.725697],[89.101447,21.673863],[89.110936,21.656002],[89.126544,21.62867]]}},
{"type":"Feature","properties":{"key":"barak","line":"barak"},"geometry":{"type":"LineString","coordinates":[[92.909129,24.751138],[92.90715,24.750826],[92.90421,24.750709],[92.901528,24.75143],[92.899253,24.752989],[92.896957,24.755133],[92.892988,24.759536],[92.890306,24.761748],[92.886776,24.763852],[92.882377,24.765138],[92.880617,24.76545],[92.877774,24.766638],[92.875682,24.768499],[92.874373,24.770808],[92.872957,24.772581],[92.871895,24.772844],[92.870951,24.772698],[92.866895,24.769824],[92.861974,24.767173],[92.858202,24.765445],[92.853743,24.762276],[92.850996,24.759022],[92.846555,24.752806],[92.845696,24.75115],[92.844323,24.750371],[92.84251,24.749703],[92.84082,24.75046],[92.839297,24.751929],[92.838254,24.754284],[92.837685,24.76042],[92.836773,24.763312],[92.835531,24.765452],[92.831127,24.769992],[92.830613,24.773642],[92.83074,24.777103],[92.831722,24.780445],[92.833443,24.783151],[92.833568,24.784985],[92.833176,24.786941],[92.831664,24.78797],[92.82979,24.788394],[92.828271,24.788332],[92.82501,24.786662],[92.819314,24.784672],[92.815228,24.784886],[92.814217,24.785845],[92.813556,24.787905],[92.812871,24.791991],[92.813245,24.795613],[92.814092,24.79885],[92.815377,24.802529],[92.817795,24.805652],[92.819853,24.807022],[92.821997,24.807361],[92.823973,24.806369],[92.826376,24.802473],[92.829262,24.796071],[92.830584,24.79486],[92.832242,24.794385],[92.833626,24.794724],[92.835808,24.796071],[92.841718,24.803202],[92.843912,24.80705],[92.845446,24.812742],[92.848039,24.824953],[92.850869,24.826979],[92.853842,24.827715],[92.856892,24.827443],[92.860757,24.825904],[92.862141,24.826085],[92.862951,24.827556],[92.862425,24.829428],[92.859506,24.831454],[92.853327,24.833479],[92.848984,24.834419],[92.843199,24.835037],[92.835924,24.835137],[92.83223,24.834643],[92.828849,24.833401],[92.825898,24.83168],[92.824428,24.829627],[92.823012,24.82502],[92.820423,24.823112],[92.815773,24.822535],[92.810974,24.823254],[92.806806,24.824443],[92.804955,24.826142],[92.804773,24.827474],[92.805037,24.830108],[92.805928,24.832458],[92.808517,24.835526],[92.815733,24.841112],[92.816558,24.842848],[92.816733,24.844712],[92.81633,24.845623],[92.815455,24.845909],[92.81359,24.845962],[92.809855,24.846662],[92.806448,24.846207],[92.802818,24.845044],[92.801249,24.843753],[92.797222,24.838543],[92.795741,24.836211],[92.794554,24.833502],[92.793896,24.833081],[92.79309,24.832785],[92.790575,24.832619],[92.78743,24.832754],[92.785583,24.833352],[92.784346,24.834026],[92.783077,24.835268],[92.782747,24.836525],[92.783225,24.839608],[92.783214,24.845352],[92.782884,24.84821],[92.78201,24.849602],[92.780886,24.850459],[92.768728,24.852672],[92.767282,24.853582],[92.766909,24.855507],[92.767258,24.85883],[92.769723,24.867127],[92.769145,24.868234],[92.76781,24.868459],[92.766227,24.867546],[92.763638,24.86385],[92.76062,24.860065],[92.758905,24.858928],[92.757553,24.859018],[92.756629,24.859945],[92.755673,24.862624],[92.753364,24.865825],[92.746648,24.869824],[92.743616,24.871961],[92.741727,24.874267],[92.736492,24.885434],[92.735052,24.887993],[92.732806,24.890972],[92.73039,24.896892],[92.729978,24.901395],[92.730291,24.90645],[92.731298,24.91276],[92.730245,24.914774],[92.728122,24.915555],[92.725096,24.916019],[92.721307,24.915315],[92.717843,24.913231],[92.715869,24.911352],[92.710302,24.900867],[92.706309,24.896251],[92.703972,24.892662],[92.702884,24.889915],[92.701578,24.883788],[92.701328,24.881551],[92.701821,24.878261],[92.702701,24.876003],[92.704139,24.874256],[92.705544,24.873462],[92.707533,24.873379],[92.709703,24.874045],[92.711799,24.875166],[92.71549,24.876003],[92.720425,24.875672],[92.724738,24.874698],[92.727656,24.873316],[92.729781,24.871545],[92.730382,24.870007],[92.729759,24.868157],[92.726562,24.865218],[92.723708,24.863621],[92.721648,24.862083],[92.717571,24.860467],[92.714546,24.860331],[92.711864,24.861869],[92.708709,24.864225],[92.706993,24.866561],[92.704632,24.86843],[92.701714,24.869053],[92.697401,24.868235],[92.693338,24.866657],[92.688925,24.8644],[92.686093,24.861674],[92.682896,24.85743],[92.68105,24.850362],[92.681844,24.848026],[92.685041,24.843489],[92.689784,24.841181],[92.69478,24.839693],[92.697197,24.838183],[92.697801,24.836595],[92.697497,24.834686],[92.696712,24.834277],[92.694508,24.833815],[92.691318,24.834785],[92.687755,24.836355],[92.677902,24.843644],[92.672567,24.84563],[92.669649,24.846409],[92.666255,24.84601],[92.663412,24.844336],[92.660204,24.840996],[92.657289,24.836127],[92.652311,24.830831],[92.64493,24.826001],[92.642491,24.825495],[92.63875,24.827092],[92.6379,24.828238],[92.637956,24.832757],[92.63951,24.838888],[92.640644,24.841707],[92.640732,24.844685],[92.639841,24.847884],[92.638655,24.849912],[92.635548,24.853618],[92.63472,24.856204],[92.632232,24.857415],[92.628914,24.858525],[92.619207,24.858592],[92.616814,24.859985],[92.612084,24.86389],[92.61067,24.865385],[92.608071,24.866997],[92.606126,24.867879],[92.601486,24.868863],[92.600026,24.869526],[92.598956,24.870461],[92.598739,24.872693],[92.599538,24.875066],[92.600049,24.879895],[92.598753,24.881141],[92.597551,24.881141],[92.595319,24.880355],[92.593172,24.87847],[92.5901,24.877219],[92.586151,24.87625],[92.576609,24.874756],[92.569055,24.8746],[92.563219,24.87569],[92.556696,24.878494],[92.554319,24.877903],[92.546053,24.872887],[92.54159,24.868371],[92.535054,24.865126],[92.532416,24.86402],[92.527513,24.86292],[92.52437,24.863241],[92.523313,24.863965],[92.522575,24.864906],[92.52202,24.86619],[92.52202,24.87133],[92.52172,24.874415],[92.519612,24.879569],[92.518126,24.881146],[92.517173,24.881478],[92.516152,24.881321],[92.510004,24.879272],[92.492563,24.876465]]}},
{"type":"Feature","properties":{"key":"muhuri","line":"muhuri"},"geometry":{"type":"LineString","coordinates":[[91.714898,23.25285],[91.712042,23.256848],[91.703924,23.257372],[91.703155,23.258896],[91.699213,23.259978],[91.696088,23.25958],[91.693743,23.256705],[91.690495,23.254905],[91.687923,23.259145],[91.67671,23.258951],[91.664981,23.245874],[91.660632,23.247327],[91.650353,23.245995],[91.638756,23.238971],[91.62467,23.239028],[91.616045,23.233511],[91.612602,23.233453],[91.61201,23.234739],[91.610649,23.235633],[91.610061,23.235574],[91.608282,23.233216],[91.604227,23.229405],[91.591839,23.219595],[91.583712,23.214079],[91.582696,23.214766],[91.582289,23.214766],[91.581817,23.214352],[91.582074,23.213464],[91.581881,23.21303],[91.581173,23.212912],[91.580164,23.212912],[91.57877,23.213484],[91.577761,23.213661],[91.572912,23.213504],[91.569414,23.214943],[91.568534,23.215574],[91.567698,23.218335],[91.567762,23.22224],[91.567526,23.222851],[91.566625,23.223324],[91.563814,23.22364],[91.563063,23.224054],[91.562634,23.224586],[91.561668,23.229043],[91.55875,23.232296],[91.558321,23.233085],[91.558063,23.235904],[91.556883,23.237915],[91.556711,23.238665],[91.556947,23.240538],[91.556647,23.241366],[91.55611,23.241898],[91.554372,23.241957],[91.553965,23.242332],[91.553578,23.243298],[91.55287,23.247813],[91.551454,23.254043],[91.550639,23.255127],[91.549351,23.256074],[91.5486,23.257079],[91.547763,23.259149],[91.545618,23.261534],[91.544845,23.263644],[91.544502,23.266029],[91.544888,23.268197],[91.544566,23.268749],[91.542313,23.269695],[91.541863,23.270267],[91.541498,23.2735],[91.541111,23.273815],[91.540403,23.273815],[91.539116,23.272396],[91.538,23.271529],[91.536756,23.271489],[91.535554,23.271844],[91.533773,23.271647],[91.532314,23.270977],[91.531584,23.269971],[91.530919,23.268079],[91.529954,23.266837],[91.525576,23.263604],[91.524117,23.262145],[91.522808,23.259701],[91.521585,23.258321],[91.520512,23.257789],[91.512251,23.256744],[91.509376,23.257335],[91.506865,23.258301],[91.504591,23.260154],[91.503217,23.26254],[91.502531,23.262993],[91.50105,23.262855],[91.496587,23.261179],[91.494591,23.259583],[91.492274,23.25629],[91.490171,23.254595],[91.489377,23.254595],[91.488776,23.254713],[91.488108,23.255442],[91.487467,23.258794],[91.486502,23.262027],[91.48603,23.26254],[91.483798,23.262697],[91.480193,23.262047],[91.477447,23.261889],[91.47043,23.26047],[91.464915,23.258607],[91.459234,23.257659],[91.4553,23.257399],[91.453785,23.256699],[91.449644,23.251464],[91.447917,23.250303]]}},
{"type":"Feature","properties":{"key":"muhuri","line":"muhuri"},"geometry":{"type":"LineString","coordinates":[[91.447011,23.24999],[91.446015,23.249786]]}}
]}
