{"type":"FeatureCollection","features":[{"type":"Feature","properties":{"id":"sundarbans"},"geometry":{"type":"MultiPolygon","coordinates":[[[[88.877,21.523],[88.904,21.525],[88.91,21.533],[88.913,21.549],[88.909,21.567],[88.856,21.606],[88.836,21.604],[88.828,21.598],[88.825,21.57],[88.829,21.546],[88.849,21.522],[88.859,21.519],[88.877,21.523]]],[[[88.152,21.683],[88.165,21.722],[88.165,21.81],[88.146,21.864],[88.132,21.875],[88.12,21.865],[88.11,21.842],[88.092,21.818],[88.085,21.782],[88.053,21.719],[88.052,21.683],[88.046,21.67],[88.049,21.637],[88.062,21.629],[88.101,21.633],[88.128,21.618],[88.135,21.619],[88.141,21.632],[88.143,21.654],[88.132,21.672],[88.133,21.678],[88.152,21.683]]],[[[89.127,21.713],[89.148,21.722],[89.146,21.747],[89.135,21.766],[89.096,21.781],[89.085,21.792],[89.079,21.855],[89.063,21.905],[89.051,21.913],[89.041,21.902],[89.043,21.89],[89.054,21.87],[89.064,21.834],[89.062,21.818],[89.045,21.788],[89.046,21.782],[89.081,21.761],[89.115,21.714],[89.127,21.713]]],[[[88.648,21.799],[88.647,21.835],[88.659,21.875],[88.676,21.906],[88.673,21.911],[88.642,21.92],[88.628,21.912],[88.602,21.876],[88.596,21.855],[88.579,21.825],[88.583,21.807],[88.594,21.796],[88.626,21.797],[88.645,21.783],[88.648,21.799]]],[[[88.089,21.848],[88.122,21.885],[88.135,21.906],[88.126,21.934],[88.108,21.948],[88.097,21.943],[88.091,21.918],[88.074,21.9],[88.068,21.885],[88.071,21.856],[88.077,21.847],[88.089,21.848]]],[[[90.602,21.935],[90.588,21.98],[90.563,21.957],[90.529,21.944],[90.515,21.924],[90.517,21.904],[90.512,21.89],[90.532,21.877],[90.507,21.868],[90.501,21.86],[90.514,21.853],[90.528,21.858],[90.539,21.88],[90.552,21.895],[90.562,21.9],[90.564,21.911],[90.576,21.908],[90.587,21.912],[90.586,21.931],[90.597,21.931],[90.602,21.935]]],[[[90.331,21.839],[90.345,21.862],[90.355,21.909],[90.375,21.96],[90.394,21.984],[90.393,21.992],[90.383,21.996],[90.371,21.994],[90.355,21.977],[90.349,21.955],[90.323,21.919],[90.312,21.878],[90.312,21.857],[90.321,21.837],[90.331,21.839]]],[[[90.485,21.964],[90.481,21.982],[90.465,22.013],[90.441,22.027],[90.434,22.039],[90.416,22.035],[90.404,22.019],[90.414,21.987],[90.414,21.966],[90.411,21.955],[90.396,21.937],[90.393,21.925],[90.398,21.903],[90.407,21.897],[90.433,21.904],[90.456,21.929],[90.475,21.962],[90.475,21.94],[90.485,21.964]]],[[[88.153,21.884],[88.161,21.864],[88.186,21.832],[88.208,21.794],[88.203,21.767],[88.205,21.712],[88.18,21.681],[88.181,21.662],[88.199,21.61],[88.208,21.601],[88.22,21.61],[88.225,21.609],[88.244,21.583],[88.251,21.551],[88.261,21.547],[88.299,21.557],[88.308,21.569],[88.306,21.58],[88.289,21.592],[88.285,21.603],[88.283,21.614],[88.293,21.644],[88.293,21.673],[88.275,21.724],[88.271,21.754],[88.261,21.766],[88.258,21.795],[88.268,21.799],[88.292,21.781],[88.297,21.771],[88.308,21.693],[88.309,21.656],[88.303,21.619],[88.309,21.602],[88.327,21.602],[88.341,21.611],[88.344,21.621],[88.341,21.632],[88.347,21.652],[88.346,21.663],[88.329,21.682],[88.321,21.697],[88.327,21.711],[88.333,21.712],[88.338,21.71],[88.34,21.691],[88.346,21.682],[88.364,21.682],[88.375,21.693],[88.387,21.695],[88.389,21.691],[88.379,21.68],[88.384,21.65],[88.378,21.63],[88.382,21.601],[88.391,21.587],[88.406,21.583],[88.415,21.6],[88.447,21.606],[88.464,21.636],[88.474,21.671],[88.472,21.682],[88.456,21.703],[88.452,21.739],[88.468,21.776],[88.466,21.793],[88.494,21.796],[88.497,21.806],[88.489,21.829],[88.491,21.852],[88.473,21.878],[88.472,21.89],[88.489,21.914],[88.498,21.92],[88.496,21.949],[88.504,21.944],[88.511,21.935],[88.515,21.911],[88.498,21.88],[88.498,21.869],[88.509,21.85],[88.532,21.83],[88.537,21.812],[88.526,21.775],[88.501,21.751],[88.509,21.722],[88.508,21.704],[88.525,21.66],[88.519,21.641],[88.518,21.594],[88.494,21.584],[88.483,21.549],[88.498,21.519],[88.538,21.524],[88.542,21.532],[88.531,21.543],[88.527,21.554],[88.53,21.565],[88.539,21.567],[88.546,21.551],[88.565,21.552],[88.575,21.563],[88.579,21.578],[88.575,21.614],[88.584,21.615],[88.596,21.605],[88.603,21.61],[88.595,21.655],[88.599,21.676],[88.59,21.697],[88.594,21.699],[88.615,21.691],[88.627,21.713],[88.629,21.748],[88.624,21.765],[88.613,21.776],[88.602,21.78],[88.574,21.763],[88.562,21.765],[88.561,21.771],[88.567,21.784],[88.557,21.812],[88.559,21.822],[88.572,21.844],[88.572,21.873],[88.592,21.896],[88.593,21.919],[88.604,21.935],[88.596,21.978],[88.604,22.002],[88.626,22.035],[88.624,22.06],[88.612,22.094],[88.628,22.12],[88.632,22.133],[88.628,22.135],[88.604,22.114],[88.615,22.049],[88.599,22.03],[88.556,22.035],[88.539,22.011],[88.504,21.995],[88.464,21.987],[88.399,22.003],[88.383,21.998],[88.345,21.957],[88.286,21.922],[88.238,21.917],[88.153,21.884]]],[[[90.603,22.14],[90.612,22.162],[90.61,22.165],[90.582,22.149],[90.576,22.137],[90.562,22.136],[90.546,22.119],[90.533,22.112],[90.529,22.097],[90.506,22.092],[90.487,22.077],[90.488,22.059],[90.479,22.039],[90.485,22.026],[90.492,22.045],[90.507,22.041],[90.524,22.057],[90.54,22.06],[90.495,22.01],[90.5,21.998],[90.514,21.988],[90.542,22],[90.562,22.028],[90.57,22.054],[90.577,22.115],[90.583,22.123],[90.594,22.115],[90.589,22.102],[90.595,22.1],[90.601,22.108],[90.603,22.14]]],[[[90.941,22.113],[90.956,22.135],[90.956,22.198],[90.952,22.208],[90.932,22.203],[90.926,22.163],[90.915,22.13],[90.922,22.115],[90.941,22.113]]],[[[90.952,22.222],[90.989,22.285],[90.992,22.328],[90.988,22.341],[90.976,22.356],[90.968,22.355],[90.965,22.348],[90.964,22.298],[90.937,22.236],[90.937,22.224],[90.942,22.219],[90.952,22.222]]],[[[90.651,22.394],[90.635,22.412],[90.621,22.444],[90.61,22.45],[90.598,22.434],[90.599,22.426],[90.616,22.418],[90.632,22.374],[90.635,22.316],[90.64,22.307],[90.644,22.343],[90.641,22.374],[90.647,22.374],[90.658,22.353],[90.661,22.359],[90.651,22.394]]],[[[91.192,22.391],[91.197,22.401],[91.211,22.411],[91.213,22.422],[91.194,22.452],[91.177,22.454],[91.169,22.46],[91.165,22.449],[91.169,22.43],[91.184,22.394],[91.192,22.391]]],[[[91.142,22.16],[91.164,22.185],[91.171,22.202],[91.18,22.259],[91.18,22.289],[91.169,22.333],[91.146,22.38],[91.144,22.408],[91.132,22.419],[91.114,22.457],[91.092,22.478],[91.101,22.51],[91.096,22.519],[91.083,22.524],[91.076,22.517],[91.073,22.506],[91.075,22.438],[91.064,22.388],[91.062,22.283],[91.052,22.203],[91.054,22.183],[91.022,22.087],[91.027,22.082],[91.048,22.091],[91.082,22.114],[91.092,22.135],[91.107,22.151],[91.116,22.155],[91.134,22.153],[91.142,22.16]]],[[[91.53,22.346],[91.554,22.36],[91.565,22.373],[91.568,22.401],[91.56,22.434],[91.523,22.512],[91.46,22.604],[91.447,22.619],[91.432,22.622],[91.428,22.616],[91.43,22.592],[91.403,22.51],[91.408,22.471],[91.475,22.361],[91.496,22.347],[91.53,22.346]]],[[[88.647,22.126],[88.638,22.095],[88.638,22.083],[88.657,22.032],[88.658,22.015],[88.629,21.98],[88.623,21.967],[88.634,21.94],[88.664,21.937],[88.678,21.93],[88.688,21.933],[88.692,21.96],[88.719,21.996],[88.728,22.02],[88.72,22.041],[88.694,22.056],[88.685,22.07],[88.685,22.081],[88.709,22.095],[88.732,22.121],[88.764,22.127],[88.713,22.08],[88.709,22.07],[88.713,22.06],[88.725,22.051],[88.754,22.039],[88.765,22.004],[88.744,21.976],[88.719,21.956],[88.716,21.947],[88.716,21.887],[88.697,21.852],[88.7,21.796],[88.694,21.77],[88.693,21.735],[88.682,21.695],[88.687,21.669],[88.709,21.64],[88.715,21.624],[88.717,21.605],[88.706,21.57],[88.715,21.559],[88.739,21.548],[88.756,21.554],[88.772,21.552],[88.787,21.559],[88.795,21.59],[88.775,21.614],[88.779,21.635],[88.776,21.647],[88.802,21.659],[88.801,21.677],[88.808,21.684],[88.814,21.655],[88.807,21.642],[88.794,21.633],[88.793,21.627],[88.81,21.616],[88.828,21.614],[88.846,21.62],[88.856,21.631],[88.856,21.649],[88.836,21.69],[88.844,21.726],[88.857,21.759],[88.862,21.762],[88.869,21.746],[88.87,21.697],[88.876,21.674],[88.893,21.645],[88.921,21.632],[88.936,21.638],[88.987,21.606],[89.007,21.599],[89.02,21.602],[89.023,21.624],[89.027,21.625],[89.037,21.621],[89.045,21.607],[89.051,21.606],[89.074,21.613],[89.089,21.627],[89.09,21.649],[89.072,21.684],[89.07,21.703],[89.043,21.735],[89.021,21.781],[89.02,21.805],[89.024,21.82],[89.016,21.864],[88.931,21.919],[88.915,21.932],[88.905,21.952],[88.914,21.981],[88.931,21.985],[88.935,21.983],[88.932,21.955],[88.943,21.935],[88.979,21.916],[88.995,21.903],[89.006,21.902],[89.009,21.905],[89.009,21.929],[89.014,21.93],[89.037,21.917],[89.057,21.927],[89.064,21.94],[89.064,22.006],[89.04,22.065],[89.037,22.097],[89.047,22.113],[89.044,22.135],[89.061,22.126],[89.063,22.114],[89.057,22.076],[89.059,22.056],[89.09,22.014],[89.09,21.972],[89.077,21.908],[89.079,21.895],[89.1,21.849],[89.097,21.814],[89.107,21.803],[89.149,21.782],[89.16,21.785],[89.176,21.81],[89.18,21.813],[89.184,21.81],[89.197,21.763],[89.217,21.722],[89.219,21.697],[89.202,21.654],[89.216,21.64],[89.249,21.641],[89.26,21.645],[89.27,21.656],[89.293,21.665],[89.29,21.675],[89.271,21.684],[89.269,21.689],[89.296,21.748],[89.294,21.766],[89.281,21.798],[89.281,21.81],[89.287,21.815],[89.296,21.803],[89.307,21.807],[89.31,21.835],[89.322,21.862],[89.356,21.887],[89.353,21.925],[89.345,21.947],[89.35,21.966],[89.355,21.967],[89.358,21.963],[89.375,21.927],[89.386,21.884],[89.383,21.863],[89.368,21.843],[89.363,21.828],[89.363,21.768],[89.369,21.735],[89.388,21.71],[89.413,21.709],[89.427,21.722],[89.443,21.748],[89.459,21.761],[89.469,21.79],[89.456,21.848],[89.48,21.874],[89.484,21.889],[89.512,21.897],[89.516,21.906],[89.515,21.931],[89.519,21.952],[89.518,21.965],[89.496,22.002],[89.486,22.03],[89.503,22.032],[89.514,22.042],[89.518,22.082],[89.492,22.13],[89.483,22.132],[89.481,22.098],[89.466,22.128],[89.474,22.183],[89.461,22.222],[89.472,22.251],[89.474,22.285],[89.476,22.29],[89.493,22.272],[89.497,22.261],[89.487,22.22],[89.487,22.195],[89.499,22.161],[89.51,22.143],[89.517,22.112],[89.532,22.09],[89.536,22.072],[89.519,22.017],[89.519,21.999],[89.523,21.989],[89.539,21.984],[89.548,21.99],[89.559,22.049],[89.575,22.092],[89.581,22.124],[89.576,22.143],[89.548,22.181],[89.546,22.199],[89.556,22.217],[89.582,22.235],[89.584,22.246],[89.577,22.268],[89.619,22.33],[89.622,22.328],[89.614,22.298],[89.602,22.275],[89.604,22.256],[89.598,22.233],[89.561,22.198],[89.599,22.132],[89.604,22.1],[89.601,22.085],[89.581,22.056],[89.566,22.011],[89.565,21.994],[89.556,21.976],[89.571,21.94],[89.571,21.892],[89.561,21.869],[89.527,21.831],[89.52,21.812],[89.526,21.789],[89.538,21.771],[89.541,21.739],[89.553,21.714],[89.575,21.701],[89.595,21.701],[89.605,21.707],[89.607,21.717],[89.592,21.746],[89.591,21.757],[89.617,21.762],[89.658,21.749],[89.689,21.757],[89.698,21.762],[89.702,21.772],[89.699,21.782],[89.644,21.827],[89.624,21.851],[89.621,21.864],[89.625,21.879],[89.644,21.921],[89.663,21.898],[89.664,21.892],[89.653,21.869],[89.661,21.848],[89.687,21.831],[89.731,21.821],[89.742,21.822],[89.744,21.838],[89.754,21.844],[89.759,21.842],[89.772,21.825],[89.798,21.826],[89.816,21.832],[89.837,21.865],[89.877,21.88],[89.885,21.887],[89.884,21.904],[89.857,21.942],[89.846,21.97],[89.853,22.008],[89.852,22.025],[89.84,22.042],[89.799,22.064],[89.795,22.073],[89.845,22.064],[89.861,22.071],[89.869,22.084],[89.867,22.163],[89.841,22.266],[89.86,22.313],[89.886,22.355],[89.887,22.367],[89.871,22.404],[89.874,22.415],[89.878,22.415],[89.889,22.396],[89.897,22.39],[89.909,22.389],[89.92,22.393],[89.943,22.432],[90,22.482],[89.974,22.431],[89.931,22.388],[89.916,22.365],[89.872,22.268],[89.874,22.243],[89.896,22.198],[89.902,22.169],[89.914,22.143],[89.911,22.05],[89.936,21.99],[89.954,21.972],[89.978,21.97],[89.985,21.982],[89.978,22.013],[89.979,22.037],[90.014,22.069],[90.022,22.09],[90.025,22.115],[90.034,22.134],[90.067,22.158],[90.073,22.161],[90.08,22.158],[90.073,22.146],[90.047,22.134],[90.039,22.123],[90.033,22.101],[90.032,22.051],[90.016,22.038],[89.995,22.03],[89.992,22.024],[90,22.014],[89.997,21.999],[90,21.993],[90.024,21.987],[90.036,21.98],[90.045,21.979],[90.059,21.984],[90.073,22.025],[90.095,22.06],[90.129,22.084],[90.152,22.119],[90.203,22.121],[90.211,22.133],[90.215,22.166],[90.238,22.191],[90.238,22.175],[90.225,22.123],[90.209,22.11],[90.193,22.107],[90.167,22.11],[90.141,22.08],[90.108,22.056],[90.09,22.027],[90.069,21.972],[90.034,21.951],[90.028,21.937],[90.031,21.886],[90.022,21.865],[90.025,21.859],[90.04,21.855],[90.057,21.844],[90.064,21.846],[90.067,21.853],[90.094,21.873],[90.106,21.891],[90.113,21.92],[90.126,21.927],[90.118,21.915],[90.127,21.897],[90.11,21.877],[90.111,21.855],[90.095,21.858],[90.086,21.847],[90.087,21.839],[90.094,21.827],[90.116,21.811],[90.171,21.797],[90.19,21.797],[90.211,21.805],[90.235,21.828],[90.272,21.848],[90.291,21.896],[90.31,21.981],[90.331,22.034],[90.368,22.074],[90.376,22.13],[90.38,22.136],[90.389,22.137],[90.393,22.142],[90.393,22.159],[90.417,22.18],[90.412,22.194],[90.391,22.202],[90.387,22.208],[90.401,22.259],[90.394,22.28],[90.411,22.277],[90.414,22.27],[90.406,22.231],[90.406,22.206],[90.426,22.187],[90.426,22.178],[90.408,22.157],[90.401,22.127],[90.39,22.11],[90.389,22.094],[90.394,22.089],[90.411,22.087],[90.432,22.069],[90.446,22.075],[90.471,22.107],[90.491,22.143],[90.497,22.173],[90.537,22.192],[90.539,22.185],[90.546,22.188],[90.564,22.208],[90.603,22.273],[90.611,22.293],[90.617,22.37],[90.586,22.449],[90.587,22.465],[90.596,22.463],[90.599,22.458],[90.604,22.463],[90.581,22.533],[90.558,22.557],[90.531,22.569],[90.524,22.58],[90.507,22.583],[90.493,22.577],[90.474,22.577],[90.462,22.57],[90.459,22.554],[90.464,22.524],[90.444,22.506],[90.44,22.491],[90.437,22.498],[90.439,22.513],[90.446,22.52],[90.392,22.578],[90.38,22.602],[90.31,22.663],[90.206,22.667],[90.149,22.699],[90.082,22.721],[89.959,22.754],[89.854,22.773],[89.745,22.757],[89.699,22.72],[89.639,22.707],[89.57,22.683],[89.527,22.661],[89.498,22.605],[89.447,22.547],[89.411,22.52],[89.352,22.497],[89.308,22.495],[89.244,22.471],[89.144,22.411],[89.112,22.404],[89.035,22.415],[88.986,22.402],[88.927,22.364],[88.795,22.189],[88.69,22.124],[88.661,22.119],[88.647,22.126]]],[[[90.779,22.611],[90.77,22.621],[90.728,22.633],[90.715,22.647],[90.705,22.67],[90.697,22.726],[90.682,22.77],[90.674,22.779],[90.667,22.782],[90.601,22.776],[90.588,22.77],[90.575,22.75],[90.571,22.718],[90.556,22.676],[90.551,22.638],[90.557,22.604],[90.569,22.603],[90.578,22.597],[90.6,22.568],[90.643,22.552],[90.666,22.498],[90.677,22.444],[90.676,22.423],[90.685,22.391],[90.676,22.268],[90.671,22.25],[90.65,22.219],[90.624,22.155],[90.619,22.127],[90.631,22.119],[90.63,22.116],[90.601,22.037],[90.603,22.026],[90.613,22.016],[90.621,22.016],[90.635,22.03],[90.636,22.042],[90.663,22.072],[90.671,22.089],[90.683,22.1],[90.67,22.066],[90.636,22.014],[90.631,22],[90.636,21.991],[90.649,21.99],[90.66,21.994],[90.664,21.988],[90.679,21.988],[90.696,22.005],[90.709,22.05],[90.712,22.052],[90.713,22.046],[90.726,22.047],[90.747,22.069],[90.754,22.067],[90.756,22.06],[90.773,22.072],[90.791,22.106],[90.82,22.134],[90.851,22.245],[90.854,22.274],[90.866,22.315],[90.856,22.354],[90.875,22.41],[90.877,22.456],[90.871,22.482],[90.86,22.498],[90.829,22.52],[90.794,22.552],[90.779,22.611]]],[[[90.603,22.876],[90.588,22.881],[90.565,22.87],[90.565,22.877],[90.547,22.88],[90.532,22.862],[90.518,22.856],[90.496,22.859],[90.477,22.869],[90.466,22.862],[90.462,22.805],[90.469,22.78],[90.455,22.766],[90.462,22.76],[90.486,22.753],[90.51,22.695],[90.519,22.684],[90.534,22.692],[90.547,22.718],[90.544,22.749],[90.548,22.765],[90.544,22.784],[90.556,22.787],[90.566,22.782],[90.577,22.786],[90.587,22.782],[90.646,22.791],[90.676,22.804],[90.691,22.827],[90.694,22.838],[90.684,22.852],[90.661,22.863],[90.603,22.876]]],[[[90.649,22.97],[90.622,22.99],[90.593,23.028],[90.575,23.038],[90.566,23.038],[90.543,23.018],[90.523,22.99],[90.512,22.982],[90.504,22.962],[90.509,22.95],[90.558,22.946],[90.572,22.947],[90.581,22.962],[90.593,22.962],[90.626,22.925],[90.661,22.911],[90.664,22.917],[90.655,22.932],[90.633,22.948],[90.666,22.945],[90.649,22.97]]],[[[90.511,23.06],[90.453,23.057],[90.454,23.05],[90.462,23.043],[90.469,23.006],[90.477,23.006],[90.491,23.027],[90.51,23.042],[90.514,23.055],[90.511,23.06]]],[[[90.529,23.35],[90.456,23.38],[90.422,23.381],[90.437,23.352],[90.474,23.33],[90.501,23.305],[90.506,23.305],[90.52,23.319],[90.521,23.331],[90.526,23.332],[90.547,23.325],[90.563,23.307],[90.59,23.301],[90.585,23.314],[90.529,23.35]]]]}},{"type":"Feature","properties":{"id":"taiga"},"geometry":{"type":"MultiPolygon","coordinates":[[[[-164.721,54.655],[-164.945,54.533],[-164.648,54.391],[-164.101,54.617],[-163.587,54.609],[-163.365,54.749],[-163.06,54.658],[-163.352,54.771],[-163.425,54.948],[-164.721,54.655]]],[[[-162.3,54.836],[-162.298,54.989],[-162.432,54.933],[-162.3,54.836]]],[[[-163.285,54.99],[-163.353,54.81],[-163.027,54.947],[-163.182,55.015],[-163.285,54.99]]],[[[-163.004,55.082],[-162.882,54.935],[-162.564,54.953],[-162.606,55.158],[-163.004,55.082]]],[[[-159.516,55.069],[-159.518,55.258],[-159.647,55.053],[-159.516,55.069]]],[[[-159.854,55.232],[-160.183,55.124],[-160.216,54.869],[-159.854,55.232]]],[[[-160.357,55.362],[-160.527,55.319],[-160.337,55.244],[-160.357,55.362]]],[[[-160.71,55.403],[-160.824,55.12],[-160.683,55.214],[-160.525,55.13],[-160.554,55.189],[-160.456,55.19],[-160.572,55.234],[-160.517,55.379],[-160.677,55.303],[-160.71,55.403]]],[[[-155.555,55.795],[-155.601,55.923],[-155.743,55.828],[-155.555,55.795]]],[[[-153.954,56.504],[-153.877,56.563],[-154.13,56.508],[-153.954,56.504]]],[[[-154.119,56.53],[-154.087,56.614],[-154.363,56.534],[-154.119,56.53]]],[[[-153.261,57.995],[-153.043,57.825],[-153.237,57.903],[-153.181,57.707],[-153.481,57.849],[-153.313,57.727],[-153.493,57.781],[-153.487,57.622],[-153.622,57.891],[-153.937,57.818],[-153.565,57.603],[-153.877,57.654],[-153.629,57.278],[-154.201,57.675],[-154.796,57.354],[-154.308,56.844],[-153.741,57.14],[-154.144,56.744],[-153.692,56.862],[-153.541,56.995],[-153.677,57.07],[-153.35,57.192],[-153.311,56.995],[-152.882,57.152],[-153.216,57.21],[-152.951,57.248],[-153.008,57.34],[-152.631,57.325],[-152.882,57.513],[-152.342,57.422],[-152.151,57.587],[-152.579,57.705],[-152.327,57.822],[-152.468,57.895],[-152.788,57.864],[-152.85,57.727],[-152.803,57.918],[-153.261,57.995]]],[[[-153.199,58.102],[-153.42,58.06],[-152.894,57.994],[-153.199,58.102]]],[[[-152.944,58.281],[-153.102,58.258],[-152.85,58.155],[-153.224,58.162],[-152.837,57.996],[-152.787,58.196],[-152.944,58.281]]],[[[-154.802,59.422],[-154.867,59.208],[-155.592,59.037],[-155.34,58.971],[-155.477,58.762],[-154.762,58.663],[-154.773,58.52],[-155.199,58.43],[-155.496,58.554],[-156.05,58.331],[-155.651,58.199],[-156.031,57.982],[-155.45,58.02],[-155.585,57.843],[-156.648,57.583],[-157.34,57.181],[-158.349,56.913],[-158.345,56.625],[-158.9,56.558],[-158.771,56.387],[-159.553,56.321],[-159.672,56.141],[-160.48,55.921],[-160.247,55.77],[-160.726,55.869],[-160.767,55.856],[-160.674,55.696],[-160.948,55.844],[-161.503,55.694],[-161.862,55.724],[-161.907,55.552],[-162.498,55.199],[-162.347,55.107],[-162.49,55.065],[-162.248,55.02],[-162.177,55.154],[-161.961,55.107],[-162.046,55.233],[-161.878,55.224],[-161.587,55.62],[-161.356,55.606],[-161.508,55.363],[-161.232,55.356],[-160.91,55.524],[-160.667,55.46],[-160.773,55.539],[-160.596,55.608],[-160.501,55.479],[-160.422,55.663],[-160.131,55.664],[-159.818,55.856],[-159.583,55.803],[-159.747,55.6],[-159.598,55.565],[-159.528,55.888],[-159.412,55.789],[-158.824,56.021],[-158.664,55.954],[-158.622,56.202],[-158.455,56.195],[-158.598,56.049],[-158.428,55.996],[-158.487,56.115],[-158.113,56.24],[-158.4,56.202],[-158.192,56.286],[-158.482,56.336],[-158.403,56.455],[-157.858,56.505],[-157.9,56.605],[-158.134,56.54],[-157.786,56.699],[-157.462,56.638],[-157.595,56.741],[-157.435,56.867],[-157.199,56.772],[-156.918,56.965],[-156.804,56.912],[-156.771,57.042],[-156.55,56.988],[-156.321,57.293],[-156.535,57.327],[-156.196,57.479],[-156.024,57.438],[-156.034,57.569],[-155.734,57.547],[-155.597,57.783],[-155.307,57.731],[-155.028,58.025],[-154.582,58.019],[-154.484,58.205],[-154.341,58.082],[-154.21,58.136],[-154.103,58.28],[-154.286,58.311],[-153.999,58.376],[-153.907,58.61],[-153.592,58.634],[-153.251,58.853],[-153.704,59.076],[-154.181,59.022],[-154.112,59.3],[-154.802,59.422]]],[[[-85.776,47.794],[-85.938,47.716],[-85.587,47.741],[-85.776,47.794]]],[[[-74.362,49.52],[-73.744,49.189],[-73.517,49.31],[-73.277,49.255],[-72.866,48.723],[-71.877,48.328],[-70.842,48.145],[-70.12,48.228],[-69.983,47.813],[-70.141,47.683],[-69.953,47.741],[-69.735,48.131],[-69.988,48.257],[-69.699,48.141],[-69.071,48.769],[-68.571,49.057],[-68.192,49.099],[-68.128,49.265],[-67.373,49.316],[-67.136,49.799],[-66.913,49.997],[-66.451,50.129],[-66.449,50.261],[-66.125,50.181],[-65.948,50.28],[-62.417,50.275],[-61.803,50.123],[-61.585,50.182],[-61.745,50.081],[-60.203,50.268],[-60.164,50.188],[-59.121,50.782],[-59.008,50.733],[-58.966,51.004],[-58.481,51.292],[-58.123,51.276],[-57.736,51.465],[-56.962,51.418],[-55.927,51.93],[-55.946,52.022],[-55.615,52.21],[-55.953,52.354],[-56.183,52.435],[-55.969,52.379],[-55.645,52.347],[-55.621,52.439],[-56.085,52.537],[-56.066,52.568],[-55.756,52.61],[-55.954,52.687],[-56.167,52.82],[-55.93,52.783],[-55.826,52.908],[-55.73,53.246],[-56.254,53.551],[-55.974,53.547],[-56.634,53.663],[-56.442,53.774],[-56.856,53.71],[-57.289,53.462],[-57.421,53.624],[-57.114,53.793],[-57.41,54.183],[-57.932,54.212],[-58.402,54.129],[-57.782,54.064],[-58.823,53.954],[-59.058,53.788],[-59.009,53.712],[-59.308,53.695],[-59.576,53.528],[-59.902,53.526],[-60.235,53.277],[-60.428,53.271],[-60.039,53.504],[-60.972,53.734],[-60.525,53.714],[-60.115,53.537],[-60.08,53.756],[-58.613,54.039],[-58.381,54.225],[-59.582,54.029],[-57.858,54.395],[-57.417,54.462],[-57.635,54.459],[-57.646,54.482],[-57.335,54.578],[-58.154,54.738],[-57.827,54.805],[-57.961,54.793],[-57.939,54.921],[-58.402,54.727],[-58.919,54.828],[-58.991,55.148],[-59.3,55.015],[-59.131,55.233],[-59.914,54.739],[-59.417,55.155],[-59.905,55.139],[-59.763,55.329],[-60.288,55.015],[-60.018,55.265],[-60.653,55.02],[-60.175,55.426],[-60.496,55.609],[-60.306,55.773],[-60.479,55.796],[-60.651,55.575],[-60.575,55.807],[-60.76,55.723],[-60.715,55.836],[-61.093,55.839],[-61.113,55.972],[-61.513,56.02],[-61.25,56.058],[-61.47,56.058],[-61.345,56.232],[-62.028,56.225],[-62.056,56.299],[-61.583,56.278],[-62.158,56.454],[-61.656,56.538],[-62.232,56.604],[-61.908,56.609],[-62.605,56.794],[-62.066,56.832],[-62.523,56.789],[-61.687,56.611],[-61.924,56.797],[-61.658,56.805],[-61.561,56.948],[-61.382,56.991],[-61.413,57.14],[-61.723,57.153],[-61.635,57.232],[-61.956,57.225],[-61.808,57.371],[-62.191,57.466],[-62.37,57.419],[-62.541,57.494],[-62.359,57.445],[-62.279,57.527],[-61.899,57.609],[-62.08,57.824],[-62.245,57.852],[-61.994,57.714],[-62.407,57.611],[-62.787,57.807],[-62.949,57.68],[-63.34,57.781],[-63.413,57.572],[-64.555,57.199],[-64.571,57.889],[-65.1,58.338],[-64.894,58.535],[-65.388,58.686],[-65.172,59.339],[-65.365,59.484],[-65.523,59.477],[-65.326,59.247],[-65.571,59.376],[-65.47,59.141],[-65.745,59.269],[-65.639,59.075],[-65.419,59.06],[-65.689,59.062],[-65.656,58.951],[-65.856,58.99],[-65.999,58.913],[-65.818,58.843],[-66.107,58.777],[-65.868,58.602],[-65.971,58.286],[-66.106,58.344],[-65.93,58.624],[-66.376,58.854],[-66.625,58.487],[-67.457,58.295],[-67.694,58.002],[-67.748,58.464],[-67.831,58.284],[-68.125,58.079],[-67.866,58.334],[-68.012,58.583],[-68.285,58.112],[-68.705,57.998],[-68.368,58.123],[-68.224,58.427],[-68.353,58.779],[-68.608,58.901],[-69.37,58.868],[-69.808,58.59],[-69.783,58.712],[-70.003,58.746],[-70.138,58.759],[-70.166,58.778],[-70.527,58.48],[-71.464,58.187],[-71.828,58.271],[-71.865,58.394],[-72.656,58.466],[-73.209,58.369],[-73.225,58.162],[-75.231,58.294],[-75.257,58.094],[-75.678,58.457],[-76.015,58.459],[-76.123,58.28],[-75.908,58.042],[-76.258,58.116],[-76.431,57.967],[-76.405,57.738],[-76.127,57.621],[-76.45,57.38],[-76.402,56.543],[-76.538,56.642],[-76.692,56.061],[-77.242,55.586],[-78.314,55.043],[-79.725,54.637],[-79.553,54.61],[-79.397,54.179],[-79.083,54.163],[-78.966,53.999],[-79.134,53.944],[-78.949,53.817],[-79.072,53.589],[-78.896,53.549],[-79.118,53.486],[-78.926,53.397],[-78.992,53.016],[-78.741,52.849],[-78.77,52.553],[-78.603,52.524],[-78.511,52.454],[-78.497,52.25],[-79.042,51.77],[-78.769,51.492],[-78.865,51.168],[-78.988,51.466],[-79.27,51.512],[-79.315,51.662],[-79.739,51.378],[-79.739,51.127],[-80.128,51.293],[-80.516,51.301],[-80.591,51.715],[-80.991,52.014],[-81.697,52.219],[-81.587,52.452],[-82.29,52.954],[-82.118,53.268],[-82.133,53.823],[-82.441,54.259],[-82.259,55.109],[-83.911,55.295],[-85.211,55.229],[-85.133,55.327],[-85.735,55.59],[-87.613,55.989],[-87.97,56.459],[-88.876,56.858],[-89.955,57.003],[-90.83,57.252],[-92.8,56.922],[-92.435,57.363],[-93.185,58.756],[-94.166,58.781],[-94.271,58.407],[-94.226,58.797],[-94.427,58.712],[-94.772,59.013],[-94.915,58.705],[-95.076,59.021],[-94.933,60],[-95.338,60.254],[-95.671,60.878],[-96.128,61.073],[-96.245,61.39],[-96.249,61.398],[-96.632,61.625],[-96.377,61.766],[-96.82,61.819],[-96.969,62.02],[-96.613,62.305],[-96.245,62.257],[-96.419,62.494],[-96.175,62.574],[-97.429,63.075],[-97.606,62.946],[-98.355,63.015],[-99.976,62.819],[-100.374,62.624],[-100.628,62.85],[-101.247,62.561],[-101.961,62.837],[-102.406,62.645],[-102.989,62.824],[-103.07,63.214],[-103.617,63.184],[-104.214,63.324],[-103.906,63.806],[-102.925,64.23],[-102.941,64.45],[-103.541,64.393],[-103.953,64.54],[-103.7,64.333],[-104.246,64.002],[-104.754,63.899],[-107.389,63.807],[-108.027,64.053],[-108.564,64.04],[-109.179,63.687],[-109.815,63.622],[-109.459,63.984],[-109.749,64.204],[-109.984,64.252],[-110.464,64.039],[-111.357,64.153],[-111.702,64.356],[-112.371,64.281],[-112.647,64.988],[-113.153,64.995],[-113.263,65.129],[-113.072,65.443],[-114.9,66.618],[-115.842,66.821],[-116.168,66.766],[-116.802,67.009],[-117.309,66.844],[-118.488,67.39],[-118.802,67.317],[-118.778,66.918],[-120.378,67.072],[-121.401,66.936],[-121.54,66.754],[-122.201,66.608],[-123.098,66.57],[-123.467,66.752],[-124.072,66.679],[-124.93,66.996],[-124.867,67.369],[-124.518,67.286],[-124.255,67.431],[-125.028,67.984],[-126.432,67.919],[-127.493,67.995],[-127.744,68.162],[-128.218,68.108],[-130.069,68.813],[-131.64,68.512],[-132.155,68.261],[-132.794,68.262],[-132.887,68.457],[-133.497,68.286],[-134.624,69],[-135.539,68.837],[-135.161,68.656],[-135.873,68.832],[-135.723,68.626],[-135.318,68.227],[-135.348,67.731],[-134.842,67.481],[-135.048,66.927],[-133.872,66.425],[-134.177,66.004],[-133.437,65.936],[-132.983,66.169],[-131.051,65.86],[-130.879,65.955],[-131.116,66.058],[-132.497,66.283],[-131.445,66.343],[-130.293,66.195],[-129.239,65.771],[-128.854,65.779],[-129.066,65.703],[-128.867,65.66],[-128.853,65.659],[-128.852,65.658],[-128.988,65.535],[-128.126,65.454],[-126.587,64.825],[-125.641,64.674],[-125.502,64.529],[-126.114,64.67],[-126.311,64.503],[-125.938,64.232],[-124.78,64.059],[-124.797,63.764],[-124.543,63.765],[-123.83,62.874],[-123.554,62.292],[-124.358,61.906],[-124.36,61.587],[-124.067,61.307],[-124.565,61.322],[-125.016,61.157],[-125.132,61.325],[-125.778,60.887],[-126.137,61.221],[-126.349,61.2],[-126.607,60.818],[-126.875,61.166],[-127.497,61.336],[-128.068,60.701],[-128.262,60.704],[-128.46,60.953],[-128.849,60.721],[-129.338,61.779],[-130.435,61.931],[-130.858,62.558],[-131.605,62.642],[-132.634,63.086],[-132.016,63.374],[-132.418,63.498],[-132.345,63.704],[-132.942,63.934],[-136.053,64.246],[-136.908,64.084],[-137.21,64.235],[-137.865,64.156],[-139.987,64.434],[-139.2,64.1],[-138.339,63.984],[-137.964,63.557],[-138.736,63.215],[-138.355,63.189],[-137.741,62.886],[-137.918,62.766],[-137.613,62.703],[-137.925,62.62],[-137.226,62.393],[-137.771,62.452],[-136.734,62.073],[-137.349,61.878],[-138.016,61.866],[-138.633,62.141],[-138.951,62.113],[-139.372,62.372],[-139.976,62.055],[-140.362,62.125],[-140.294,61.931],[-140.566,61.984],[-140.205,61.72],[-138.576,61.125],[-138.601,60.807],[-138.011,60.68],[-138.088,60.43],[-137.867,60.644],[-137.973,60.295],[-137.938,59.882],[-137.69,59.954],[-137.337,59.651],[-136.818,59.51],[-136.766,59.531],[-136.753,59.534],[-136.729,59.539],[-136.593,59.527],[-136.499,59.751],[-135.664,59.87],[-135.017,59.524],[-133.525,58.863],[-133.262,58.626],[-133.061,58.638],[-133.153,58.424],[-132.593,58.418],[-132.21,58.239],[-132.209,58.098],[-132.017,58.123],[-132.31,57.96],[-132.366,57.929],[-132.03,57.521],[-131.649,57.568],[-131.586,57.433],[-131.165,57.335],[-131.03,57.064],[-129.908,57.335],[-127.922,57.079],[-127.264,56.606],[-125.326,56.461],[-124.738,56.499],[-124.229,57.172],[-123.684,56.804],[-122.929,56.881],[-122.81,57.082],[-122.675,57.05],[-122.657,57.048],[-122.353,57.174],[-121.96,57.086],[-121.95,57.09],[-121.948,57.091],[-121.939,57.095],[-121.936,57.097],[-121.747,57.277],[-121.744,57.282],[-121.743,57.287],[-121.458,57.327],[-121.458,57.328],[-121.456,57.328],[-121.009,57.819],[-120.084,58.19],[-118.951,58.281],[-118.883,58.061],[-118.629,58.025],[-118.808,57.966],[-118.66,57.917],[-118.852,57.644],[-118.066,57.786],[-117.331,57.466],[-117.426,57.266],[-117.843,57.141],[-117.843,56.956],[-118.035,56.912],[-117.809,56.717],[-118.077,56.444],[-117.635,56.389],[-118.464,56.281],[-118.771,56.588],[-119.495,56.607],[-119.867,56.511],[-119.997,56.334],[-120.27,56.32],[-120.727,56.866],[-120.962,56.709],[-120.812,56.505],[-121.05,56.549],[-120.835,56.292],[-121.09,56.237],[-121.566,56.447],[-121.729,56.189],[-122.075,56.176],[-122.161,56.032],[-121.666,55.64],[-121.028,55.612],[-120.693,55.779],[-120.485,55.615],[-119.672,55.837],[-118.874,55.693],[-119.038,55.548],[-118.449,55.568],[-118.525,55.499],[-118.244,55.482],[-118.683,55.379],[-119.357,55.554],[-119.984,55.514],[-120.101,54.922],[-119.622,54.732],[-119.549,54.821],[-119.113,54.812],[-119.086,54.802],[-118.774,54.764],[-118.752,54.743],[-118.751,54.728],[-118.485,54.603],[-118.396,54.665],[-118.39,54.655],[-117.733,54.689],[-117.711,54.701],[-117.398,54.733],[-117.319,54.589],[-117.184,54.666],[-117.128,54.425],[-116.808,54.372],[-116.393,54.528],[-116.552,54.679],[-116.211,54.764],[-116.753,54.915],[-116.837,55.11],[-116.475,55.053],[-116.235,55.164],[-116.009,55.058],[-116.129,55.222],[-115.963,55.296],[-115.865,55.162],[-115.722,55.261],[-115.328,55.15],[-115.065,55.354],[-114.34,55.171],[-115.486,54.203],[-116.294,54.237],[-115.844,54.165],[-115.854,54.064],[-115.376,54.132],[-115.18,53.917],[-115.436,53.869],[-114.993,53.71],[-115.327,53.8],[-115.458,53.633],[-114.936,53.503],[-114.816,53.021],[-114.256,52.966],[-114.929,52.374],[-114.751,51.864],[-114.727,51.844],[-114.546,51.57],[-114.136,51.966],[-114.363,52.053],[-114.39,52.304],[-114.101,52.161],[-114.062,52.613],[-113.787,52.584],[-113.95,52.946],[-113.831,53.116],[-114.073,53.345],[-113.893,53.663],[-114.025,53.984],[-113.562,54.129],[-112.951,53.892],[-112.799,53.989],[-112.36,53.939],[-112.215,54.054],[-111.887,53.765],[-111.644,53.839],[-111.553,53.529],[-111.391,53.618],[-111.032,53.462],[-110.938,53.73],[-110.687,53.693],[-110.92,53.862],[-110.631,53.849],[-110.079,53.589],[-109.631,53.578],[-109.564,53.423],[-109.284,53.389],[-108.565,52.944],[-108.716,53.111],[-108.544,53.25],[-108.213,53.167],[-108.059,53.282],[-107.776,53.025],[-107.314,53.086],[-107.336,52.898],[-106.701,53.04],[-106.167,52.587],[-105.869,52.781],[-105.371,52.782],[-105.348,52.473],[-104.995,52.446],[-104.931,52.599],[-104.675,52.421],[-104.496,52.554],[-103.949,52.362],[-103.741,52.432],[-103.492,51.932],[-102.857,51.814],[-102.552,51.94],[-101.908,51.523],[-102.205,51.532],[-102.182,51.41],[-101.454,51.276],[-101.41,50.967],[-101.158,51.01],[-100.972,50.729],[-100.159,50.407],[-99.97,50.485],[-99.672,50.351],[-99.642,50.469],[-99.621,50.349],[-99.477,50.419],[-99.578,50.763],[-99.881,51.009],[-100.811,51.049],[-101.212,51.255],[-100.628,51.345],[-100.559,51.812],[-100.414,51.548],[-99.778,51.56],[-99.308,51.415],[-98.888,51.057],[-98.284,50.781],[-97.712,50.801],[-97.409,50.245],[-97.07,50.523],[-96.966,49.955],[-96.817,50.077],[-96.579,49.845],[-96.548,50.001],[-96.398,49.899],[-96.409,49.98],[-96.606,50.492],[-96.524,50.76],[-96.331,50.692],[-95.995,50.412],[-95.384,50.434],[-95.08,50.223],[-94.943,50.352],[-94.613,50.365],[-94.267,50.152],[-93.669,50.102],[-93.477,49.936],[-92.715,49.917],[-92.562,50.05],[-91.913,50.089],[-91.126,49.494],[-91.256,49.299],[-90.757,48.845],[-89.913,48.544],[-89.855,48.762],[-89.463,48.571],[-88.897,48.544],[-88.757,48.563],[-88.936,48.303],[-88.751,48.347],[-88.451,48.849],[-88.303,48.753],[-88.554,48.423],[-88.332,48.653],[-88.236,48.582],[-88.097,48.775],[-88.263,48.982],[-88.111,48.999],[-87.269,48.754],[-86.697,48.802],[-86.382,48.699],[-85.839,47.968],[-84.84,47.933],[-84.238,47.943],[-83.844,47.806],[-83.454,48.338],[-83.467,48.558],[-83.083,48.624],[-80.98,48.178],[-80.796,48.246],[-80.766,48.447],[-79.887,48.427],[-79.788,48.244],[-78.973,47.86],[-77.61,47.591],[-77.328,47.668],[-76.885,48.102],[-76.456,48.218],[-76.021,48.696],[-75.599,48.729],[-74.916,49.285],[-74.466,49.363],[-74.362,49.52]]],[[[-149.905,60.942],[-150.395,61.038],[-151.409,60.721],[-151.297,60.39],[-151.869,59.775],[-150.798,59.933],[-150.709,60.297],[-150.098,60.44],[-149.905,60.942]]],[[[-151.172,62.503],[-151.288,62.498],[-151.413,62.387],[-151.906,62.462],[-152.136,62.364],[-152.084,62.002],[-151.804,61.924],[-151.595,61.601],[-151.915,61.434],[-151.792,61.205],[-152.374,60.854],[-152.525,60.253],[-152.052,60.662],[-151.71,60.713],[-151.8,60.854],[-151.592,60.97],[-150.64,61.34],[-149.985,61.238],[-149.477,61.5],[-150.075,61.157],[-149.803,61.057],[-149.317,61.497],[-148.718,61.455],[-148.917,61.626],[-148.707,61.782],[-149.686,61.778],[-149.797,62.257],[-149.621,62.343],[-150.084,62.673],[-149.756,62.897],[-149.934,62.95],[-149.994,62.935],[-150.403,62.702],[-150.472,62.651],[-150.852,62.406],[-151.172,62.503]]],[[[-147.036,61.939],[-146.574,61.85],[-146.242,61.916],[-145.92,61.795],[-145.669,61.88],[-145.264,61.637],[-144.537,61.644],[-143.732,61.255],[-143.458,61.297],[-142.625,61.006],[-142.181,61.121],[-142.74,61.146],[-142.748,61.41],[-143.537,61.36],[-144.892,61.959],[-144.4,62.49],[-143.497,62.551],[-143.599,62.713],[-144.359,62.659],[-144.571,62.877],[-147.198,62.67],[-147.383,62.524],[-146.999,62.359],[-147.036,61.939]]],[[[107.273,53.109],[107.728,53.266],[107.793,53.443],[106.926,53.12],[107.273,53.109]]],[[[141.806,58.819],[142.333,59.179],[143.162,59.361],[145.581,59.375],[146.001,59.668],[146.48,59.768],[148.113,59.623],[148.139,59.389],[148.365,59.387],[148.441,59.235],[148.954,59.225],[148.755,59.502],[149.229,59.444],[149.087,59.651],[149.371,59.756],[150.342,59.618],[150.716,59.408],[151.361,59.557],[151.611,59.311],[152.248,59.219],[151.011,59.116],[151.275,58.81],[152.002,58.855],[152.261,59.062],[152.719,58.86],[153.348,59.068],[153.39,59.24],[153.779,59.238],[154.068,59.03],[154.316,59.211],[155.19,59.17],[154.98,59.451],[154.109,59.464],[154.348,59.614],[154.22,59.836],[154.43,59.857],[154.442,60.047],[155.003,60.397],[155.926,60.726],[155.99,60.953],[156.49,61.203],[156.277,61.505],[155.241,61.784],[155.509,61.179],[155.211,61.157],[154.953,61.462],[154.755,61.455],[154.625,60.944],[154.139,61.266],[153.636,60.779],[152.627,61.205],[152.752,61.457],[153.759,61.492],[153.746,61.941],[154.551,61.858],[154.839,61.998],[154.206,62.389],[154.615,62.59],[154.376,62.993],[154.703,63.444],[154.183,63.71],[154.598,63.815],[154.952,63.75],[155.606,63.115],[155.408,62.97],[155.648,62.714],[155.055,62.303],[155.087,62.125],[155.528,61.961],[156.169,62.017],[156.305,62.106],[155.724,62.175],[155.684,62.272],[156.184,62.388],[156.136,62.565],[156.822,62.664],[156.224,63.03],[158.273,62.899],[158.84,63.278],[160.735,63.777],[161.316,64.195],[161.722,64.194],[161.478,63.928],[162.047,64.109],[162.292,63.996],[162.118,63.854],[162.594,63.83],[162.707,63.997],[162.29,64.426],[162.603,64.614],[161.791,64.887],[163.028,64.925],[163.172,65.04],[162.85,65.416],[162.288,65.401],[162.428,65.569],[163.424,65.487],[164.237,65.562],[163.903,65.346],[164.122,65.217],[164.452,65.472],[165.334,65.384],[165.102,65.663],[165.652,65.839],[165.53,66.056],[164.968,65.873],[164.123,65.871],[164.007,65.977],[164.524,66.148],[164.347,66.201],[163.172,65.925],[160.879,66.299],[160.59,66.501],[161.279,66.366],[161.517,66.686],[161.007,67.121],[162.445,67.083],[162.589,66.975],[162.098,66.874],[162.484,66.809],[162.851,66.463],[163.108,66.639],[163.944,66.405],[164.836,66.547],[165.439,66.203],[165.691,66.419],[166.072,66.309],[166.409,66.362],[166.7,66.591],[167.636,66.492],[169.222,66.713],[168.999,66.881],[168.14,66.779],[166.122,66.784],[165.864,66.976],[166.495,67.175],[166.328,67.26],[165.216,67.222],[164.208,67.67],[163.911,67.431],[163.391,67.429],[163.008,67.931],[163.402,67.988],[163.903,67.879],[164.585,67.982],[165.65,67.767],[166.02,67.54],[167.003,67.639],[167.382,67.284],[167.938,67.081],[169.912,67.022],[169.76,67.334],[168.639,67.503],[168.189,67.783],[168.725,68.102],[167.795,68.156],[167.55,68.449],[166.632,68.425],[166.046,68.674],[165.252,68.61],[165.301,69.027],[165.012,69.089],[164.235,68.995],[163.704,69.196],[163.003,69.251],[162.177,69.149],[162.045,69.511],[161.791,69.431],[161.809,68.941],[160.609,68.589],[158.819,68.89],[155.655,68.921],[154.846,69.051],[153.371,69.598],[152.602,69.645],[151.734,69.874],[151.101,69.742],[149.981,69.792],[149.128,69.537],[148.598,69.577],[147.611,69.625],[146.867,69.38],[145.895,69.558],[145.248,69.495],[144.34,69.387],[143.041,69.461],[142.198,69.225],[141.891,69.319],[141.835,69.676],[141.145,69.464],[141.256,69.795],[140.923,69.828],[139.807,69.386],[140.445,69.239],[140.117,68.992],[140.728,69.096],[140.917,68.951],[140.614,68.725],[141.791,68.872],[142.579,68.528],[141.611,68.096],[141.154,68.348],[140.319,68.09],[139.671,68.353],[139.538,68.712],[138.289,69.538],[136.95,69.511],[137.102,69.314],[136.433,69.221],[136.428,69.064],[136.004,68.967],[135.712,69.328],[135.164,69.422],[136.252,69.793],[135.112,70.096],[135.124,70.285],[134.339,70.4],[132.95,70.387],[132.802,70.277],[132.198,70.262],[131.154,69.821],[131.378,69.692],[131.197,69.138],[130.815,69.003],[131.219,68.913],[130.9,68.534],[131.222,68.372],[130.008,68.079],[129.491,67.427],[129.576,66.848],[128.831,66.272],[129.791,66.308],[129.735,65.71],[130.004,65.535],[130.907,65.701],[131.025,65.587],[130.687,65.314],[130.864,65.15],[131.285,65.101],[131.83,65.432],[131.384,65.998],[132.274,66.056],[132.588,65.785],[132.421,65.614],[132.832,64.6],[133.075,64.569],[133.086,64.775],[132.785,65.448],[133.122,65.525],[133.384,65.47],[133.671,65.044],[134.848,64.724],[135.295,64.124],[135.694,63.992],[135.446,63.665],[134.382,63.831],[134.068,64.115],[133.486,63.946],[132.888,64.08],[132.781,64.25],[132.011,64.088],[132.053,64.273],[131.431,64.185],[131.516,64.434],[130.923,64.351],[130.517,64.487],[129.962,64.331],[129.856,64.54],[129.272,64.364],[128.959,64.528],[128.558,64.47],[128.388,64.556],[128.572,64.903],[128.223,64.918],[127.574,65.196],[128.319,65.37],[127.71,65.54],[128.404,65.756],[128.443,65.95],[127.349,65.885],[127.067,65.979],[127.558,66.243],[126.951,66.863],[127.164,66.955],[126.938,67.287],[127.675,67.606],[126.937,67.749],[126.651,67.935],[127.048,68.03],[127.818,67.854],[128.144,68.064],[127.236,68.222],[128.344,68.29],[127.971,68.485],[126.571,68.333],[126.468,68.496],[128.2,68.964],[128.079,69.268],[128.899,69.69],[128.06,69.816],[127.618,70.236],[128.109,70.573],[127.963,70.859],[127.081,70.856],[126.593,70.689],[125.913,70.856],[125.253,70.584],[124.339,70.736],[123.353,70.689],[122.992,70.764],[123.222,71.284],[122.114,71.305],[120.976,70.762],[119.693,70.609],[119.037,70.815],[117.256,70.826],[116.528,71.13],[115.728,71.009],[114.954,71.166],[114.33,71.023],[114.299,71.417],[112.58,71.201],[111.572,71.323],[110.523,71.008],[110.709,70.86],[111.743,70.867],[111.298,70.516],[110.829,70.507],[110.226,70.695],[109.936,70.626],[110.78,70.009],[110.155,69.898],[109.339,69.974],[108.785,69.726],[107.995,69.983],[107.243,69.45],[107.956,69.357],[107.974,69.205],[107.191,69.047],[106.409,69.202],[106.661,69.338],[106.182,69.417],[106.357,69.866],[105.997,70.203],[105.459,70.343],[105.145,70.141],[105.544,69.628],[105.298,69.445],[104.524,69.408],[103.321,70.019],[104.605,70.047],[104.406,70.398],[105.036,70.559],[105.13,70.758],[106.418,70.448],[107.968,70.482],[108.668,70.693],[104.823,70.896],[103.327,71.059],[102.954,70.982],[102.353,71.103],[103.381,70.585],[103.212,70.443],[103.635,70.195],[102.867,70],[103.063,69.564],[102.491,69.462],[102.153,69.523],[102.129,69.915],[101.776,70.115],[101.64,70.946],[101.127,71.269],[100.646,71.264],[100.355,70.679],[99.379,70.355],[99.661,70.241],[100.925,70.239],[101.284,69.781],[100.506,69.545],[99.003,69.739],[98.56,69.625],[99.056,69.107],[100.513,68.464],[100.596,68.368],[99.999,68.212],[100.187,67.94],[99.633,67.893],[99.113,68.084],[97.82,69.028],[97.26,69.089],[96.622,68.988],[96.557,68.804],[98.193,68.051],[99.187,67.303],[98.264,67.32],[98.387,67.094],[100.4,66.802],[101.128,66.012],[100.152,65.88],[99.471,66.495],[98.474,66.518],[97.923,67.03],[97.264,67.07],[97.544,66.666],[98.692,66.069],[98.632,65.893],[97.962,66.012],[97.717,66.332],[97.289,66.222],[96.669,66.277],[96.774,66.122],[97.198,65.929],[98.66,65.659],[98.833,65.444],[97.183,65.596],[96.47,65.931],[96.371,66.277],[96.023,66.337],[95.969,67.148],[94.492,67.457],[94.085,67.358],[95.384,66.903],[95.557,65.85],[97.059,65.211],[97.438,64.748],[96.64,64.907],[95.529,65.447],[94.778,66.725],[94.424,66.913],[92.129,67.068],[92.699,67.387],[92.344,67.458],[90.398,67.046],[90.702,67.362],[91.995,67.527],[92.585,67.964],[93.257,68.169],[90.496,68.247],[91.212,68.409],[92.554,68.421],[92.778,68.561],[90.331,68.643],[89.459,68.785],[88.483,68.667],[87.652,68.165],[86.349,68.333],[85.405,67.729],[84.752,67.537],[84.666,67.291],[85.453,66.916],[84.927,66.749],[84.918,66.397],[84.082,66.21],[83.579,66.331],[82.062,66.345],[80.38,65.944],[79.897,65.932],[78.32,66.219],[76.687,65.781],[75.034,65.532],[74.417,65.562],[72.236,66.278],[72.006,66.191],[71.468,66.35],[69.915,66.444],[67.861,66.6],[65.267,66.556],[65.405,66.743],[64.182,66.489],[63.068,65.826],[62.382,65.622],[62.336,65.704],[61.481,65.475],[61.187,64.988],[60.188,64.908],[59.872,65.003],[59.533,64.895],[59.462,64.513],[58.872,64.121],[58.67,64.935],[59.618,65.561],[59.942,65.371],[60.393,65.389],[60.431,65.733],[61.647,66.084],[61.733,66.452],[62.547,66.697],[62.216,66.78],[60.799,66.464],[61.176,66.754],[60.644,67.177],[59.853,66.744],[58.88,66.684],[58.305,66.784],[56.788,66.589],[55.679,66.894],[55.254,66.871],[55.456,66.662],[55.053,66.686],[54.768,66.886],[54.941,67.267],[54.498,67.321],[53.627,66.836],[53.442,66.982],[52.902,66.852],[52.377,66.944],[52.413,66.782],[53.304,66.728],[53.664,66.564],[53.471,66.123],[52.595,66.352],[52.639,66.102],[52.349,65.983],[52.015,66.919],[51.059,66.961],[50.586,67.308],[49.967,67.096],[49.573,67.142],[47.708,66.468],[47.087,66.495],[47.054,66.337],[46.608,66.606],[45.444,66.401],[44.863,66.553],[44.291,66.482],[44.08,65.957],[43.709,65.869],[42.833,65.933],[42.264,66.122],[42,66.392],[39.768,65.564],[39.721,65.354],[40.553,64.76],[40.15,64.742],[40.259,64.619],[40.022,64.685],[40.136,64.599],[39.563,64.547],[38.461,64.801],[38.542,64.725],[38.045,64.577],[38.064,64.748],[38.385,64.827],[37.051,65.199],[36.87,64.978],[36.487,64.947],[37.194,64.387],[37.657,64.351],[37.821,64.438],[38.06,64.286],[38.01,63.92],[37.375,63.787],[36.313,63.977],[35.953,64.278],[35.461,64.252],[34.818,64.474],[35.045,64.688],[34.775,64.694],[34.947,64.757],[34.659,64.894],[34.78,64.973],[34.143,65.311],[34.531,65.363],[34.499,65.703],[34.819,65.613],[34.71,65.783],[33.922,66.204],[33.445,66.31],[32.843,66.252],[33.533,66.411],[32.796,66.532],[32.967,66.562],[32.695,66.619],[33.137,66.656],[32.5,66.787],[32.783,66.768],[32.205,66.912],[32.345,67.011],[32.08,67.149],[31.705,67.178],[32.785,67.145],[32.573,67.057],[33.298,66.756],[33.434,66.879],[33.759,66.701],[33.994,66.805],[33.95,66.679],[34.364,66.657],[34.302,66.533],[34.756,66.578],[35.245,66.368],[36.035,66.261],[38.309,66.039],[40.059,66.28],[40.202,66.458],[39.952,66.727],[40.589,66.827],[40.126,66.846],[40.006,67.048],[39.701,66.898],[39.424,66.939],[39.579,67.071],[38.769,67.015],[39.251,67.098],[38.647,67.112],[38.651,67.254],[38.089,67.225],[37.964,67.441],[37.348,67.577],[36.808,67.541],[36.697,67.683],[35.744,67.812],[35.82,67.953],[35.423,67.943],[35.288,68.211],[35.23,67.909],[34.958,67.784],[34.416,67.779],[34.001,68.142],[34.553,68.222],[33.958,68.282],[33.939,68.578],[33.415,68.691],[33.17,68.63],[33.272,69.006],[32.422,68.877],[31.241,69.097],[30.254,69.096],[29.856,68.969],[29.7,69.12],[29.961,69.161],[30.116,69.627],[30.062,69.519],[29.204,69.44],[29.184,69.643],[28.674,69.723],[28.327,69.637],[28.262,69.984],[27.717,69.613],[27.743,69.918],[27.433,69.93],[27.174,69.658],[26.352,69.569],[25.329,69.743],[24.406,69.434],[24.384,69.707],[24.072,69.768],[23.97,69.446],[23.564,69.529],[22.684,68.899],[22.255,69.105],[21.217,69.204],[21.816,69.043],[21.302,69.005],[21.966,68.878],[21.097,68.872],[21.62,68.523],[21.259,68.499],[21.396,68.344],[20.987,68.407],[21.086,68.055],[20.253,68.022],[20.422,67.756],[19.478,67.841],[20.428,67.652],[20.244,67.433],[20.546,67.292],[20.117,67.277],[19.806,67.415],[19.726,67.241],[19.2,67.233],[18.058,67.586],[19.461,67.011],[18.784,66.943],[18.528,67.155],[18.198,67.133],[18.215,66.951],[17.655,67.035],[17.828,66.786],[18.587,66.684],[18.809,66.465],[17.36,66.366],[16.986,66.431],[17.159,66.309],[16.897,66.225],[17.336,65.773],[16.521,65.871],[16.151,66.083],[16.658,65.743],[16.11,65.772],[16.634,65.56],[15.852,65.693],[15.874,65.524],[15.557,65.614],[15.433,65.532],[15.135,65.661],[15.38,65.469],[15.997,65.416],[15.981,65.273],[15.596,65.234],[15.437,64.95],[14.906,65.137],[14.581,65.119],[15.141,64.896],[14.98,64.784],[14.151,64.955],[13.893,64.717],[13.681,64.669],[13.386,64.79],[13.006,64.683],[13.322,65.059],[12.277,64.53],[12.464,64.877],[12.12,64.943],[11.699,64.855],[11.856,64.781],[11.357,64.678],[11.76,64.585],[11.208,64.314],[11.312,64.442],[10.95,64.597],[10.665,64.45],[10.83,64.373],[10.514,64.424],[10.651,64.349],[10.04,64.086],[9.97,63.949],[10.222,64],[9.959,63.907],[10.228,63.923],[9.569,63.782],[9.797,63.759],[9.533,63.645],[10.092,63.779],[9.781,63.616],[10.106,63.49],[10.967,63.737],[10.973,63.895],[10.617,63.808],[11.358,64.106],[11.239,64.027],[11.488,63.998],[11.088,63.88],[11.419,63.764],[10.644,63.54],[10.905,63.596],[10.942,63.44],[10.193,63.442],[10.05,63.369],[10.267,63.286],[9.803,63.31],[9.761,63.565],[9.523,63.35],[8.639,63.061],[8.947,62.884],[9.335,63.066],[9.554,63.029],[9.65,62.794],[9.932,62.779],[9.624,62.543],[9.879,62.574],[10.265,62.937],[10.437,62.802],[10.952,62.913],[11.37,62.741],[11.076,63.064],[11.767,62.9],[11.741,63.065],[11.241,63.193],[11.38,63.379],[11.903,63.3],[12.244,63.41],[12.113,63.156],[12.424,63.235],[12.809,63.05],[12.913,63.189],[13,62.999],[13.695,63.119],[13.631,62.998],[13.889,62.969],[13.772,62.868],[13.377,63.006],[13.458,62.905],[12.857,62.859],[13.083,62.656],[12.93,62.478],[12.411,62.45],[12.709,62.268],[11.492,62.595],[11.108,62.537],[10.829,62.323],[10.533,62.377],[10.607,62.186],[10.038,62.136],[10.147,62.071],[10.443,62.167],[10.844,61.969],[10.792,61.787],[10.338,61.842],[10.873,61.618],[11.267,60.94],[10.725,61.076],[10.23,61.592],[9.667,61.702],[9.282,62.037],[8.144,62.262],[9.054,62.034],[9.342,61.837],[8.035,61.938],[9.46,61.743],[9.279,61.734],[9.678,61.626],[9.406,61.519],[10.097,61.498],[10.108,61.258],[9.597,61.346],[10.278,61.054],[10.002,61.126],[9.43,61.017],[8.977,61.24],[9.154,61.025],[8.875,61.16],[8.516,61.151],[8.922,61.088],[9.412,60.635],[8.658,60.82],[8.816,60.7],[8.262,60.725],[8.502,60.64],[8.137,60.647],[8.029,60.509],[8.919,60.666],[9.548,60.352],[9.572,60.152],[9.294,60.283],[9.321,60.114],[9.032,60.298],[8.671,60.277],[9.029,60.07],[8.75,59.995],[8.944,59.761],[8.476,59.663],[8.457,59.518],[8.074,59.554],[8.082,59.712],[7.747,59.763],[7.893,59.615],[7.542,59.755],[7.986,59.322],[7.832,59.247],[8.441,58.879],[8,59.079],[8.351,58.802],[8.102,58.865],[8.075,58.635],[7.758,58.767],[7.694,58.584],[7.473,58.565],[7.354,58.742],[7.274,58.483],[7.297,58.215],[7.43,58.486],[7.695,58.219],[7.769,58.55],[8.181,58.413],[8.256,58.74],[8.546,58.595],[9.388,58.969],[9.447,59.17],[9.03,59.306],[9.217,59.498],[9.529,59.125],[9.843,58.956],[10.279,59.054],[10.502,59.294],[10.209,59.733],[10.477,59.511],[10.469,59.845],[10.731,59.904],[10.896,59.378],[11.121,59.665],[11.491,59.543],[11.529,59.355],[11.175,59.321],[11.37,59.223],[11.6,59.415],[11.389,59.997],[11.758,59.509],[11.903,59.871],[12.232,59.975],[12.319,59.479],[12.056,59.418],[12.374,59.322],[12.644,59.388],[12.48,59.661],[12.901,59.41],[13.986,59.488],[14.273,59.258],[14.631,59.204],[16.137,59.645],[16.445,60.157],[16.65,60.176],[16.48,60.185],[16.563,60.276],[15.918,60.178],[17.263,60.67],[17.035,61.634],[17.506,61.679],[17.288,61.844],[17.639,62.224],[17.374,62.321],[17.315,62.473],[17.393,62.541],[17.697,62.43],[18.031,62.592],[17.758,63.083],[18.103,62.767],[18.522,62.96],[18.17,63.005],[18.439,63.03],[18.506,63.194],[18.859,63.206],[18.71,63.275],[19.014,63.193],[19.414,63.558],[19.621,63.425],[19.908,63.643],[20.316,63.633],[20.317,63.753],[20.391,63.653],[20.5,63.813],[20.529,63.715],[20.681,63.78],[21.075,64.22],[21.606,64.439],[21.015,64.832],[21.592,65.162],[21.29,65.403],[21.749,65.207],[21.447,65.397],[22.02,65.423],[21.787,65.551],[22.2,65.554],[21.769,65.72],[22.23,65.626],[22.347,65.867],[22.7,65.762],[22.644,65.911],[23.087,65.697],[23,65.88],[23.373,65.751],[24.142,65.823],[23.904,66.093],[24.196,65.8],[24.547,65.805],[24.667,65.653],[25.032,65.661],[25.336,65.481],[25.197,65.151],[25.451,64.963],[25.174,64.979],[25.407,64.885],[24.554,64.814],[23.637,64.057],[23.388,64.061],[23.4,63.895],[23.078,63.892],[22.864,63.601],[22.631,63.7],[22.443,63.464],[22.315,63.527],[22.366,63.279],[22.023,63.137],[21.921,63.265],[21.556,63.255],[21.708,63.03],[21.462,63.036],[21.093,62.617],[21.472,62.221],[21.286,61.979],[21.721,61.548],[21.48,61.573],[21.632,61.221],[21.309,61.078],[21.462,60.891],[23.065,60.367],[22.881,60.15],[23.239,60.052],[23.129,59.966],[23.309,59.997],[22.938,59.803],[23.405,59.976],[24.355,60.084],[24.459,59.973],[24.557,60.16],[25.467,60.222],[25.683,60.373],[25.915,60.235],[25.857,60.404],[26.122,60.323],[25.946,60.489],[26.21,60.357],[26.243,60.449],[26.327,60.365],[26.459,60.483],[26.652,60.448],[26.555,60.364],[27.171,60.577],[27.49,60.453],[27.748,60.579],[27.799,60.483],[28.168,60.483],[28.7,60.717],[28.531,60.534],[28.721,60.372],[28.421,60.472],[28.624,60.283],[29.123,60.112],[29.897,60.127],[30.293,59.902],[30.973,59.744],[30.34,59.689],[30.162,59.544],[30.455,59.356],[30.193,59.26],[30.085,59.523],[29.701,59.413],[29.231,59.444],[29.077,59.324],[28.275,59.45],[28.523,59.335],[27.999,59.256],[27.872,59.098],[28.115,59.117],[28.364,58.735],[28.62,58.895],[28.814,58.852],[28.793,59.004],[29.357,58.819],[29.196,58.689],[29.589,58.737],[29.652,59.088],[29.978,58.838],[29.875,58.658],[30.675,58.982],[30.131,58.634],[30.411,58.525],[30.699,58.69],[30.787,58.375],[31.427,58.523],[31.802,58.804],[32.143,58.676],[31.809,58.624],[32.409,58.464],[32.559,58.561],[32.76,58.423],[33.577,58.667],[34.037,58.368],[34.055,58.475],[34.413,58.389],[34.623,58.498],[34.901,58.299],[34.961,57.807],[34.727,57.454],[35.006,57.029],[35.881,57.088],[36.459,56.813],[36.907,56.875],[37.117,56.783],[37.385,56.956],[37.248,57.175],[37.583,57.182],[38.226,57.546],[38.363,57.756],[38.223,58.039],[38.431,58.049],[38.47,58.187],[38.779,57.976],[38.445,57.41],[39.156,57.302],[39.283,57.15],[40.647,56.802],[41.06,56.884],[40.752,57.166],[41.031,57.246],[40.984,57.156],[41.467,57.125],[41.34,56.848],[42.04,56.818],[42.295,56.566],[43.312,56.608],[43.518,56.721],[43.337,57.281],[43.758,57.008],[44.617,56.895],[45.016,56.39],[45.512,56.433],[45.32,56.775],[45.651,56.922],[46.513,56.398],[46.845,56.383],[46.859,56.377],[47.434,56.466],[47.397,56.59],[47.982,56.557],[48.332,56.696],[48.848,56.692],[49.049,56.905],[49.693,56.996],[50.127,57.307],[49.792,57.423],[49.888,57.534],[51.111,57.267],[53.35,57.633],[53.945,57.551],[55.243,57.624],[55.381,57.807],[55.641,57.773],[56.028,58.208],[56.821,58.442],[56.89,58.324],[56.464,58.084],[56.56,57.947],[56.79,57.863],[57.282,57.991],[57.719,57.856],[58.082,56.938],[58.869,56.533],[58.724,56.347],[58.894,56.075],[58.607,55.916],[59.082,55.626],[58.47,55.64],[58.872,55.241],[58.188,54.945],[57.836,55.473],[57.82,56.028],[57.112,55.853],[56.835,55.422],[57.453,54.875],[57.328,54.293],[57.939,54.131],[57.174,53.918],[56.997,53.623],[57.608,53.336],[57.218,52.711],[57.475,52.512],[57.336,52.269],[57.659,51.901],[57.921,51.926],[58.221,53.598],[58.975,54.376],[60.035,54.768],[61.086,55.41],[61.99,56.382],[63.015,56.692],[65.036,56.959],[65.944,57.408],[68.799,57.304],[71.632,56.902],[74.122,57.053],[76.134,56.553],[77.674,56.712],[80.931,56.545],[82.161,56.806],[83.793,57.476],[84.837,57.589],[85.451,57.446],[86.842,56.672],[87.314,56.694],[88.167,56.956],[89.466,56.897],[89.752,56.849],[89.931,56.541],[90.281,56.424],[91.965,56.043],[92.164,56.341],[92.906,56.517],[93.47,57.019],[93.779,56.978],[93.888,56.456],[94.327,56.228],[94.744,56.308],[94.73,56.928],[94.875,56.947],[95.357,56.612],[95.659,56.966],[95.959,56.939],[96.123,56.619],[96.524,56.407],[96.193,56.127],[96.157,55.367],[95.941,55.247],[95.411,55.418],[94.485,55.414],[93.1,55.973],[92.301,55.762],[92.192,55.405],[91.834,55.201],[92.374,54.976],[92.906,54.45],[93.13,53.582],[92.911,53.354],[92.96,53.01],[93.378,53.032],[94.397,53.615],[94.948,53.724],[95.033,53.779],[95.232,54.317],[95.284,54.484],[95.708,54.43],[96.058,54.549],[97.015,54.715],[97.464,55.091],[97.981,55.042],[98.648,54.587],[98.959,53.943],[99.543,53.889],[100.637,53.524],[101.065,53.227],[101.275,53.076],[101.503,52.843],[102.316,52.502],[102.921,52.063],[103.494,52.031],[103.278,51.782],[103.194,51.548],[103.371,51.489],[104.71,51.489],[103.719,51.732],[104.703,51.892],[104.284,52.305],[104.813,51.901],[105.025,51.892],[105.948,52.556],[106.594,52.797],[106.916,53.034],[106.751,53.116],[107.506,53.451],[107.557,53.621],[108.121,53.915],[109.045,55.063],[109.15,55.58],[109.587,55.774],[109.847,55.655],[109.397,54.477],[109.56,54.188],[109.025,53.644],[109.016,53.841],[108.751,53.869],[108.433,53.509],[108.829,53.584],[108.929,53.402],[108.488,53.299],[107.791,52.785],[107.076,52.609],[106.667,52.367],[106.337,51.62],[105.161,51.135],[103.671,50.746],[103.776,50.584],[105.161,50.403],[105.52,51.069],[106.576,51.556],[107.868,52.431],[109.321,52.727],[110.64,52.646],[110.828,52.498],[110.074,52.122],[109.805,52.081],[109.106,52.243],[108.46,52.095],[107.652,51.826],[107.384,51.58],[108.187,51.554],[107.293,51.063],[107.531,50.995],[108.151,51.12],[108.258,50.987],[107.276,50.5],[108.045,50.223],[108.119,49.944],[107.887,49.758],[106.533,49.565],[106.303,49.172],[106.823,48.945],[106.856,48.61],[107.119,48.509],[107.07,48.259],[107.374,48.12],[108.116,48.108],[109.068,48.483],[109.403,48.235],[109.87,48.568],[110.15,49.115],[110.545,49.234],[110.936,49.174],[111.124,49.016],[110.957,48.709],[111.559,48.914],[111.957,49.404],[111.95,49.665],[112.567,50.023],[112.841,50.552],[113.34,50.693],[113.584,51.005],[114.342,51.274],[114.329,51.898],[114.566,52.122],[115.451,52.248],[116.42,53.181],[116.621,53.161],[116.773,52.887],[117.35,52.842],[117.352,52.758],[116.068,51.778],[115.954,51.478],[116.304,51.581],[116.796,51.337],[116.99,51.362],[117.353,51.578],[117.824,51.509],[118.27,51.755],[119.322,51.783],[119.659,52.032],[120.521,52.708],[120.08,52.712],[119.948,52.955],[120.435,53.492],[120.479,53.819],[121.669,54.514],[122.678,54.371],[123.7,54.525],[125.401,54.376],[125.915,54.194],[126.794,54.282],[127.684,53.869],[127.855,53.994],[128.007,53.95],[128.019,54.092],[129.005,53.55],[129.976,53.462],[131.838,53.042],[131.983,52.963],[131.912,52.779],[130.996,52.087],[131.596,51.778],[131.183,51.001],[131.849,50.41],[131.323,49.495],[131.379,49.17],[131.837,49.136],[132.404,49.256],[133.499,49.895],[133.808,49.742],[133.9,49.355],[134.301,49.384],[134.78,50.131],[134.029,50.232],[133.987,50.539],[134.829,50.645],[135.096,50.364],[135.545,50.507],[136.032,50.407],[135.341,50.007],[135.34,49.905],[135.642,49.819],[137.029,50.432],[137.576,50.3],[137.891,50.055],[137.484,49.541],[137.692,49.001],[137.062,48.533],[137.138,48.072],[136.662,47.7],[136.82,47.215],[136.246,46.813],[136.227,46.632],[136.453,46.441],[135.62,45.899],[135.573,45.53],[135.899,45.633],[136.653,46.417],[137.376,46.678],[138.55,47.882],[139.06,48.095],[139.616,48.066],[140.189,48.481],[140.245,48.829],[140.487,48.963],[140.247,49.062],[140.54,49.509],[140.435,49.896],[140.682,50.052],[140.548,50.085],[140.487,50.517],[140.734,51.093],[140.61,51.27],[140.853,51.378],[140.737,51.506],[140.852,51.653],[141.109,51.7],[141.603,52.268],[141.392,52.245],[141.108,52.424],[141.215,52.904],[140.67,53.158],[141.187,53.03],[141.397,53.117],[141.415,53.294],[140.341,53.808],[139.758,54.329],[139.205,54.163],[138.637,54.319],[138.775,53.988],[138.411,53.546],[138.231,53.494],[138.601,53.832],[138.581,54.019],[137.865,53.559],[137.304,53.524],[137.236,53.617],[137.518,53.679],[137.825,53.955],[137.328,54.094],[137.704,54.33],[137.19,54.202],[137.196,53.859],[136.795,53.763],[136.849,54.614],[136.627,54.708],[135.905,54.575],[135.2,54.844],[135.32,55.021],[136.201,55.339],[136.513,55.623],[137.347,55.953],[138.061,56.46],[138.246,56.438],[138.122,56.571],[138.604,56.961],[140.322,57.774],[140.706,58.304],[141.806,58.819]],[[131.901,55.239],[131.72,54.941],[132.441,54.814],[132.138,54.678],[131.465,54.672],[131,54.338],[130.804,53.943],[131.31,53.606],[130.371,53.667],[130.109,53.911],[130.231,54.211],[131.281,55.131],[131.258,55.559],[130.939,55.593],[130.263,55.379],[129.61,55.62],[128.714,55.507],[128.55,55.728],[129.032,55.822],[129.533,56.198],[129.713,56.142],[129.527,55.821],[129.769,55.723],[130.199,55.757],[130.452,55.913],[130.413,56.257],[130.979,56.409],[130.934,55.997],[131.256,56.018],[131.864,56.37],[132.114,56.323],[131.995,56.104],[132.132,55.956],[132.588,55.955],[133.279,56.501],[133.512,56.401],[133.156,56.064],[133.468,55.763],[135.088,55.858],[136.145,56.104],[136.241,55.865],[133.63,55.406],[133.253,55.532],[132.435,55.483],[132.057,55.422],[131.901,55.239]],[[126.74,65.086],[127.6,64.96],[127.3,64.509],[126.948,64.661],[126.74,65.086]],[[110.49,53.226],[109.763,52.996],[109.256,53.027],[110.002,53.686],[110.246,53.669],[110.667,53.885],[111.19,54.579],[111.639,54.555],[111.779,55.099],[111.628,55.463],[112.182,55.614],[112.069,55.362],[112.505,55.218],[112.273,54.95],[112.451,54.652],[112.313,54.452],[110.49,53.226]],[[110.049,54.345],[109.731,54.21],[109.651,54.6],[110.172,55.223],[110.071,55.768],[110.131,55.884],[110.449,55.913],[110.731,55.836],[110.799,55.658],[110.049,54.647],[110.049,54.345]],[[126.73,69.396],[127.241,69.373],[127.485,68.968],[126.709,68.891],[126.325,68.985],[126.73,69.396]],[[115.613,70.909],[116.276,70.86],[116.315,70.652],[115.346,70.678],[115.613,70.909]],[[121.275,70.379],[121.851,70.42],[122.019,70.316],[121.1,70.083],[120.85,70.231],[121.275,70.379]],[[120.252,70.327],[120.095,70.118],[119.785,70.169],[119.881,70.349],[120.252,70.327]],[[110.996,69.753],[111.512,69.861],[111.956,69.604],[111.972,69.334],[111.454,69.396],[110.996,69.753]],[[113.141,69.312],[113.266,69.636],[113.928,69.359],[113.685,69.199],[113.141,69.312]],[[109.386,69.19],[108.994,69.2],[109.44,69.494],[110.422,69.577],[110.911,69.361],[110.533,69.21],[109.386,69.19]],[[93.053,66.908],[93.594,66.853],[94.549,66.064],[94.535,65.595],[94.885,65.377],[94.486,65.191],[93.652,65.307],[93.847,65.707],[93.5,66.036],[93.524,66.426],[93.23,66.581],[92.146,66.606],[91.677,66.803],[93.053,66.908]],[[139.932,59.629],[140.103,59.779],[140.413,59.752],[140.66,59.385],[140.378,59.175],[140.303,58.817],[140.057,58.736],[139.832,58.814],[139.932,59.629]],[[115.067,58.888],[114.536,58.953],[114.693,59.322],[114.945,59.427],[115.228,59.162],[115.795,58.953],[115.067,58.888]],[[115.56,59.241],[115.447,59.368],[115.718,59.515],[116.331,59.473],[116.335,59.294],[115.56,59.241]],[[111.477,58.103],[111.767,58.286],[111.907,58.667],[112.184,58.642],[112.354,58.396],[112.094,58.11],[111.256,57.734],[110.822,57.676],[110.713,57.91],[110.922,58.064],[111.477,58.103]],[[139.335,58.553],[139.608,58.631],[139.858,58.561],[138.973,58.11],[138.523,58.125],[138.609,58.328],[139.335,58.553]],[[130.559,58.326],[130.745,58.117],[130.096,57.963],[128.922,57.388],[128.165,57.243],[128.246,57.135],[128.024,57],[127.266,56.897],[127.082,56.684],[126.555,56.639],[126.444,56.334],[125.795,56.383],[126.14,56.822],[126.593,56.902],[126.875,57.261],[127.497,57.322],[127.893,57.725],[128.997,57.934],[129.949,58.31],[130.559,58.326]],[[138.254,57.84],[138.462,57.755],[138.265,57.512],[137.629,57.446],[138.254,57.84]],[[132.422,57.79],[132.647,57.593],[132.419,57.333],[131.544,57.635],[131.654,57.755],[132.422,57.79]],[[137.473,57.229],[137.6,57.099],[137.351,56.932],[136.898,56.856],[136.604,56.933],[136.728,57.189],[137.057,57.053],[137.473,57.229]],[[124.547,56.863],[124.718,56.435],[124.332,56.117],[124.215,56.362],[121.947,57.053],[121.922,57.209],[122.156,57.325],[123.095,57.391],[124.055,56.903],[124.547,56.863]],[[120.248,56.822],[120.092,56.437],[120.752,56.238],[120.27,55.954],[119.83,55.882],[119.411,55.953],[119.439,56.385],[119.277,56.485],[118.989,56.009],[118.794,55.972],[117.923,56.208],[117.418,56.047],[116.908,56.068],[116.45,55.859],[116.215,55.946],[116.504,56.184],[118.058,56.522],[118.889,56.886],[120.248,56.822]],[[118.08,55.864],[118.115,55.625],[116.943,55.493],[116.95,55.637],[118.08,55.864]],[[115.019,55.725],[115.218,55.468],[114.918,55.381],[114.757,55.58],[115.019,55.725]],[[113.559,55.45],[112.952,55.33],[112.502,55.563],[115.032,56.093],[115.152,56.035],[114.225,55.511],[113.559,55.45]],[[113.777,55.933],[113.251,55.75],[112.595,55.694],[111.945,55.921],[112.048,56.059],[112.645,55.976],[112.914,56.244],[113.566,56.327],[113.521,56.493],[112.15,56.204],[111.924,56.341],[111.11,56.267],[110.572,56.488],[109.315,56.182],[109.064,56.204],[109.045,56.317],[109.382,56.484],[109.573,56.871],[110.404,57.021],[110.888,57.398],[111.102,57.344],[110.511,56.762],[111.378,57.178],[111.173,56.662],[111.838,56.899],[112.297,56.583],[112.52,56.6],[112.655,56.842],[112.261,57.069],[112.384,57.175],[114.042,57.007],[114.25,57.252],[113.891,57.454],[114.013,57.694],[115.068,57.399],[115.797,57.499],[115.949,57.413],[115.819,57.276],[114.655,57.02],[114.832,56.684],[113.777,55.933]],[[111.528,56.013],[111.505,55.77],[111.142,55.782],[111.204,56.025],[111.528,56.013]],[[116.755,57.501],[117.557,57.79],[117.855,57.78],[117.752,57.434],[118.268,57.637],[118.521,57.556],[117.723,56.806],[116.474,56.446],[116.654,56.704],[116.158,56.533],[115.821,56.879],[116.465,57.13],[117.401,57.121],[117.52,57.237],[117.372,57.358],[116.771,57.374],[116.755,57.501]],[[119.298,57.646],[119.019,57.947],[119.605,57.884],[119.718,57.466],[119.95,57.574],[119.878,57.935],[120.205,58.113],[120.276,58.428],[120.442,58.481],[120.989,58.334],[120.677,57.817],[120.918,57.639],[120.116,57.06],[119.498,57.062],[119.298,57.646]],[[125.904,58.149],[125.468,58.321],[125.7,58.55],[126.231,58.408],[126.23,58.236],[125.904,58.149]],[[126.156,57.807],[126.042,57.903],[126.289,58.092],[126.805,58.072],[126.632,57.84],[126.156,57.807]],[[125.109,57.76],[125.54,57.651],[125.545,57.491],[125.216,57.436],[124.651,57.535],[124.79,57.752],[125.109,57.76]],[[99.389,55.111],[99.848,54.987],[100.803,54.952],[100.819,54.864],[100.43,54.793],[100.665,54.5],[100.243,54.481],[99.679,54.835],[99.224,54.921],[99.119,55.039],[99.389,55.111]],[[101.847,54.5],[102.137,54.477],[102.311,54.278],[102.174,54.098],[101.784,54.039],[101.388,54.343],[101.847,54.5]],[[102.81,54.066],[103.187,54.386],[103.364,54.144],[104.411,53.732],[103.848,53.314],[104.999,53.325],[105.411,52.896],[104.127,52.373],[103.868,52.341],[103.091,52.618],[103.09,52.861],[102.656,53.087],[102.773,53.505],[102.062,53.698],[102.238,53.968],[102.81,54.066]],[[113.457,55.208],[113.955,55.234],[113.894,55.032],[113.48,55.051],[113.457,55.208]],[[117.849,55.063],[117.843,54.793],[118.075,54.69],[117.48,54.547],[117.514,54.861],[117.849,55.063]],[[114.82,54.562],[114.663,54.313],[114.093,54.243],[114.227,54.5],[114.82,54.562]],[[116.674,54.237],[116.993,54.316],[116.211,53.631],[116.272,53.943],[116.674,54.237]],[[117.027,53.632],[117.227,54.063],[117.985,53.844],[117.92,53.665],[117.578,53.534],[117.027,53.632]],[[115.321,53.593],[114.887,53.233],[114.386,53.206],[114.92,53.839],[115.709,54.005],[115.72,53.834],[115.321,53.593]],[[113.062,54.589],[113.024,54.785],[113.483,54.919],[113.442,54.714],[113.062,54.589]],[[112.926,54.902],[112.714,54.883],[112.986,55.161],[113.099,55.072],[112.926,54.902]],[[114.166,54.925],[114.686,55.025],[114.492,54.81],[114.151,54.799],[114.166,54.925]],[[115.11,52.903],[115.36,53.15],[115.544,53.115],[115.297,52.894],[115.11,52.903]],[[151.978,60.604],[152.857,60.59],[152.803,60.186],[152.598,60.137],[151.687,60.334],[150.906,60.282],[151.357,60.619],[151.978,60.604]],[[139.42,60.493],[139.148,60.506],[138.939,60.736],[139.581,60.674],[139.42,60.493]],[[138.759,60.425],[138.21,60.461],[138.539,60.829],[138.759,60.425]],[[149.239,60.652],[148.951,60.586],[148.53,60.96],[148.938,60.986],[149.239,60.652]],[[150.21,60.159],[149.61,60.078],[149.103,60.396],[149.626,60.668],[149.725,60.967],[150.098,61.02],[150.675,60.628],[150.21,60.159]],[[140.563,61.176],[140.559,60.918],[139.89,61.135],[139.707,60.889],[138.83,60.943],[139.572,61.283],[140.123,61.322],[140.563,61.176]],[[151.607,61.327],[151.717,61.266],[151.944,61.406],[152.206,61.329],[152.475,61.169],[152.401,61.025],[152.957,60.791],[152.811,60.696],[151.134,61.123],[151.331,61.398],[151.607,61.327]],[[147.447,61.346],[147.512,61.136],[148.07,61.229],[148.186,60.945],[147.389,60.626],[147.021,60.771],[146.06,60.593],[145.766,60.389],[145.522,60.434],[145.514,60.574],[146.491,61.001],[146.039,61.256],[146.09,61.388],[146.671,61.291],[147.483,61.51],[147.447,61.346]],[[150.993,61.447],[150.476,61.482],[151.151,61.871],[151.332,61.733],[150.993,61.447]],[[153.095,61.652],[152.807,61.617],[152.635,61.757],[153.122,62.031],[153.39,61.918],[153.095,61.652]],[[147.163,61.722],[146.756,61.66],[146.101,62.291],[146.376,62.29],[147.28,61.863],[147.163,61.722]],[[153.303,62.2],[152.628,62.185],[152.343,62.023],[152.041,62.141],[152.23,62.461],[152.717,62.533],[153.354,62.375],[153.303,62.2]],[[147.178,62.969],[148.174,62.89],[148.248,62.613],[146.982,62.861],[147.178,62.969]],[[140.632,62.765],[141.907,62.992],[142.726,62.814],[143.006,62.265],[143.35,62.282],[143.48,62.577],[144.023,62.367],[144.341,62.458],[145.118,62.356],[145.418,62.461],[145.069,62.952],[145.295,63.048],[146.143,62.56],[145.478,62.178],[145.846,61.522],[145.601,61.249],[144.773,61.256],[144.672,61.505],[144.287,61.263],[144.165,61.433],[144.405,61.837],[144.84,62.021],[144.12,62.146],[143.953,61.821],[143.535,61.94],[143.59,61.588],[143.314,61.472],[143.016,61.633],[143.003,61.94],[142.59,61.62],[142.43,61.88],[142.031,61.986],[141.844,61.891],[142.044,61.518],[141.756,61.418],[141.176,61.656],[141.279,62.071],[140.861,61.802],[140.652,61.83],[140.55,61.966],[140.904,62.173],[140.769,62.301],[139.673,61.464],[139.114,61.306],[138.254,61.256],[138.317,61.477],[139.458,61.881],[139.292,62.048],[138.385,62.168],[138.438,62.301],[139.206,62.409],[137.788,62.472],[137.471,62.516],[137.383,62.672],[141.073,63.261],[140.632,62.765]],[[149.832,62.813],[149.256,62.81],[148.986,63.295],[149.796,62.977],[149.832,62.813]],[[137.887,62.929],[137.1,63.169],[136.857,63.39],[137.837,63.301],[138.028,63.184],[137.887,62.929]],[[135.938,63.339],[135.499,63.417],[135.984,63.656],[136.153,63.538],[135.938,63.339]],[[156.95,63.146],[156.641,63.111],[156.345,63.243],[156.498,63.453],[156.235,63.721],[156.464,64.064],[157.258,63.634],[157.084,63.539],[157.249,63.342],[156.95,63.146]],[[138.42,63.796],[138.146,63.582],[137.741,63.758],[136.925,63.612],[136.564,63.641],[136.291,63.895],[136.394,64.039],[136.827,64.1],[138.224,63.965],[138.42,63.796]],[[143.422,64.367],[144.214,64.181],[144.08,63.994],[144.762,63.693],[144.622,63.476],[143.643,63.615],[143.276,63.784],[142.889,64.197],[143.422,64.367]],[[157.241,64.446],[156.422,64.129],[155.889,64.223],[155.898,64.579],[156.387,64.409],[156.906,64.622],[157.241,64.446]],[[135.791,64.556],[136.255,64.496],[135.905,64.146],[135.406,64.279],[135.161,64.794],[135.335,64.97],[136.246,65.012],[136.25,64.809],[135.791,64.556]],[[160.833,64.27],[159.306,63.832],[158.391,63.303],[157.652,63.347],[157.954,63.731],[157.633,64.254],[157.755,64.457],[158.148,64.502],[158.699,64.206],[159.072,64.568],[159.363,64.588],[159.482,64.259],[159.788,64.247],[159.479,65.259],[160.037,65.313],[160.344,65.21],[160.298,65.051],[160.746,64.841],[160.446,64.618],[161.015,64.538],[160.833,64.27]],[[136.541,65.3],[136.3,65.267],[136.44,65.489],[136.784,65.393],[136.541,65.3]],[[138.969,64.875],[139.5,65.091],[140.149,65.1],[139.884,64.7],[140.82,64.535],[140.798,64.417],[140.706,64.333],[139.928,64.386],[139.85,64.294],[140.97,63.973],[139.956,63.554],[140.497,63.512],[141.166,63.626],[140.445,63.321],[138.845,63.089],[138.628,63.208],[138.858,63.35],[138.594,63.512],[138.875,63.641],[138.878,63.874],[139.452,63.944],[139.388,64.07],[138.711,64.276],[138.124,64.19],[138.021,64.368],[137.352,64.193],[137.293,64.405],[136.752,64.216],[136.52,64.34],[137.331,65.605],[137.673,65.294],[137.281,65.061],[138.969,64.875]],[[158.019,65.748],[158.623,65.725],[158.731,65.535],[157.55,65.681],[157.645,65.787],[158.019,65.748]],[[135.496,65.638],[135.354,65.38],[134.819,65.407],[134.243,65.149],[134.048,65.182],[134.219,65.734],[134.892,65.584],[135.493,65.91],[135.69,65.816],[135.496,65.638]],[[137.629,65.757],[137.06,65.826],[137.333,65.915],[137.635,65.876],[137.629,65.757]],[[144.353,65.514],[144.859,65.506],[145.196,65.76],[146.554,65.413],[146.386,64.853],[147.226,64.675],[147.836,64.339],[147.938,63.985],[147.564,63.687],[147.878,63.352],[147.765,63.183],[147.254,63.149],[146.361,63.438],[146.442,63.612],[145.835,63.759],[146.357,63.83],[146.392,64.036],[144.703,64.125],[144.93,64.5],[143.965,64.478],[143.479,64.966],[143.943,65.345],[143.59,65.808],[143.915,65.973],[144.382,65.871],[144.353,65.514]],[[155.429,65.859],[154.752,65.824],[154.348,65.936],[155.23,66.077],[155.584,66],[155.429,65.859]],[[136.428,65.664],[136.157,65.722],[136.417,66.15],[136.841,66.273],[137.027,65.972],[136.428,65.664]],[[135.362,66.078],[134.146,65.957],[133.893,66.019],[134.094,66.179],[135.12,66.389],[135.422,66.263],[135.362,66.078]],[[156.803,66.464],[157.665,66.469],[157.439,66.238],[158.428,65.912],[157.258,65.921],[156.671,66.238],[155.852,66.18],[155.038,66.263],[155.242,66.448],[156.603,66.583],[156.803,66.464]],[[153.859,66.656],[154.617,66.732],[154.995,66.641],[154.26,66.203],[153.644,66.356],[152.989,66.26],[153.326,66.717],[153.633,66.797],[153.859,66.656]],[[144.15,67.315],[144.423,67.307],[144.659,67.491],[144.991,67.329],[145.49,67.398],[145.203,66.93],[145.793,66.826],[147.157,66.204],[148.879,66.015],[148.967,65.815],[149.726,65.725],[149.593,65.334],[150.282,64.966],[149.069,64.596],[148.639,64.742],[149.322,65.071],[149.176,65.269],[148.495,64.932],[147.995,64.871],[147.675,64.95],[147.22,65.697],[146.541,65.794],[146.091,66.07],[145.267,66.108],[144.086,66.47],[144.21,66.876],[143.548,67.26],[143.98,67.528],[144.15,67.315]],[[141.991,67.089],[141.401,67.097],[141.37,67.443],[142.192,67.774],[142.701,67.813],[142.956,67.74],[142.329,67.563],[141.991,67.089]],[[148.651,67.366],[147.549,67.819],[148.444,68.282],[149.362,67.957],[148.823,67.778],[148.908,67.503],[148.651,67.366]],[[137.279,68.783],[138.053,68.742],[137.829,68.492],[138.678,68.323],[138.577,67.994],[139.708,67.457],[140.602,67.241],[140.492,66.933],[140.82,66.682],[141.234,66.535],[141.989,66.569],[142.917,66.331],[142.693,66.18],[141.782,66.363],[141.479,66.276],[142.133,65.975],[141.624,65.603],[142.814,65.036],[142.476,64.939],[141.458,65.046],[140.536,64.943],[140.335,65.38],[139.43,65.301],[138.624,65.921],[137.775,65.945],[137.393,66.069],[136.927,66.398],[137.966,67.237],[135.649,68.037],[136.011,68.433],[136.805,68.15],[137.237,68.201],[137.161,68.446],[136.607,68.723],[136.775,68.815],[137.279,68.783]],[[148.652,68.604],[148.31,68.545],[148.12,68.748],[149.095,69.205],[149.598,69.05],[148.652,68.604]],[[132.936,68.468],[132.335,68.425],[132.167,68.693],[133.32,69.557],[133.57,70.088],[134.204,70.154],[133.728,68.95],[132.936,68.468]],[[135.281,54.29],[135.58,54.209],[135.113,53.989],[134.983,53.557],[135.451,53.163],[135.178,52.904],[135.349,52.652],[134.99,52.332],[135.068,52.087],[134.432,51.972],[134.277,52.205],[133.5,52.003],[133.428,52.115],[133.759,52.369],[133.349,52.486],[133.214,52.766],[133.376,52.839],[133.745,52.678],[133.944,52.889],[134.188,52.781],[134.471,52.875],[134.563,53.047],[134.391,53.253],[134.624,53.534],[134.443,53.799],[134.652,54.03],[134.522,54.235],[135.281,54.29]],[[133.212,51.068],[134.406,51.583],[135.05,51.553],[135.049,51.297],[133.212,51.068]],[[59.226,65.882],[59.012,65.995],[59.406,66.088],[59.522,65.962],[59.226,65.882]],[[56.298,66.378],[56.843,65.999],[57.116,65.035],[56.72,65.128],[56.44,65.997],[56.004,66.287],[55.315,66.089],[55.179,66.172],[55.63,66.357],[56.298,66.378]],[[58.02,66.083],[58.177,66.282],[58.701,66.425],[58.676,66.292],[58.02,66.083]],[[55.211,66.419],[54.32,66.173],[53.776,66.302],[54.932,66.547],[55.281,66.526],[55.211,66.419]],[[60.004,66.243],[59.913,66.387],[60.463,66.551],[60.004,66.243]],[[57.055,66.178],[56.792,66.27],[57.003,66.447],[58.495,66.589],[58.29,66.443],[57.055,66.178]],[[47.113,57.003],[47.865,57.112],[48.114,57.021],[47.669,56.835],[47.111,56.823],[47.016,56.664],[46.47,56.888],[46.671,57.149],[47.113,57.003]],[[46.786,57.811],[47.474,57.839],[47.593,57.741],[46.516,57.329],[46.081,57.272],[45.738,57.413],[46.452,57.693],[46.126,57.833],[46.786,57.811]],[[44.746,57.913],[44.531,58.042],[44.973,58.193],[44.982,57.991],[44.746,57.913]],[[53.685,58.215],[53.489,58.16],[53.086,58.345],[53.478,58.356],[53.685,58.215]],[[52.574,58.313],[52.345,58.258],[52.106,58.465],[52.422,58.454],[52.574,58.313]],[[51.583,58.465],[50.907,58.443],[50.777,58.607],[51.201,58.727],[51.583,58.465]],[[36.154,58.759],[35.937,58.674],[36.271,58.359],[36.229,58.062],[36.517,58.017],[35.886,57.941],[36.061,57.781],[36.703,57.73],[36.903,57.412],[35.411,57.762],[35.751,58.009],[35.497,58.095],[35.533,58.294],[35.776,58.378],[35.944,58.217],[36.097,58.31],[35.76,58.674],[36.059,58.824],[36.154,58.759]],[[11.912,62.359],[11.835,62.175],[11.68,62.267],[11.668,62.152],[11.46,62.164],[11.907,61.536],[11.699,61.606],[11.559,61.431],[11.03,62.299],[11.319,62.317],[11.297,62.452],[11.498,62.392],[11.449,62.498],[11.912,62.359]],[[34.46,62.882],[35.836,62.439],[35.651,62.048],[36.433,61.397],[36.458,61.178],[35.802,60.935],[35.869,60.852],[35.556,60.905],[35.379,61.052],[35.123,60.99],[34.877,61.093],[34.828,61.015],[34.838,61.229],[35.253,61.162],[35.027,61.131],[35.197,61.039],[35.319,61.08],[35.548,61],[35.694,61.129],[35.483,61.365],[34.322,61.815],[34.309,61.894],[34.561,61.772],[34.622,61.902],[33.937,62.521],[34.73,62.02],[34.446,62.47],[34.783,62.24],[34.779,62.314],[34.463,62.591],[34.843,62.274],[34.855,62.315],[35.058,62.042],[35.012,62.252],[35.358,62.116],[35.595,62.257],[35.334,62.571],[34.856,62.632],[35.025,62.422],[34.46,62.882]],[[32.795,60.861],[32.954,60.64],[32.786,60.455],[32.585,60.521],[32.569,60.19],[32.265,60.128],[31.731,60.255],[31.551,59.935],[31.165,59.911],[30.52,60.832],[29.796,61.214],[30.022,61.146],[29.894,61.303],[30.068,61.223],[30.261,61.306],[30.226,61.518],[30.633,61.536],[30.841,61.775],[32.511,61.125],[32.795,60.861]]],[[[-56.379,47.099],[-56.364,46.786],[-56.253,46.869],[-56.379,47.099]]],[[[-55.9,47.608],[-55.893,47.618],[-55.947,47.656],[-55.958,47.695],[-56.125,47.652],[-55.9,47.608]]],[[[-53.898,48.196],[-53.871,48.095],[-53.554,48.096],[-53.538,48.201],[-53.701,48.149],[-53.898,48.196]]],[[[-54.565,49.644],[-54.781,49.534],[-54.901,49.595],[-54.893,49.478],[-54.603,49.552],[-54.565,49.644]]],[[[-54.257,49.576],[-54.045,49.647],[-54.108,49.744],[-54.308,49.717],[-54.257,49.576]]],[[[-63.87,49.871],[-64.151,49.942],[-64.523,49.856],[-63.109,49.229],[-62.251,49.057],[-61.682,49.118],[-61.9,49.347],[-62.705,49.656],[-63.87,49.871]]],[[[-55.889,51.538],[-55.9,51.624],[-56.695,51.333],[-56.926,51.002],[-57.097,51.014],[-57.088,50.793],[-57.407,50.712],[-57.166,50.627],[-57.384,50.603],[-57.825,49.913],[-57.695,49.824],[-57.833,49.849],[-57.975,49.683],[-57.732,49.467],[-57.997,49.563],[-58.265,49.317],[-57.955,49.239],[-58.153,49.088],[-57.903,48.971],[-58.379,49.06],[-58.378,49.15],[-58.723,48.567],[-58.914,48.561],[-58.893,48.708],[-59.238,48.537],[-59.271,48.468],[-58.735,48.558],[-58.436,48.49],[-59.412,47.918],[-59.319,47.639],[-58.447,47.642],[-58.334,47.759],[-58.371,47.654],[-57.926,47.709],[-56.81,47.538],[-56.352,47.621],[-56.334,47.795],[-56.181,47.639],[-56.179,47.879],[-56.084,47.701],[-55.796,47.968],[-55.942,47.664],[-55.877,47.619],[-55.632,47.686],[-56.141,47.469],[-55.845,47.569],[-55.948,47.438],[-55.648,47.551],[-55.607,47.436],[-55.448,47.469],[-55.407,47.727],[-55.153,47.578],[-54.74,47.674],[-55.291,47.405],[-55.509,47.147],[-55.989,46.999],[-55.856,46.876],[-55.398,46.878],[-54.872,47.383],[-54.64,47.394],[-54.477,47.564],[-54.624,47.364],[-54.439,47.435],[-54.178,47.861],[-53.828,47.42],[-54.014,47.314],[-54.211,46.826],[-53.995,46.844],[-53.579,47.203],[-53.634,46.643],[-53.297,46.744],[-53.174,46.627],[-52.667,47.484],[-52.803,47.809],[-53.116,47.441],[-53.29,47.551],[-52.86,48.104],[-52.956,48.173],[-53.297,48.018],[-53.665,47.522],[-53.871,47.801],[-53.621,48.054],[-53.828,48.001],[-53.688,48.069],[-53.938,48.081],[-53.974,48.193],[-53.954,48.235],[-53.646,48.176],[-53.334,48.381],[-53.214,48.347],[-53.01,48.604],[-53.096,48.699],[-53.281,48.521],[-53.456,48.621],[-53.546,48.467],[-53.711,48.525],[-53.892,48.367],[-53.836,48.473],[-54.086,48.41],[-53.629,48.689],[-53.994,48.727],[-53.86,48.838],[-54.227,48.766],[-53.612,49.038],[-53.477,49.255],[-54.064,49.47],[-54.38,49.436],[-54.492,49.302],[-54.482,49.562],[-54.841,49.28],[-54.862,49.413],[-54.927,49.282],[-55.099,49.362],[-55.337,49.079],[-55.167,49.538],[-55.337,49.536],[-55.305,49.349],[-55.409,49.505],[-55.589,49.366],[-55.549,49.492],[-55.664,49.395],[-55.85,49.533],[-56.142,49.43],[-55.855,49.692],[-56.19,49.62],[-55.478,49.967],[-56.15,49.978],[-56.165,50.16],[-56.85,49.58],[-56.728,50.145],[-56.114,50.68],[-56.19,50.889],[-56.077,50.743],[-55.732,51.085],[-55.775,51.203],[-56.007,51.174],[-56.082,51.354],[-55.592,51.296],[-55.426,51.567],[-55.739,51.582],[-55.688,51.478],[-55.889,51.538]]],[[[-55.867,53.483],[-55.957,53.425],[-55.753,53.401],[-55.867,53.483]]],[[[-56.918,53.745],[-56.8,53.792],[-56.989,53.809],[-56.918,53.745]]],[[[-60.951,56.011],[-61.104,56.181],[-61.234,56.054],[-60.951,56.011]]],[[[-61.583,56.391],[-61.795,56.401],[-61.418,56.317],[-61.583,56.391]]],[[[-61.381,56.758],[-61.468,56.949],[-61.716,56.665],[-61.391,56.608],[-61.381,56.758]]],[[[-61.848,57.463],[-61.782,57.547],[-61.99,57.58],[-61.967,57.452],[-61.606,57.405],[-61.653,57.525],[-61.848,57.463]]],[[[-61.651,57.767],[-61.786,57.843],[-61.906,57.752],[-61.651,57.767]]],[[[-70.019,58.799],[-69.797,58.863],[-69.849,59.059],[-69.659,58.791],[-69.539,58.852],[-69.77,59.244],[-70.066,59.337],[-70.345,59.254],[-70.019,58.799]]],[[[-15.991,66.52],[-16.564,66.494],[-16.428,66.141],[-16.934,66.108],[-17.144,66.213],[-17.55,65.91],[-17.913,66.144],[-18.299,66.173],[-18.069,65.642],[-18.791,66.191],[-19.453,66.055],[-19.452,65.724],[-20.095,66.123],[-20.421,66.084],[-20.288,65.661],[-20.474,65.486],[-20.664,65.689],[-20.927,65.587],[-21.084,65.158],[-21.205,65.434],[-21.478,65.439],[-21.309,65.595],[-21.482,65.557],[-21.778,65.764],[-21.338,65.732],[-21.289,65.924],[-21.603,65.952],[-21.342,66.014],[-21.55,66.091],[-21.669,66.019],[-22.434,66.463],[-23.131,66.429],[-23.073,66.308],[-22.61,66.366],[-22.708,66.292],[-22.367,66.273],[-22.989,66.225],[-22.379,66.086],[-22.436,65.837],[-22.524,65.973],[-22.653,65.826],[-22.68,66.054],[-22.824,65.908],[-23.474,66.198],[-23.422,66.101],[-23.666,66.11],[-23.371,65.985],[-23.816,66.008],[-23.213,65.836],[-23.873,65.865],[-23.192,65.774],[-23.537,65.718],[-23.289,65.67],[-23.57,65.605],[-24.101,65.806],[-23.806,65.529],[-24.318,65.636],[-24.542,65.496],[-23.879,65.401],[-22.951,65.606],[-22.726,65.497],[-22.763,65.624],[-22.653,65.523],[-22.556,65.628],[-22.495,65.503],[-22.109,65.593],[-22.384,65.491],[-22.23,65.423],[-22.108,65.524],[-21.699,65.448],[-22.561,65.169],[-22.071,65.103],[-21.742,65.2],[-21.82,65.027],[-22.584,64.973],[-22.724,65.074],[-23.11,64.916],[-23.19,65.014],[-23.254,64.921],[-24.06,64.889],[-23.84,64.724],[-22.409,64.817],[-22.171,64.452],[-21.508,64.644],[-22.102,64.313],[-21.363,64.383],[-21.759,64.339],[-21.926,64.227],[-21.699,64.177],[-22.037,64.156],[-22.046,64.045],[-22.541,63.974],[-22.703,64.079],[-22.689,63.804],[-21.619,63.822],[-21.054,63.943],[-21.175,63.874],[-20.82,63.777],[-20.701,63.867],[-20.57,63.704],[-20.414,63.836],[-20.311,63.728],[-20.554,63.706],[-20.197,63.541],[-18.71,63.389],[-18.207,63.459],[-18.315,63.544],[-18.213,63.467],[-17.933,63.527],[-17.717,63.772],[-16.999,63.79],[-16.967,63.916],[-16.967,63.783],[-16.926,63.862],[-16.788,63.798],[-15.297,64.33],[-14.883,64.277],[-14.539,64.404],[-14.488,64.659],[-14.276,64.647],[-14.511,64.796],[-14.08,64.707],[-13.765,64.86],[-14.051,64.932],[-13.701,64.917],[-14.231,65.03],[-13.679,64.981],[-13.499,65.068],[-13.622,65.191],[-14.035,65.191],[-13.57,65.258],[-14.005,65.269],[-13.608,65.501],[-14.246,65.657],[-14.564,65.493],[-14.34,65.785],[-14.89,65.754],[-14.619,65.993],[-15.176,66.114],[-14.558,66.381],[-14.93,66.381],[-15.382,66.141],[-15.991,66.52]],[[-16.677,64.578],[-16.199,64.686],[-15.318,64.499],[-15.71,64.215],[-16.565,63.93],[-16.919,64.099],[-17.362,63.949],[-17.317,64.169],[-17.998,64.105],[-18.077,64.287],[-17.598,64.635],[-16.951,64.757],[-16.636,64.697],[-16.677,64.578]],[[-18.746,64.602],[-19.129,64.727],[-18.85,64.905],[-18.492,64.797],[-18.746,64.602]],[[-18.963,63.537],[-19.502,63.62],[-19.07,63.799],[-18.839,63.687],[-18.963,63.537]],[[-20.368,64.433],[-20.664,64.56],[-19.812,64.809],[-19.812,64.593],[-20.368,64.433]]],[[[-157.506,60.217],[-157.112,60.228],[-156.744,60.404],[-156.168,60.218],[-155.846,60.422],[-155.501,60.283],[-155.811,59.962],[-155.605,59.725],[-154.279,59.787],[-154.58,60.019],[-154.137,60.296],[-154.832,60.302],[-155.179,60.485],[-154.82,60.757],[-153.825,60.901],[-153.839,61.17],[-154.123,61.086],[-154.442,61.22],[-154.354,61.455],[-154.611,61.791],[-155.194,61.632],[-155.319,62.048],[-153.599,62.488],[-152.697,62.968],[-151.333,63.331],[-151.36,63.453],[-150.318,64.03],[-150.276,63.767],[-149.971,63.96],[-149.361,64.06],[-149.132,63.924],[-148.977,64.203],[-147.796,64.222],[-146.673,64.073],[-146.091,63.836],[-146.088,63.661],[-145.919,63.832],[-145.577,63.856],[-144.145,63.666],[-144.004,63.469],[-142.579,63.189],[-142.113,62.741],[-141.626,62.537],[-141.35,62.671],[-141.691,62.981],[-143.028,63.476],[-143.77,63.484],[-143.927,63.727],[-144.86,63.939],[-144.681,64.056],[-145.252,64.17],[-145.677,64.417],[-146.329,64.379],[-146.4,64.55],[-146.98,64.54],[-147.001,64.7],[-146.472,65.021],[-146.988,65.006],[-147.215,65.137],[-147.589,65.051],[-147.757,65.203],[-148.182,65.213],[-148.018,65.52],[-148.541,65.68],[-148.027,65.74],[-148.284,65.82],[-147.89,66.031],[-146.449,65.867],[-145.754,65.916],[-145.803,65.77],[-145.492,65.669],[-142.162,65.075],[-142.468,65.375],[-143.284,65.52],[-143.076,65.743],[-141.956,65.784],[-141.351,66.072],[-141.726,66.964],[-141.515,67.094],[-139.677,67.29],[-139.662,67.091],[-139.064,67.293],[-138.933,67.135],[-138.581,67.493],[-137.793,67.423],[-137.655,66.976],[-137.34,67.084],[-137.118,66.922],[-136.865,67.107],[-136.787,67.488],[-137.01,67.418],[-137.279,67.587],[-137.66,67.533],[-137.472,68.045],[-138.363,67.954],[-137.921,68.294],[-138.781,68.475],[-139.153,68.481],[-138.889,68.413],[-139.297,68.35],[-139.718,68.483],[-139.368,68.673],[-140.128,68.808],[-140.793,68.588],[-141.07,68.73],[-141.514,68.244],[-141.947,68.256],[-142.854,67.709],[-143.656,67.505],[-143.886,67.61],[-143.625,67.829],[-144.692,67.497],[-146.071,67.43],[-147.062,67.112],[-147.316,67.226],[-148.285,67.246],[-147.619,67.079],[-148.593,66.992],[-149.472,66.687],[-149.598,66.607],[-149.239,66.529],[-149.596,66.397],[-150.261,66.39],[-150.176,66.249],[-151.037,66.023],[-152.388,65.931],[-150.602,66.281],[-150.872,66.473],[-150.509,66.635],[-150.575,66.992],[-150.042,67.079],[-150.237,67.176],[-155.163,67.024],[-159.706,67.455],[-159.913,67.7],[-160.002,67.155],[-160.35,67.236],[-160.35,67.445],[-160.713,67.369],[-160.974,67.485],[-161.619,67.468],[-162.609,67.164],[-162.258,66.991],[-161.615,67.001],[-161.197,66.981],[-161.093,66.767],[-160.815,66.738],[-160.182,66.863],[-159.781,66.786],[-158.749,66.857],[-157.908,67.079],[-156.948,66.893],[-158.146,66.731],[-157.388,66.703],[-157.823,66.571],[-157.197,66.526],[-158.812,66.282],[-159.476,66.288],[-159.131,66.044],[-159.353,65.607],[-160.112,65.816],[-160.086,65.634],[-161.147,65.608],[-161.251,65.157],[-162.168,65.13],[-162.305,64.838],[-162.599,64.761],[-163.351,65.019],[-163.854,64.918],[-163.688,64.709],[-162.856,64.677],[-162.854,64.498],[-162.79,64.325],[-162.169,64.68],[-161.332,64.826],[-161.483,64.947],[-160.813,65.174],[-160.486,64.95],[-161.014,64.256],[-160.762,63.793],[-160.96,63.625],[-160.733,63.506],[-161.23,63.156],[-162.418,63.222],[-162.709,63.066],[-163.148,62.769],[-163.05,62.375],[-163.396,62.026],[-163.069,61.905],[-162.844,61.956],[-162.021,61.423],[-160.324,61.848],[-160.523,61.553],[-161.002,61.449],[-161.057,61.145],[-159.987,61.49],[-159.574,61.482],[-159.525,61.352],[-159.253,61.326],[-159.193,61.48],[-158.251,61.534],[-157.592,61.396],[-158.196,60.944],[-158.745,60.942],[-158.917,60.716],[-158.522,60.693],[-158.317,60.797],[-158.38,60.644],[-158.084,60.617],[-157.914,60.221],[-157.506,60.217]],[[-161.793,62.074],[-162.045,61.826],[-162.335,62.017],[-162.787,61.995],[-162.504,62.27],[-161.649,62.486],[-161.793,62.074]],[[-141.115,67.472],[-142.171,67.715],[-141.773,68.07],[-141.12,68.19],[-141.115,67.472]],[[-150.816,65.894],[-150.106,65.838],[-150.142,65.509],[-148.945,65.615],[-149.449,65.45],[-149.464,65.267],[-151.074,65.157],[-151.209,65.319],[-152.068,65.391],[-151.334,65.644],[-152.119,65.705],[-152.42,65.886],[-150.816,65.894]],[[-152.902,65.434],[-152.796,65.303],[-153.338,65.36],[-153.578,65.168],[-155.133,64.935],[-154.372,65.444],[-153.781,65.491],[-153.89,65.3],[-152.767,65.591],[-152.541,65.495],[-152.902,65.434]],[[-159.312,64.985],[-159.13,64.83],[-158.708,64.887],[-159.039,64.712],[-158.897,64.447],[-160.09,64.177],[-159.845,64.425],[-160.194,64.543],[-159.257,65.303],[-159.068,65.159],[-159.312,64.985]],[[-151.739,64.204],[-152.763,64.006],[-153.4,64.067],[-153.436,63.785],[-154.207,63.437],[-154.892,63.411],[-155.097,63.515],[-154.551,63.626],[-154.493,63.789],[-154.042,63.774],[-153.821,64.208],[-151.876,64.318],[-152.408,64.57],[-152.151,64.693],[-151.944,64.706],[-152.013,64.589],[-151.52,64.377],[-151.739,64.204]],[[-156.113,63.15],[-156.342,63.192],[-156.086,63.549],[-155.653,63.576],[-155.515,63.347],[-156.113,63.15]],[[-159.881,63.56],[-159.689,63.45],[-160.052,63.289],[-160.135,63.53],[-160.596,63.531],[-160.063,63.916],[-159.881,63.56]],[[-155.703,66.094],[-156.204,66.097],[-156.598,66.478],[-155.703,66.094]],[[-157.086,66.384],[-156.819,66.318],[-156.83,66.118],[-157.859,66.353],[-157.167,66.462],[-157.086,66.384]],[[-152.876,67.032],[-152.506,66.988],[-153.015,66.827],[-154.31,66.918],[-154.06,67.046],[-152.876,67.032]],[[-157.512,67.089],[-155.204,66.98],[-155.569,66.878],[-157.512,67.089]],[[-157.259,62.56],[-157.397,62.679],[-157.173,62.958],[-156.762,62.971],[-156.709,62.795],[-157.259,62.56]]],[[[150.162,45.871],[150.483,46.21],[150.24,46.212],[150.226,46.099],[149.552,45.755],[149.47,45.57],[150.162,45.871]]],[[[151.949,46.817],[152.284,47.173],[151.742,46.84],[151.949,46.817]]],[[[153.034,47.692],[152.984,47.786],[152.913,47.677],[153.034,47.692]]],[[[154.152,48.794],[154.195,48.895],[154.001,48.714],[154.152,48.794]]],[[[154.779,49.287],[154.835,49.621],[154.563,49.364],[154.59,49.268],[154.779,49.287]]],[[[156.023,50.38],[156.186,50.538],[156.008,50.751],[155.701,50.386],[155.283,50.252],[155.288,50.049],[155.506,49.998],[156.023,50.38]]],[[[156.341,50.594],[156.408,50.848],[156.168,50.716],[156.341,50.594]]],[[[155.596,50.803],[155.656,50.873],[155.418,50.886],[155.596,50.803]]],[[[158.471,52.735],[158.105,52.616],[158.339,52.284],[157.71,52.374],[158.081,51.793],[158.522,52.28],[158.35,52.605],[158.471,52.735]]],[[[167.669,54.758],[167.416,54.857],[168.019,54.554],[167.669,54.758]]],[[[166.603,54.692],[166.229,55.279],[165.713,55.29],[166.603,54.692]]],[[[164.554,59.131],[164.429,59.241],[163.626,59.014],[163.846,58.993],[163.386,58.463],[164.603,58.884],[164.554,59.131]]],[[[161.437,56.008],[161.872,56.278],[162.438,56.245],[162.374,56.442],[163.001,56.564],[162.553,56.225],[162.99,56.02],[163.313,56.214],[163.214,56.751],[162.762,56.798],[162.702,56.615],[162.196,56.649],[161.745,56.456],[161.322,56.607],[161.757,56.821],[161.751,57.38],[162.675,57.367],[163.18,57.633],[163.197,57.79],[162.496,57.946],[162.342,57.665],[161.887,58.01],[162.12,58.427],[163.011,59.032],[162.785,59.157],[163.19,59.083],[163.135,59.544],[162.174,58.768],[161.475,58.609],[161.093,58.087],[161.293,57.759],[160.468,57.198],[160.292,57.009],[159.69,56.222],[159.06,55.973],[158.863,55.303],[158.283,54.657],[158.01,53.817],[157.805,53.725],[157.419,53.993],[157.466,54.309],[157.164,54.516],[157.499,55.019],[157.195,55.218],[157.19,55.727],[157.634,56.112],[157.662,56.525],[157.992,56.839],[157.9,57.195],[158.147,57.305],[158.311,57.075],[158.616,57.083],[158.85,57.418],[159.516,57.654],[159.531,57.946],[160.244,58.145],[160.017,58.395],[160.209,58.609],[159.943,58.868],[160.295,59.376],[159.704,59.03],[159.56,58.762],[158.288,57.981],[157.643,58.006],[157.258,57.742],[156.903,57.878],[156.744,57.804],[156.967,57.406],[155.993,56.707],[156.025,56.843],[155.766,56.517],[155.469,55.358],[155.603,54.402],[156.214,52.618],[156.459,52.534],[156.295,52.511],[156.453,51.629],[157.141,51.817],[156.978,52.092],[157.422,52.276],[157.057,52.567],[157.88,53.45],[158.151,53.391],[158.216,52.984],[158.493,52.786],[158.502,53.063],[158.657,52.913],[159.486,53.26],[159.786,53.28],[159.993,53.145],[159.745,53.533],[159.908,53.528],[159.753,53.662],[160.034,54.179],[161.047,54.613],[161.305,54.492],[161.725,54.512],[162.101,54.832],[161.359,54.897],[160.341,54.76],[159.728,54.312],[159.188,54.407],[159.387,53.898],[158.849,53.97],[158.726,53.827],[158.509,53.882],[158.622,54.469],[160.106,54.832],[160.684,55.158],[161.023,55.753],[161.437,56.008]],[[160.822,55.902],[160.496,56.244],[160.737,56.466],[160.994,56.423],[161.137,56.033],[160.822,55.902]]],[[[164.626,60.371],[163.896,60.258],[163.799,60.055],[164.081,59.915],[164.174,60.097],[164.383,60.106],[164.842,59.825],[164.626,60.371]]],[[[-87.902,48.856],[-88.079,48.818],[-88.053,48.69],[-87.759,48.779],[-87.902,48.856]]],[[[137.025,55.137],[136.669,54.924],[137.039,54.951],[137.156,55.129],[137.025,55.137]]],[[[137.909,54.989],[137.922,55.142],[137.578,55.201],[137.255,54.791],[137.506,54.858],[137.736,54.641],[138.221,55.034],[137.909,54.989]]],[[[142.667,46.752],[142.796,46.593],[143.379,46.578],[143.43,46.035],[143.63,46.382],[143.528,46.841],[143.125,46.914],[143.057,47.267],[142.57,47.771],[142.993,49.087],[143.494,49.353],[143.307,49.399],[144.119,49.285],[144.789,48.683],[143.858,50.246],[143.414,51.624],[143.271,51.537],[143.36,51.752],[143.128,52.181],[143.41,52.708],[143.038,53.255],[143.163,53.361],[143.301,53.165],[143.242,53.34],[142.945,53.568],[143.045,54.097],[142.746,54.467],[142.614,54.255],[142.31,54.33],[142.684,53.945],[142.613,53.726],[142.748,53.851],[142.781,53.733],[142.687,53.64],[142.465,53.679],[142.668,53.546],[142.473,53.412],[142.164,53.545],[141.789,53.44],[141.894,52.557],[141.663,52.379],[141.672,51.873],[142.305,51.094],[142.076,50.562],[142.21,50.239],[142.103,49.225],[141.877,48.789],[142.206,48.298],[142.096,47.796],[142.595,47.13],[142.667,46.752]]],[[[49.664,56.692],[49.443,56.581],[49.927,56.54],[49.664,56.692]]],[[[52.585,57.211],[52.323,57.179],[52.048,56.859],[52.573,57.006],[52.585,57.211]]],[[[30.649,57.811],[30.175,57.704],[29.989,57.442],[29.961,57.291],[30.415,57.344],[30.252,57.142],[30.652,57.211],[30.688,57.134],[30.996,57.352],[31.237,57.341],[31.396,57.699],[31.38,57.432],[31.635,57.416],[31.278,57.284],[31.969,57.346],[32.052,57.668],[31.838,57.804],[31.111,57.897],[30.649,57.811]]],[[[29.649,58.645],[29.07,58.624],[28.804,58.405],[28.364,58.387],[28.6,58.179],[28.379,57.935],[28.518,57.81],[29.006,57.973],[28.795,58.049],[29.135,58.143],[28.977,58.339],[29.612,58.483],[29.649,58.645]]],[[[35.319,61.895],[35.292,62.093],[35.162,61.846],[35.319,61.895]]],[[[17.506,62.408],[17.37,62.471],[17.41,62.346],[17.506,62.408]]],[[[21.249,63.267],[21.293,63.143],[21.443,63.239],[21.249,63.267]]],[[[22.913,63.879],[22.698,63.781],[22.936,63.757],[22.913,63.879]]],[[[11.243,64.612],[11.022,64.621],[11.39,64.471],[11.243,64.612]]],[[[35.843,65.068],[35.497,65.05],[35.79,64.887],[35.843,65.068]]],[[[24.843,65.105],[24.596,64.974],[25.028,65.043],[24.843,65.105]]],[[[22.389,65.626],[22.21,65.571],[22.415,65.544],[22.389,65.626]]],[[[13,65.916],[13.315,65.27],[13.477,65.473],[13.616,65.327],[13.894,65.542],[14.022,65.384],[14.114,65.473],[14.41,65.421],[14.004,65.597],[13.517,65.554],[13.277,65.803],[13.53,65.796],[13.675,66.114],[13.89,65.821],[13.89,66.21],[14.944,66.5],[14,66.418],[14,66.305],[13.543,66.107],[13.555,66.23],[12.761,66.104],[13.016,66.07],[13,65.916]]],[[[33.212,66.604],[32.914,66.593],[33.338,66.525],[33.212,66.604]]],[[[53.177,67.469],[52.735,67.442],[52.689,67.336],[53.03,67.168],[53.568,67.179],[53.879,67.513],[53.177,67.469]]],[[[-79.331,52.033],[-79.644,52.012],[-79.629,51.917],[-79.247,51.95],[-79.331,52.033]]],[[[-81.141,53.185],[-81.821,53.169],[-82.054,53.008],[-80.712,52.667],[-80.763,52.93],[-81.141,53.185]]],[[[-79.952,53.254],[-80.014,53.391],[-80.095,53.25],[-79.952,53.254]]],[[[112.237,48.879],[113.04,49.639],[112.39,49.509],[112.056,48.997],[112.237,48.879]]]]}}]}
