{
 "type": "FeatureCollection",
 "features": [
  {
   "type": "Feature",
   "properties": {
    "key": "a"
   },
   "geometry": {
    "type": "LineString",
    "coordinates": [
     [
      89.6,
      26.3
     ],
     [
      89.7,
      25.8
     ],
     [
      89.8,
      24.5
     ],
     [
      90.3,
      23.6
     ],
     [
      90.6,
      22.8
     ]
    ]
   }
  },
  {
   "type": "Feature",
   "properties": {
    "key": "c"
   },
   "geometry": {
    "type": "LineString",
    "coordinates": [
     [
      88.4,
      26.2
     ],
     [
      88.9,
      25.4
     ],
     [
      89.75,
      25.2
     ]
    ]
   }
  },
  {
   "type": "Feature",
   "properties": {
    "key": "e"
   },
   "geometry": {
    "type": "LineString",
    "coordinates": [
     [
      88.1,
      25.9
     ],
     [
      88.5,
      25.75
     ],
     [
      88.75,
      25.6
     ]
    ]
   }
  },
  {
   "type": "Feature",
   "properties": {
    "key": "d"
   },
   "geometry": {
    "type": "LineString",
    "coordinates": [
     [
      90,
      24
     ],
     [
      89.4,
      23.3
     ],
     [
      89.2,
      22.5
     ]
    ]
   }
  },
  {
   "type": "Feature",
   "properties": {
    "key": "b"
   },
   "geometry": {
    "type": "LineString",
    "coordinates": [
     [
      91.9,
      24.9
     ],
     [
      91.4,
      24.2
     ],
     [
      90.9,
      23.5
     ],
     [
      90.7,
      22.9
     ]
    ]
   }
  },
  {
   "type": "Feature",
   "properties": {
    "key": "f"
   },
   "geometry": {
    "type": "LineString",
    "coordinates": [
     [
      92,
      23.6
     ],
     [
      91.5,
      23.7
     ],
     [
      91.2,
      23.8
     ]
    ]
   }
  }
 ]
}
